[{"regex": "^(.*[co].*\\s+slav[on]*ic.*|.*slav[on]*ic,\\s+.*[co].*|\\s*chu\\s*|\\s*cu\\s*)$", "iso2": "cu", "iso3": "chu", "name_en": "Church Slavic; Old Slavonic; Church Slavonic; Old Bulgarian; Old Church Slavonic", "name_fr": "slavon d'\u00e9glise; vieux slave; slavon liturgique; vieux bulgare", "name_cs": "c\u00edrkevn\u00ed slovan\u0161tina (staroslov\u011bn\u0161tina)", "name_ru": "\u0446\u0435\u0440\u043a\u043e\u0432\u043d\u043e\u0441\u043b\u0430\u0432\u044f\u043d\u0441\u043a\u0438\u0439 (\u0441\u0442\u0430\u0440\u043e\u0441\u043b\u0430\u0432\u044f\u043d\u0441\u043a\u0438\u0439)"}, {"regex": "^(.*[y].*\\s+tonga.*|.*tonga,*\\s+.*[y].*|\\s*tog\\s*)$", "iso2": "", "iso3": "tog", "name_en": "Tonga (Nyasa)", "name_fr": "tonga (Nyasa)", "name_cs": "tong\u0161tina (nyasa)", "name_ru": "\u043d\u044c\u044f\u0441\u0430 (\u0442\u043e\u043d\u0433\u0430)"}, {"regex": "^(.*abkhazian.*|\\s*abk\\s*|\\s*ab\\s*)$", "iso2": "ab", "iso3": "abk", "name_en": "Abkhazian", "name_fr": "abkhaze", "name_cs": "abch\u00e1z\u0161tina", "name_ru": "\u0430\u0431\u0445\u0430\u0437\u0441\u043a\u0438\u0439"}, {"regex": "^(.*achinese.*|\\s*ace\\s*)$", "iso2": "", "iso3": "ace", "name_en": "Achinese", "name_fr": "aceh", "name_cs": "aceh\u0161tina", "name_ru": "\u0430\u0447\u0435\u0445\u0441\u043a\u0438\u0439"}, {"regex": "^(.*acoli.*|\\s*ach\\s*)$", "iso2": "", "iso3": "ach", "name_en": "Acoli", "name_fr": "acoli", "name_cs": "akol\u0161tina", "name_ru": "\u0430\u0447\u043e\u043b\u0438"}, {"regex": "^(.*adangme.*|\\s*ada\\s*)$", "iso2": "", "iso3": "ada", "name_en": "Adangme", "name_fr": "adangme", "name_cs": "adangme", "name_ru": "\u0430\u0434\u0430\u043d\u0433\u043c\u0435"}, {"regex": "^(.*adyghe.*|.*adygei.*|\\s*ady\\s*)$", "iso2": "", "iso3": "ady", "name_en": "Adyghe; Adygei", "name_fr": "adygh\u00e9", "name_cs": "adygej\u0161tina", "name_ru": "\u0430\u0434\u044b\u0433\u0435\u0439\u0441\u043a\u0438\u0439"}, {"regex": "^(.*afar.*|\\s*aar\\s*|\\s*aa\\s*)$", "iso2": "aa", "iso3": "aar", "name_en": "Afar", "name_fr": "afar", "name_cs": "afar\u0161tina", "name_ru": "\u0430\u0444\u0430\u0440\u0441\u043a\u0438\u0439"}, {"regex": "^(.*afrihili.*|\\s*afh\\s*)$", "iso2": "", "iso3": "afh", "name_en": "Afrihili", "name_fr": "afrihili", "name_cs": "afrihili (um\u011bl\u00fd jazyk)", "name_ru": "\u0430\u0444\u0440\u0438\u0445\u0438\u043b\u0438 (\u0438\u0441\u043a\u0443\u0441\u0441\u0442\u0432\u0435\u043d\u043d\u044b\u0439 \u044f\u0437\u044b\u043a)"}, {"regex": "^(.*afrikaans.*|\\s*afr\\s*|\\s*af\\s*)$", "iso2": "af", "iso3": "afr", "name_en": "Afrikaans", "name_fr": "afrikaans", "name_cs": "afrik\u00e1n\u0161tina", "name_ru": "\u0430\u0444\u0440\u0438\u043a\u0430\u0430\u043d\u0441"}, {"regex": "^(.*afro-asiatic.*|\\s*afa\\s*)$", "iso2": "", "iso3": "afa", "name_en": "Afro-Asiatic languages", "name_fr": "afro-asiatiques, langues", "name_cs": "afroasijsk\u00e9 jazyky, ostatn\u00ed", "name_ru": "\u0430\u0444\u0440\u0430\u0437\u0438\u0439\u0441\u043a\u0438\u0439 \u044f\u0437\u044b\u043a"}, {"regex": "^(.*ainu.*|\\s*ain\\s*)$", "iso2": "", "iso3": "ain", "name_en": "Ainu", "name_fr": "a\u00efnou", "name_cs": "ain\u0161tina", "name_ru": "\u0430\u0439\u043d\u0443"}, {"regex": "^(.*akkadian.*|\\s*akk\\s*)$", "iso2": "", "iso3": "akk", "name_en": "Akkadian", "name_fr": "akkadien", "name_cs": "akkad\u0161tina", "name_ru": "\u0430\u043a\u043a\u0430\u0434\u0441\u043a\u0438\u0439"}, {"regex": "^(.*albanian.*|\\s*alb\\s*|\\s*sqi\\s*|\\s*sq\\s*)$", "iso2": "sq", "iso3": "sqi", "name_en": "Albanian", "name_fr": "albanais", "name_cs": "alb\u00e1n\u0161tina", "name_ru": "\u0430\u043b\u0431\u0430\u043d\u0441\u043a\u0438\u0439"}, {"regex": "^(.*aleut.*|\\s*ale\\s*)$", "iso2": "", "iso3": "ale", "name_en": "Aleut", "name_fr": "al\u00e9oute", "name_cs": "aleut\u0161tina", "name_ru": "\u0430\u043b\u0435\u0443\u0442\u0441\u043a\u0438\u0439"}, {"regex": "^(.*algonquian.*|\\s*alg\\s*)$", "iso2": "", "iso3": "alg", "name_en": "Algonquian languages", "name_fr": "algonquines, langues", "name_cs": "algonkinsk\u00e9 jazyky", "name_ru": "\u0430\u043b\u0433\u043e\u043d\u043a\u0438\u043d\u0441\u043a\u0438\u0435 \u044f\u0437\u044b\u043a\u0438"}, {"regex": "^(.*altaic.*|\\s*tut\\s*)$", "iso2": "", "iso3": "tut", "name_en": "Altaic languages", "name_fr": "alta\u00efques, langues", "name_cs": "altajsk\u00e9 jazyky, ostatn\u00ed", "name_ru": "\u0430\u043b\u0442\u0430\u0439\u0441\u043a\u0438\u0439 \u044f\u0437\u044b\u043a"}, {"regex": "^(.*amharic.*|\\s*amh\\s*|\\s*am\\s*)$", "iso2": "am", "iso3": "amh", "name_en": "Amharic", "name_fr": "amharique", "name_cs": "amhar\u0161tina", "name_ru": "\u0430\u043c\u0445\u0430\u0440\u0441\u043a\u0438\u0439"}, {"regex": "^(.*anc[ient.]*\\s+greek.*|.*greek,\\s+anc[ient.]*.*|\\s*grc\\s*)$", "iso2": "", "iso3": "grc", "name_en": "Greek, Ancient (to 1453)", "name_fr": "grec ancien (jusqu'\u00e0 1453)", "name_cs": "starov\u011bk\u00e1 \u0159e\u010dtina (do 1453)", "name_ru": "\u0434\u0440\u0435\u0432\u043d\u0435\u0433\u0440\u0435\u0447\u0435\u0441\u043a\u0438\u0439 (\u0434\u043e 1453 \u0433.)"}, {"regex": "^(.*angika.*|\\s*anp\\s*)$", "iso2": "", "iso3": "anp", "name_en": "Angika", "name_fr": "angika", "name_cs": "ang\u0161tina", "name_ru": "\u0430\u043d\u0433\u0438\u043a\u0430"}, {"regex": "^(.*apache.*|\\s*apa\\s*)$", "iso2": "", "iso3": "apa", "name_en": "Apache languages", "name_fr": "apaches, langues", "name_cs": "apa\u010dsk\u00e9 jazyky", "name_ru": "\u0430\u043f\u0430\u0447\u0441\u043a\u0438\u0435 \u044f\u0437\u044b\u043a\u0438"}, {"regex": "^(.*aragonese.*|\\s*arg\\s*|\\s*an\\s*)$", "iso2": "an", "iso3": "arg", "name_en": "Aragonese", "name_fr": "aragonais", "name_cs": "aragon\u0161tina", "name_ru": "\u0430\u0440\u0430\u0433\u043e\u043d\u0441\u043a\u0438\u0439"}, {"regex": "^(.*arapaho.*|\\s*arp\\s*)$", "iso2": "", "iso3": "arp", "name_en": "Arapaho", "name_fr": "arapaho", "name_cs": "arapa\u017e\u0161tina", "name_ru": "\u0430\u0440\u0430\u043f\u0430\u0445\u043e"}, {"regex": "^(.*arawak.*|\\s*arw\\s*)$", "iso2": "", "iso3": "arw", "name_en": "Arawak", "name_fr": "arawak", "name_cs": "arawack\u00e9 jazyky", "name_ru": "\u0430\u0440\u0430\u0432\u0430\u043a\u0441\u043a\u0438\u0439"}, {"regex": "^(.*armenian.*|\\s*arm\\s*|\\s*hye\\s*|\\s*hy\\s*)$", "iso2": "hy", "iso3": "hye", "name_en": "Armenian", "name_fr": "arm\u00e9nien", "name_cs": "arm\u00e9n\u0161tina", "name_ru": "\u0430\u0440\u043c\u044f\u043d\u0441\u043a\u0438\u0439"}, {"regex": "^(.*aromanian.*|.*arumanian.*|.*macedo-romanian.*|\\s*rup\\s*)$", "iso2": "", "iso3": "rup", "name_en": "Aromanian; Arumanian; Macedo-Romanian", "name_fr": "aroumain; mac\u00e9do-roumain", "name_cs": "arumun\u0161tina", "name_ru": "\u0430\u0440\u0443\u043c\u044b\u043d\u0441\u043a\u0438\u0439"}, {"regex": "^(.*artificial.*|\\s*art\\s*)$", "iso2": "", "iso3": "art", "name_en": "Artificial languages", "name_fr": "artificielles, langues", "name_cs": "um\u011bl\u00e9 jazyky, ostatn\u00ed", "name_ru": "\u0438\u0441\u043a\u0443\u0441\u0441\u0442\u0432\u0435\u043d\u043d\u044b\u0439 \u044f\u0437\u044b\u043a"}, {"regex": "^(.*assamese.*|\\s*asm\\s*|\\s*as\\s*)$", "iso2": "as", "iso3": "asm", "name_en": "Assamese", "name_fr": "assamais", "name_cs": "as\u00e1m\u0161tina", "name_ru": "\u0430\u0441\u0441\u0430\u043c\u0441\u043a\u0438\u0439"}, {"regex": "^(.*asturian.*|.*bable.*|.*leonese.*|.*asturleonese.*|\\s*ast\\s*)$", "iso2": "", "iso3": "ast", "name_en": "Asturian; Bable; Leonese; Asturleonese", "name_fr": "asturien; bable; l\u00e9onais; asturol\u00e9onais", "name_cs": "astur\u0161tina", "name_ru": "\u0430\u0441\u0442\u0443\u0440\u0438\u0439\u0441\u043a\u0438\u0439"}, {"regex": "^(.*australian.*|\\s*aus\\s*)$", "iso2": "", "iso3": "aus", "name_en": "Australian languages", "name_fr": "australiennes, langues", "name_cs": "australsk\u00e9 jazyky", "name_ru": "\u0430\u0432\u0441\u0442\u0440\u0430\u043b\u0438\u0439\u0441\u043a\u0438\u0439 \u044f\u0437\u044b\u043a"}, {"regex": "^(.*austronesian.*|\\s*map\\s*)$", "iso2": "", "iso3": "map", "name_en": "Austronesian languages", "name_fr": "austron\u00e9siennes, langues", "name_cs": "austron\u00e9sk\u00e9 jazyky, ostatn\u00ed", "name_ru": "\u0430\u0432\u0441\u0442\u0440\u043e\u043d\u0435\u0437\u0438\u0439\u0441\u043a\u0438\u0439"}, {"regex": "^(.*avaric.*|\\s*ava\\s*|\\s*av\\s*)$", "iso2": "av", "iso3": "ava", "name_en": "Avaric", "name_fr": "avar", "name_cs": "avar\u0161tina", "name_ru": "\u0430\u0432\u0430\u0440\u0441\u043a\u0438\u0439"}, {"regex": "^(.*avestan.*|\\s*ave\\s*|\\s*ae\\s*)$", "iso2": "ae", "iso3": "ave", "name_en": "Avestan", "name_fr": "avestique", "name_cs": "avest\u00e1n\u0161tina", "name_ru": "\u0430\u0432\u0435\u0441\u0442\u0438\u0439\u0441\u043a\u0438\u0439"}, {"regex": "^(.*awadhi.*|\\s*awa\\s*)$", "iso2": "", "iso3": "awa", "name_en": "Awadhi", "name_fr": "awadhi", "name_cs": "awadh\u0161tina", "name_ru": "\u0430\u0432\u0430\u0434\u0445\u0438"}, {"regex": "^(.*aymara.*|\\s*aym\\s*|\\s*ay\\s*)$", "iso2": "ay", "iso3": "aym", "name_en": "Aymara", "name_fr": "aymara", "name_cs": "ajmar\u0161tina", "name_ru": "\u0430\u0439\u043c\u0430\u0440\u0430"}, {"regex": "^(.*azerbaijani.*|\\s*aze\\s*|\\s*az\\s*)$", "iso2": "az", "iso3": "aze", "name_en": "Azerbaijani", "name_fr": "az\u00e9ri", "name_cs": "\u00e1zerb\u00e1jd\u017e\u00e1n\u0161tina", "name_ru": "\u0430\u0437\u0435\u0440\u0431\u0430\u0439\u0434\u0436\u0430\u043d\u0441\u043a\u0438\u0439"}, {"regex": "^(.*balinese.*|\\s*ban\\s*)$", "iso2": "", "iso3": "ban", "name_en": "Balinese", "name_fr": "balinais", "name_cs": "balij\u0161tina", "name_ru": "\u0431\u0430\u043b\u0438\u0439\u0441\u043a\u0438\u0439"}, {"regex": "^(.*baltic.*|\\s*bat\\s*)$", "iso2": "", "iso3": "bat", "name_en": "Baltic languages", "name_fr": "baltes, langues", "name_cs": "baltsk\u00e9 jazyky, ostatn\u00ed", "name_ru": "\u0431\u0430\u043b\u0442\u0438\u0439\u0441\u043a\u0438\u0439 \u044f\u0437\u044b\u043a"}, {"regex": "^(.*baluchi.*|\\s*bal\\s*)$", "iso2": "", "iso3": "bal", "name_en": "Baluchi", "name_fr": "baloutchi", "name_cs": "bal\u00fa\u010d\u0161tina", "name_ru": "\u0431\u0435\u043b\u0443\u0434\u0436\u0441\u043a\u0438\u0439"}, {"regex": "^(.*bambara.*|\\s*bam\\s*|\\s*bm\\s*)$", "iso2": "bm", "iso3": "bam", "name_en": "Bambara", "name_fr": "bambara", "name_cs": "bambar\u0161tina", "name_ru": "\u0431\u0430\u043c\u0431\u0430\u0440\u0430"}, {"regex": "^(.*bamileke.*|\\s*bai\\s*)$", "iso2": "", "iso3": "bai", "name_en": "Bamileke languages", "name_fr": "bamil\u00e9k\u00e9, langues", "name_cs": "bamileke", "name_ru": "\u0431\u0430\u043c\u0438\u043b\u0435\u043a\u0435 \u044f\u0437\u044b\u043a\u0438"}, {"regex": "^(.*banda.*|\\s*bad\\s*)$", "iso2": "", "iso3": "bad", "name_en": "Banda languages", "name_fr": "banda, langues", "name_cs": "banda", "name_ru": "\u0431\u0430\u043d\u0434\u0430"}, {"regex": "^(.*bantu.*|\\s*bnt\\s*)$", "iso2": "", "iso3": "bnt", "name_en": "Bantu languages", "name_fr": "bantou, langues", "name_cs": "bantusk\u00e9 jazyky, ostatn\u00ed", "name_ru": "\u0431\u0430\u043d\u0442\u0443"}, {"regex": "^(.*basa.*|\\s*bas\\s*)$", "iso2": "", "iso3": "bas", "name_en": "Basa", "name_fr": "basa", "name_cs": "basa", "name_ru": "\u0431\u0430\u0441\u0430"}, {"regex": "^(.*bashkir.*|\\s*bak\\s*|\\s*ba\\s*)$", "iso2": "ba", "iso3": "bak", "name_en": "Bashkir", "name_fr": "bachkir", "name_cs": "ba\u0161kir\u0161tina", "name_ru": "\u0431\u0430\u0448\u043a\u0438\u0440\u0441\u043a\u0438\u0439"}, {"regex": "^(.*basque.*|\\s*baq\\s*|\\s*eus\\s*|\\s*eu\\s*)$", "iso2": "eu", "iso3": "eus", "name_en": "Basque", "name_fr": "basque", "name_cs": "baski\u010dtina", "name_ru": "\u0431\u0430\u0441\u043a\u0441\u043a\u0438\u0439"}, {"regex": "^(.*batak.*|\\s*btk\\s*)$", "iso2": "", "iso3": "btk", "name_en": "Batak languages", "name_fr": "batak, langues", "name_cs": "bata\u010dtina", "name_ru": "\u0431\u0430\u0442\u0430\u043a\u0441\u043a\u0438\u0439"}, {"regex": "^(.*beja.*|.*bedawiyet.*|\\s*bej\\s*)$", "iso2": "", "iso3": "bej", "name_en": "Beja; Bedawiyet", "name_fr": "bedja", "name_cs": "bed\u017ea", "name_ru": "\u0431\u0435\u0434\u0436\u0430"}, {"regex": "^(.*belarusian.*|\\s*bel\\s*|\\s*be\\s*)$", "iso2": "be", "iso3": "bel", "name_en": "Belarusian", "name_fr": "bi\u00e9lorusse", "name_cs": "b\u011bloru\u0161tina", "name_ru": "\u0431\u0435\u043b\u043e\u0440\u0443\u0441\u0441\u043a\u0438\u0439"}, {"regex": "^(.*bemba.*|\\s*bem\\s*)$", "iso2": "", "iso3": "bem", "name_en": "Bemba", "name_fr": "bemba", "name_cs": "bemb\u0161tina", "name_ru": "\u0431\u0435\u043c\u0431\u0430"}, {"regex": "^(.*bengali.*|\\s*ben\\s*|\\s*bn\\s*)$", "iso2": "bn", "iso3": "ben", "name_en": "Bengali", "name_fr": "bengali", "name_cs": "beng\u00e1l\u0161tina", "name_ru": "\u0431\u0435\u043d\u0433\u0430\u043b\u044c\u0441\u043a\u0438\u0439"}, {"regex": "^(.*berber.*|\\s*ber\\s*)$", "iso2": "", "iso3": "ber", "name_en": "Berber languages", "name_fr": "berb\u00e8res, langues", "name_cs": "berbersk\u00e9 jazyky, ostatn\u00ed", "name_ru": "\u0431\u0435\u0440\u0431\u0435\u0440\u0441\u043a\u0438\u0439"}, {"regex": "^(.*bhojpuri.*|\\s*bho\\s*)$", "iso2": "", "iso3": "bho", "name_en": "Bhojpuri", "name_fr": "bhojpuri", "name_cs": "bhojpur\u0161tina", "name_ru": "\u0431\u0445\u043e\u0434\u0436\u043f\u0443\u0440\u0438"}, {"regex": "^(.*bihari.*|\\s*bih\\s*|\\s*bh\\s*)$", "iso2": "bh", "iso3": "bih", "name_en": "Bihari languages", "name_fr": "langues biharis", "name_cs": "bih\u00e1r\u0161tina", "name_ru": "\u0431\u0438\u0445\u0430\u0440\u0441\u043a\u0438\u0435 \u044f\u0437\u044b\u043a\u0438"}, {"regex": "^(.*bikol.*|\\s*bik\\s*)$", "iso2": "", "iso3": "bik", "name_en": "Bikol", "name_fr": "bikol", "name_cs": "bikol\u0161tina", "name_ru": "\u0431\u0438\u043a\u043e\u043b\u044c\u0441\u043a\u0438\u0439"}, {"regex": "^(.*bini.*|[^m,]*edo[^m,]*|\\s*bin\\s*)$", "iso2": "", "iso3": "bin", "name_en": "Bini; Edo", "name_fr": "bini; edo", "name_cs": "bini", "name_ru": "\u0431\u0438\u043d\u0438"}, {"regex": "^(.*bislama.*|\\s*bis\\s*|\\s*bi\\s*)$", "iso2": "bi", "iso3": "bis", "name_en": "Bislama", "name_fr": "bichlamar", "name_cs": "bislam\u0161tina", "name_ru": "\u0431\u0438\u0441\u043b\u0430\u043c\u0430"}, {"regex": "^(.*blin.*|.*bilin.*|\\s*byn\\s*)$", "iso2": "", "iso3": "byn", "name_en": "Blin; Bilin", "name_fr": "blin; bilen", "name_cs": "blin\u0161tina", "name_ru": "\u0431\u0438\u043b\u0438\u043d (\u0431\u043b\u0438\u043d)"}, {"regex": "^(.*blissymbols.*|.*blissymbolics.*|.*bliss.*|\\s*zbl\\s*)$", "iso2": "", "iso3": "zbl", "name_en": "Blissymbols; Blissymbolics; Bliss", "name_fr": "symboles Bliss; Bliss", "name_cs": "bliss syst\u00e9m", "name_ru": "\u0431\u043b\u0438\u0441\u0441\u0438\u043c\u0432\u043e\u043b\u0438\u043a\u0430"}, {"regex": "^(.*bosnian.*|\\s*bos\\s*|\\s*bs\\s*)$", "iso2": "bs", "iso3": "bos", "name_en": "Bosnian", "name_fr": "bosniaque", "name_cs": "bosen\u0161tina", "name_ru": "\u0431\u043e\u0441\u043d\u0438\u0439\u0441\u043a\u0438\u0439"}, {"regex": "^(.*braj.*|\\s*bra\\s*)$", "iso2": "", "iso3": "bra", "name_en": "Braj", "name_fr": "braj", "name_cs": "brad\u017e\u0161tina", "name_ru": "\u0431\u0440\u0430\u0443\u0438"}, {"regex": "^(.*breton.*|\\s*bre\\s*|\\s*br\\s*)$", "iso2": "br", "iso3": "bre", "name_en": "Breton", "name_fr": "breton", "name_cs": "breton\u0161tina", "name_ru": "\u0431\u0440\u0435\u0442\u043e\u043d\u0441\u043a\u0438\u0439"}, {"regex": "^(.*buginese.*|\\s*bug\\s*)$", "iso2": "", "iso3": "bug", "name_en": "Buginese", "name_fr": "bugi", "name_cs": "bugi\u0161tina", "name_ru": "\u0431\u0443\u0433\u0438\u0439\u0441\u043a\u0438\u0439"}, {"regex": "^(.*buriat.*|\\s*bua\\s*)$", "iso2": "", "iso3": "bua", "name_en": "Buriat", "name_fr": "bouriate", "name_cs": "burjat\u0161tina", "name_ru": "\u0431\u0443\u0440\u044f\u0442\u0441\u043a\u0438\u0439"}, {"regex": "^(.*burmese.*|\\s*bur\\s*|\\s*mya\\s*|\\s*my\\s*)$", "iso2": "my", "iso3": "mya", "name_en": "Burmese", "name_fr": "birman", "name_cs": "barm\u0161tina", "name_ru": "\u0431\u0438\u0440\u043c\u0430\u043d\u0441\u043a\u0438\u0439"}, {"regex": "^(.*caddo.*|\\s*cad\\s*)$", "iso2": "", "iso3": "cad", "name_en": "Caddo", "name_fr": "caddo", "name_cs": "caddo", "name_ru": "\u043a\u0430\u0434\u0434\u043e"}, {"regex": "^(.*catalan.*|.*valencian.*|\\s*cat\\s*|\\s*ca\\s*)$", "iso2": "ca", "iso3": "cat", "name_en": "Catalan; Valencian", "name_fr": "catalan; valencien", "name_cs": "katal\u00e1n\u0161tina", "name_ru": "\u043a\u0430\u0442\u0430\u043b\u0430\u043d\u0441\u043a\u0438\u0439"}, {"regex": "^(.*caucasian.*|\\s*cau\\s*)$", "iso2": "", "iso3": "cau", "name_en": "Caucasian languages", "name_fr": "caucasiennes, langues", "name_cs": "kavkazsk\u00e9 jazyky, ostatn\u00ed", "name_ru": "\u043a\u0430\u0432\u043a\u0430\u0437\u0441\u043a\u0438\u0439 \u044f\u0437\u044b\u043a"}, {"regex": "^(.*cebuano.*|\\s*ceb\\s*)$", "iso2": "", "iso3": "ceb", "name_en": "Cebuano", "name_fr": "cebuano", "name_cs": "cebu\u00e1n\u0161tina", "name_ru": "\u043a\u0435\u0431\u0443\u0430\u043d\u043e"}, {"regex": "^(.*celtic.*|\\s*cel\\s*)$", "iso2": "", "iso3": "cel", "name_en": "Celtic languages", "name_fr": "celtiques, langues; celtes, langues", "name_cs": "keltsk\u00e9 jazyky, ostatn\u00ed", "name_ru": "\u043a\u0435\u043b\u044c\u0442\u0441\u043a\u0438\u0435 \u0434\u0440\u0443\u0433\u0438\u0435"}, {"regex": "^(.*cent[ral.]*\\s+khmer.*|.*khmer,\\s+cent[ral.]*.*|\\s*khm\\s*|\\s*km\\s*)$", "iso2": "km", "iso3": "khm", "name_en": "Central Khmer", "name_fr": "khmer central", "name_cs": "khm\u00e9r\u0161tina", "name_ru": "\u043a\u0445\u043c\u0435\u0440\u0441\u043a\u0438\u0439"}, {"regex": "^(.*central\\s+american\\s+indian.*|\\s*cai\\s*)$", "iso2": "", "iso3": "cai", "name_en": "Central American Indian languages", "name_fr": "am\u00e9rindiennes de l'Am\u00e9rique centrale, langues", "name_cs": "indi\u00e1nsk\u00e9 jazyky st\u0159edn\u00ed Ameriky, ostatn\u00ed", "name_ru": "\u044f\u0437\u044b\u043a \u0438\u043d\u0434\u0435\u0439\u0446\u0435\u0432 \u0426\u0435\u043d\u0442\u0440\u0430\u043b\u044c\u043d\u043e\u0439 \u0410\u043c\u0435\u0440\u0438\u043a\u0438"}, {"regex": "^(.*chagatai.*|\\s*chg\\s*)$", "iso2": "", "iso3": "chg", "name_en": "Chagatai", "name_fr": "djaghata\u00ef", "name_cs": "\u010dagataj\u0161tina", "name_ru": "\u0447\u0430\u0433\u0430\u0442\u0430\u0439\u0441\u043a\u0438\u0439"}, {"regex": "^(.*chamic.*|\\s*cmc\\s*)$", "iso2": "", "iso3": "cmc", "name_en": "Chamic languages", "name_fr": "chames, langues", "name_cs": "\u010dam\u0161tina", "name_ru": "\u0447\u0430\u043c\u0441\u043a\u0438\u0439 \u044f\u0437\u044b\u043a"}, {"regex": "^(.*chamorro.*|\\s*cha\\s*|\\s*ch\\s*)$", "iso2": "ch", "iso3": "cha", "name_en": "Chamorro", "name_fr": "chamorro", "name_cs": "\u010damoro", "name_ru": "\u0447\u0430\u043c\u043e\u0440\u0440\u043e"}, {"regex": "^(.*chechen.*|\\s*che\\s*|\\s*ce\\s*)$", "iso2": "ce", "iso3": "che", "name_en": "Chechen", "name_fr": "tch\u00e9tch\u00e8ne", "name_cs": "\u010de\u010den\u0161tina", "name_ru": "\u0447\u0435\u0447\u0435\u043d\u0441\u043a\u0438\u0439"}, {"regex": "^(.*cherokee.*|\\s*chr\\s*)$", "iso2": "", "iso3": "chr", "name_en": "Cherokee", "name_fr": "cherokee", "name_cs": "\u010derok\u00e9z\u0161tina", "name_ru": "\u0447\u0435\u0440\u043e\u043a\u0438"}, {"regex": "^(.*cheyenne.*|\\s*chy\\s*)$", "iso2": "", "iso3": "chy", "name_en": "Cheyenne", "name_fr": "cheyenne", "name_cs": "\u010dejen\u0161tina", "name_ru": "\u0447\u0435\u0439\u0435\u043d\u043d"}, {"regex": "^(.*chibcha.*|\\s*chb\\s*)$", "iso2": "", "iso3": "chb", "name_en": "Chibcha", "name_fr": "chibcha", "name_cs": "\u010dib\u010da", "name_ru": "\u0447\u0438\u0431\u0447\u0430"}, {"regex": "^(.*chichewa.*|.*chewa.*|.*nyanja.*|\\s*nya\\s*|\\s*ny\\s*)$", "iso2": "ny", "iso3": "nya", "name_en": "Chichewa; Chewa; Nyanja", "name_fr": "chichewa; chewa; nyanja", "name_cs": "\u0148and\u017e\u0161tina", "name_ru": "\u043d\u044c\u044f\u043d\u0434\u0436\u0430"}, {"regex": "^(.*chinese.*|.*mandarin.*|\\s*chi\\s*|\\s*zho\\s*|\\s*zh\\s*)$", "iso2": "zh", "iso3": "zho", "name_en": "Chinese; Mandarin", "name_fr": "chinois", "name_cs": "\u010d\u00edn\u0161tina; mandar\u00edn\u0161tina", "name_ru": "\u043a\u0438\u0442\u0430\u0439\u0441\u043a\u0438\u0439; \u043c\u0430\u043d\u0434\u0430\u0440\u0438\u043d\u0441\u043a\u0438\u0439"}, {"regex": "^(.*chinook\\s+jargon.*|.*jargon,\\s+chinook.*|\\s*chn\\s*)$", "iso2": "", "iso3": "chn", "name_en": "Chinook jargon", "name_fr": "chinook, jargon", "name_cs": "Chinook (\u010dinuk) pid\u017ein", "name_ru": "\u0447\u0438\u043d\u0443\u043a \u0436\u0430\u0440\u0433\u043e\u043d"}, {"regex": "^(.*chipewyan.*|.*dene\\s+suline.*|.*suline,\\s+dene.*|\\s*chp\\s*)$", "iso2": "", "iso3": "chp", "name_en": "Chipewyan; Dene Suline", "name_fr": "chipewyan", "name_cs": "\u010dipevaj\u0161tina", "name_ru": "\u0447\u0438\u043f\u0435\u0432\u0430\u0439\u044f\u043d"}, {"regex": "^(.*choctaw.*|\\s*cho\\s*)$", "iso2": "", "iso3": "cho", "name_en": "Choctaw", "name_fr": "choctaw", "name_cs": "\u010dokt\u0161tina", "name_ru": "\u0447\u043e\u043a\u0442\u0430\u0432"}, {"regex": "^(.*chuukese.*|\\s*chk\\s*)$", "iso2": "", "iso3": "chk", "name_en": "Chuukese", "name_fr": "chuuk", "name_cs": "\u010duk\u0161tina", "name_ru": "\u0447\u0443\u043a\u043e\u0442\u0441\u043a\u0438\u0439"}, {"regex": "^(.*chuvash.*|\\s*chv\\s*|\\s*cv\\s*)$", "iso2": "cv", "iso3": "chv", "name_en": "Chuvash", "name_fr": "tchouvache", "name_cs": "\u010duva\u0161tina", "name_ru": "\u0447\u0443\u0432\u0430\u0448\u0441\u043a\u0438\u0439"}, {"regex": "^(.*classical\\s+newari.*|.*old\\s+newari.*|.*newari,\\s+classical.*|.*old\\s+newari.*|.*newari,\\s+old.*|.*classical\\s+nepal\\s+bhasa.*|\\s*nwc\\s*)$", "iso2": "", "iso3": "nwc", "name_en": "Classical Newari; Old Newari; Classical Nepal Bhasa", "name_fr": "newari classique", "name_cs": "newar\u0161tina (klasick\u00e1)", "name_ru": "\u043d\u0435\u0432\u0430\u0440\u0438 (\u043a\u043b\u0430\u0441\u0441\u0438\u0447\u0435\u0441\u043a\u0438\u0439)"}, {"regex": "^(.*classical\\s+syriac.*|.*syriac,\\s+classical.*|\\s*syc\\s*)$", "iso2": "", "iso3": "syc", "name_en": "Classical Syriac", "name_fr": "syriaque classique", "name_cs": "syr\u0161tina (klasick\u00e1)", "name_ru": "\u043a\u043b\u0430\u0441\u0441\u0438\u0447\u0435\u0441\u043a\u0438\u0439 \u0441\u0438\u0440\u0438\u0439\u0441\u043a\u0438\u0439"}, {"regex": "^(.*coptic.*|\\s*cop\\s*)$", "iso2": "", "iso3": "cop", "name_en": "Coptic", "name_fr": "copte", "name_cs": "kopt\u0161tina", "name_ru": "\u043a\u043e\u043f\u0442\u0441\u043a\u0438\u0439"}, {"regex": "^(.*cornish.*|\\s*cor\\s*|\\s*kw\\s*)$", "iso2": "kw", "iso3": "cor", "name_en": "Cornish", "name_fr": "cornique", "name_cs": "korn\u0161tina", "name_ru": "\u043a\u043e\u0440\u043d\u0441\u043a\u0438\u0439"}, {"regex": "^(.*corsican.*|\\s*cos\\s*|\\s*co\\s*)$", "iso2": "co", "iso3": "cos", "name_en": "Corsican", "name_fr": "corse", "name_cs": "korsi\u010dtina", "name_ru": "\u043a\u043e\u0440\u0441\u0438\u043a\u0430\u043d\u0441\u043a\u0438\u0439"}, {"regex": "^(.*cree[^k,]*|\\s*cre\\s*|\\s*cr\\s*)$", "iso2": "cr", "iso3": "cre", "name_en": "Cree", "name_fr": "cree", "name_cs": "kr\u00edj\u0161tina", "name_ru": "\u043a\u0440\u0438"}, {"regex": "^(.*creek.*|\\s*mus\\s*)$", "iso2": "", "iso3": "mus", "name_en": "Creek", "name_fr": "muskogee", "name_cs": "muskogee (creek)", "name_ru": "\u043a\u0440\u0438\u043a"}, {"regex": "^(.*creole.*,\\s+english.*|.*english.*\\s+creole.*|\\s*cpe\\s*)$", "iso2": "", "iso3": "cpe", "name_en": "Creoles and pidgins, English based", "name_fr": "cr\u00e9oles et pidgins bas\u00e9s sur l'anglais", "name_cs": "kreol\u0161tina a jin\u00e9 pidginy na z\u00e1klad\u011b angli\u010dtiny", "name_ru": "\u0430\u043d\u0433\u043b\u043e-\u043a\u0440\u0435\u043e\u043b\u044c\u0441\u043a\u0438\u0435 \u0438 \u043f\u0438\u0434\u0436\u0438\u043d"}, {"regex": "^(.*creole.*,\\s+french.*|.*french.*\\s+creole.*|\\s*cpf\\s*)$", "iso2": "", "iso3": "cpf", "name_en": "Creoles and pidgins, French-based", "name_fr": "cr\u00e9oles et pidgins bas\u00e9s sur le fran\u00e7ais", "name_cs": "kreol\u0161tina a jin\u00e9 pidginy na z\u00e1klad\u011b francouz\u0161tiny", "name_ru": "\u0444\u0440\u0430\u043d\u043a\u043e-\u043a\u0440\u0435\u043e\u043b\u044c\u0441\u043a\u0438\u0435 \u0438 \u043f\u0438\u0434\u0436\u0438\u043d\u044b"}, {"regex": "^(.*creole.*,\\s+portuguese.*|.*portuguese.*\\s+creole.*|\\s*cpp\\s*)$", "iso2": "", "iso3": "cpp", "name_en": "Creoles and pidgins, Portuguese-based", "name_fr": "cr\u00e9oles et pidgins bas\u00e9s sur le portugais", "name_cs": "kreol\u0161tina a jin\u00e9 pidginy na z\u00e1klad\u011b portugal\u0161tiny", "name_ru": "\u043f\u043e\u0440\u0442\u0443\u0433\u0430\u043b\u043e-\u043a\u0440\u0435\u043e\u043b\u044c\u0441\u043a\u0438\u0435 \u0438 \u043f\u0438\u0434\u0436\u0438\u043d\u044b"}, {"regex": "^(.*crimean\\s+tatar.*|.*crimean\\s+turkish.*|.*tatar,\\s+crimean.*|.*turkish,\\s+crimean.*|\\s*crh\\s*)$", "iso2": "", "iso3": "crh", "name_en": "Crimean Tatar; Crimean Turkish", "name_fr": "tatar de Crim\u00e9", "name_cs": "krymsk\u00e1 tatar\u0161tina; krymsk\u00e1 ture\u010dtina", "name_ru": "\u043a\u0440\u044b\u043c\u0441\u043a\u043e-\u0442\u0430\u0442\u0430\u0440\u0441\u043a\u0438\u0439"}, {"regex": "^(.*croatian.*|\\s*hrv\\s*|\\s*hr\\s*)$", "iso2": "hr", "iso3": "hrv", "name_en": "Croatian", "name_fr": "croate", "name_cs": "chorvat\u0161tina", "name_ru": "\u0445\u043e\u0440\u0432\u0430\u0442\u0441\u043a\u0438\u0439"}, {"regex": "^(.*cushitic.*|\\s*cus\\s*)$", "iso2": "", "iso3": "cus", "name_en": "Cushitic languages", "name_fr": "couchitiques, langues", "name_cs": "ku\u0161itsk\u00e9 jazyky, ostatn\u00ed", "name_ru": "\u043a\u0443\u0448\u0438\u0442\u0441\u043a\u0438\u0439 \u044f\u0437\u044b\u043a"}, {"regex": "^(.*czech.*|\\s*cze\\s*|\\s*ces\\s*|\\s*cs\\s*)$", "iso2": "cs", "iso3": "ces", "name_en": "Czech", "name_fr": "tch\u00e8que", "name_cs": "\u010de\u0161tina", "name_ru": "\u0447\u0435\u0448\u0441\u043a\u0438\u0439"}, {"regex": "^(.*dakota.*|\\s*dak\\s*)$", "iso2": "", "iso3": "dak", "name_en": "Dakota", "name_fr": "dakota", "name_cs": "dakot\u0161tina", "name_ru": "\u0434\u0430\u043a\u043e\u0442\u0430"}, {"regex": "^(.*danish.*|\\s*dan\\s*|\\s*da\\s*)$", "iso2": "da", "iso3": "dan", "name_en": "Danish", "name_fr": "danois", "name_cs": "d\u00e1n\u0161tina", "name_ru": "\u0434\u0430\u0442\u0441\u043a\u0438\u0439"}, {"regex": "^(.*dargwa.*|\\s*dar\\s*)$", "iso2": "", "iso3": "dar", "name_en": "Dargwa", "name_fr": "dargwa", "name_cs": "darg\u0161tina", "name_ru": "\u0434\u0430\u0440\u0433\u0432\u0430"}, {"regex": "^(.*delaware.*|\\s*del\\s*)$", "iso2": "", "iso3": "del", "name_en": "Delaware", "name_fr": "delaware", "name_cs": "delawar\u0161tina", "name_ru": "\u0434\u0435\u043b\u0430\u0432\u0430\u0440\u0441\u043a\u0438\u0439"}, {"regex": "^(.*dinka.*|\\s*din\\s*)$", "iso2": "", "iso3": "din", "name_en": "Dinka", "name_fr": "dinka", "name_cs": "dink\u0161tina", "name_ru": "\u0434\u0438\u043d\u043a\u0430"}, {"regex": "^(.*divehi.*|.*dhivehi.*|.*maldivian.*|\\s*div\\s*|\\s*dv\\s*)$", "iso2": "dv", "iso3": "div", "name_en": "Divehi; Dhivehi; Maldivian", "name_fr": "maldivien", "name_cs": "divehi", "name_ru": "\u0434\u0438\u0432\u0435\u0445\u0438 (\u043c\u0430\u043b\u044c\u0434\u0438\u0432\u0441\u043a\u0438\u0439)"}, {"regex": "^(.*dogrib.*|\\s*dgr\\s*)$", "iso2": "", "iso3": "dgr", "name_en": "Dogrib", "name_fr": "dogrib", "name_cs": "dogrib", "name_ru": "\u0434\u043e\u0433\u0440\u0438\u0431"}, {"regex": "^(.*dravidian.*|\\s*dra\\s*)$", "iso2": "", "iso3": "dra", "name_en": "Dravidian languages", "name_fr": "dravidiennes, langues", "name_cs": "dr\u00e1vidsk\u00e9 jazyky, ostatn\u00ed", "name_ru": "\u0434\u0440\u0430\u0432\u0438\u0434\u0438\u0439\u0441\u043a\u0438\u0439 \u044f\u0437\u044b\u043a"}, {"regex": "^(.*duala.*|\\s*dua\\s*)$", "iso2": "", "iso3": "dua", "name_en": "Duala", "name_fr": "douala", "name_cs": "dual\u0161tina", "name_ru": "\u0434\u0443\u0430\u043b\u0430"}, {"regex": "^(.*dutch,\\s+mid[dle-]*.*|.*mid[dle-]*\\s+dutch.*|\\s*dum\\s*)$", "iso2": "", "iso3": "dum", "name_en": "Dutch, Middle (ca.1050-1350)", "name_fr": "n\u00e9erlandais moyen (ca. 1050-1350)", "name_cs": "st\u0159edov\u011bk\u00e1 holand\u0161tina (cca 1050-1350)", "name_ru": "\u0441\u0440\u0435\u0434\u043d\u0435\u043d\u0438\u0434\u0435\u0440\u043b\u0430\u043d\u0434\u0441\u043a\u0438\u0439 (\u043e\u043a\u043e\u043b\u043e 1050-1350 \u0433\u0433.)"}, {"regex": "^(.*dyula.*|\\s*dyu\\s*)$", "iso2": "", "iso3": "dyu", "name_en": "Dyula", "name_fr": "dioula", "name_cs": "djula", "name_ru": "\u0434\u0438\u0443\u043b\u0430 (\u0434\u044c\u044e\u043b\u0430)"}, {"regex": "^(.*dzongkha.*|\\s*dzo\\s*|\\s*dz\\s*)$", "iso2": "dz", "iso3": "dzo", "name_en": "Dzongkha", "name_fr": "dzongkha", "name_cs": "dzongk\u00e4", "name_ru": "\u0434\u0437\u043e\u043d\u0433-\u043a\u044d"}, {"regex": "^(.*east[ern]*\\s+frisian.*|.*frisian,\\s+east[ern]*.*|\\s*frs\\s*)$", "iso2": "", "iso3": "frs", "name_en": "Eastern Frisian", "name_fr": "frison oriental", "name_cs": "fr\u00ed\u0161tina (v\u00fdchodn\u00ed)", "name_ru": "\u0432\u043e\u0441\u0442\u043e\u0447\u043d\u044b\u0439 \u0444\u0440\u0438\u0437\u0441\u043a\u0438\u0439"}, {"regex": "^(.*efik.*|\\s*efi\\s*)$", "iso2": "", "iso3": "efi", "name_en": "Efik", "name_fr": "efik", "name_cs": "efik\u0161tina", "name_ru": "\u044d\u0444\u0438\u043a"}, {"regex": "^(.*egyptian.*|\\s*egy\\s*)$", "iso2": "", "iso3": "egy", "name_en": "Egyptian (Ancient)", "name_fr": "\u00e9gyptien", "name_cs": "star\u00e1 egypt\u0161tina", "name_ru": "\u0434\u0440\u0435\u0432\u043d\u0435\u0435\u0433\u0438\u043f\u0435\u0442\u0441\u043a\u0438\u0439"}, {"regex": "^(.*ekajuk.*|\\s*eka\\s*)$", "iso2": "", "iso3": "eka", "name_en": "Ekajuk", "name_fr": "ekajuk", "name_cs": "ekajuk", "name_ru": "\u044d\u043a\u0430\u0434\u0436\u0443\u043a"}, {"regex": "^(.*elamite.*|\\s*elx\\s*)$", "iso2": "", "iso3": "elx", "name_en": "Elamite", "name_fr": "\u00e9lamite", "name_cs": "elamit\u0161tina", "name_ru": "\u044d\u043b\u0430\u043c\u0441\u043a\u0438\u0439"}, {"regex": "^(.*english,\\s+mid[dle-]*.*|.*mid[dle-]*\\s+english.*|\\s*enm\\s*)$", "iso2": "", "iso3": "enm", "name_en": "English, Middle (1100-1500)", "name_fr": "anglais moyen (1100-1500)", "name_cs": "st\u0159edov\u011bk\u00e1 angli\u010dtina (1100-1500)", "name_ru": "\u0441\u0440\u0435\u0434\u043d\u0435\u0430\u043d\u0433\u043b\u0438\u0439\u0441\u043a\u0438\u0439 (1100-1500 \u0433\u0433.)"}, {"regex": "^(.*erzya.*|\\s*myv\\s*)$", "iso2": "", "iso3": "myv", "name_en": "Erzya", "name_fr": "erza", "name_cs": "erzjan\u0161tina", "name_ru": "\u044d\u0440\u0437\u044f"}, {"regex": "^(.*esperanto.*|\\s*epo\\s*|\\s*eo\\s*)$", "iso2": "eo", "iso3": "epo", "name_en": "Esperanto", "name_fr": "esp\u00e9ranto", "name_cs": "esperanto", "name_ru": "\u044d\u0441\u043f\u0435\u0440\u0430\u043d\u0442\u043e"}, {"regex": "^(.*estonian.*|\\s*est\\s*|\\s*et\\s*)$", "iso2": "et", "iso3": "est", "name_en": "Estonian", "name_fr": "estonien", "name_cs": "eston\u0161tina", "name_ru": "\u044d\u0441\u0442\u043e\u043d\u0441\u043a\u0438\u0439"}, {"regex": "^(.*ewe.*|\\s*ewe\\s*|\\s*ee\\s*)$", "iso2": "ee", "iso3": "ewe", "name_en": "Ewe", "name_fr": "\u00e9w\u00e9", "name_cs": "ewe\u0161tina", "name_ru": "\u044d\u0432\u0435"}, {"regex": "^(.*ewondo.*|\\s*ewo\\s*)$", "iso2": "", "iso3": "ewo", "name_en": "Ewondo", "name_fr": "\u00e9wondo", "name_cs": "ewondo", "name_ru": "\u044d\u0432\u043e\u043d\u0434\u043e"}, {"regex": "^(.*fang.*|\\s*fan\\s*)$", "iso2": "", "iso3": "fan", "name_en": "Fang", "name_fr": "fang", "name_cs": "fang", "name_ru": "\u0444\u0430\u043d\u0433"}, {"regex": "^(.*fanti.*|\\s*fat\\s*)$", "iso2": "", "iso3": "fat", "name_en": "Fanti", "name_fr": "fanti", "name_cs": "fant\u0161tina", "name_ru": "\u0444\u0430\u043d\u0442\u0438"}, {"regex": "^(.*faroese.*|\\s*fao\\s*|\\s*fo\\s*)$", "iso2": "fo", "iso3": "fao", "name_en": "Faroese", "name_fr": "f\u00e9ro\u00efen", "name_cs": "faer\u0161tina", "name_ru": "\u0444\u0430\u0440\u0435\u0440\u0441\u043a\u0438\u0439"}, {"regex": "^(.*fijian.*|\\s*fij\\s*|\\s*fj\\s*)$", "iso2": "fj", "iso3": "fij", "name_en": "Fijian", "name_fr": "fidjien", "name_cs": "fid\u017eij\u0161tina", "name_ru": "\u0444\u0438\u0434\u0436\u0438"}, {"regex": "^(.*filipino.*|.*pilipino.*|\\s*fil\\s*)$", "iso2": "", "iso3": "fil", "name_en": "Filipino; Pilipino", "name_fr": "filipino; pilipino", "name_cs": "filip\u00edn\u0161tina", "name_ru": "\u0444\u0438\u043b\u0438\u043f\u043f\u0438\u043d\u0441\u043a\u0438\u0439"}, {"regex": "^(.*finnish.*|\\s*fin\\s*|\\s*fi\\s*)$", "iso2": "fi", "iso3": "fin", "name_en": "Finnish", "name_fr": "finnois", "name_cs": "fin\u0161tina", "name_ru": "\u0444\u0438\u043d\u0441\u043a\u0438\u0439 (suomi)"}, {"regex": "^(.*finno-ugrian.*|\\s*fiu\\s*)$", "iso2": "", "iso3": "fiu", "name_en": "Finno-Ugrian languages", "name_fr": "finno-ougriennes, langues", "name_cs": "ugrofinsk\u00e9 jazyky, ostatn\u00ed", "name_ru": "\u0444\u0438\u043d\u043d\u043e-\u0443\u0433\u043e\u0440\u0441\u043a\u0438\u0439 \u044f\u0437\u044b\u043a"}, {"regex": "^(.*fon.*|\\s*fon\\s*)$", "iso2": "", "iso3": "fon", "name_en": "Fon", "name_fr": "fon", "name_cs": "fon\u0161tina", "name_ru": "\u0444\u043e\u043d"}, {"regex": "^(.*french,\\s+mid[dle-]*.*|.*mid[dle-]*\\s+french.*|\\s*frm\\s*)$", "iso2": "", "iso3": "frm", "name_en": "French, Middle (ca.1400-1600)", "name_fr": "fran\u00e7ais moyen (1400-1600)", "name_cs": "st\u0159edov\u011bk\u00e1 francouz\u0161tina (cca 1400-1600)", "name_ru": "\u0441\u0440\u0435\u0434\u043d\u0435\u0444\u0440\u0430\u043d\u0446\u0443\u0437\u0441\u043a\u0438\u0439 (\u043e\u043a\u043e\u043b\u043e 1400-1600 \u0433\u0433.)"}, {"regex": "^(.*friulian.*|\\s*fur\\s*)$", "iso2": "", "iso3": "fur", "name_en": "Friulian", "name_fr": "frioulan", "name_cs": "friul\u0161tina (furlan\u0161tina)", "name_ru": "\u0444\u0440\u0438\u0443\u043b\u044c\u0441\u043a\u0438\u0439"}, {"regex": "^(.*fulah.*|\\s*ful\\s*|\\s*ff\\s*)$", "iso2": "ff", "iso3": "ful", "name_en": "Fulah", "name_fr": "peul", "name_cs": "fulah\u0161tina", "name_ru": "\u0444\u0443\u043b\u0430\u0445"}, {"regex": "^(.*ga\\s+l.*|\\s*gaa\\s*)$", "iso2": "", "iso3": "gaa", "name_en": "Ga language", "name_fr": "ga langue", "name_cs": "ga\u0161tina", "name_ru": "\u044f\u0437\u044b\u043a \u0433\u0430"}, {"regex": "^(.*gaelic.*|.*scottish\\s+gaelic.*|.*gaelic,\\s+scottish.*|\\s*gla\\s*|\\s*gd\\s*)$", "iso2": "gd", "iso3": "gla", "name_en": "Gaelic; Scottish Gaelic", "name_fr": "ga\u00e9lique; ga\u00e9lique \u00e9cossais", "name_cs": "skotsk\u00e1 gael\u0161tina", "name_ru": "\u0433\u044d\u043b\u044c\u0441\u043a\u0438\u0439"}, {"regex": "^(.*galibi\\s+carib.*|.*carib,\\s+galibi.*|\\s*car\\s*)$", "iso2": "", "iso3": "car", "name_en": "Galibi Carib", "name_fr": "karib; galibi; carib", "name_cs": "karib\u0161tina", "name_ru": "\u043a\u0430\u0440\u0438\u0431"}, {"regex": "^(.*galician.*|\\s*glg\\s*|\\s*gl\\s*)$", "iso2": "gl", "iso3": "glg", "name_en": "Galician", "name_fr": "galicien", "name_cs": "galicij\u0161tina", "name_ru": "\u0433\u0430\u043b\u0438\u0441\u0438\u0439\u0441\u043a\u0438\u0439"}, {"regex": "^(.*ganda.*|\\s*lug\\s*|\\s*lg\\s*)$", "iso2": "lg", "iso3": "lug", "name_en": "Ganda", "name_fr": "ganda", "name_cs": "gand\u0161tina", "name_ru": "\u0433\u0430\u043d\u0434\u0430"}, {"regex": "^(.*gayo.*|\\s*gay\\s*)$", "iso2": "", "iso3": "gay", "name_en": "Gayo", "name_fr": "gayo", "name_cs": "gayo", "name_ru": "\u0433\u0430\u0439\u043e"}, {"regex": "^(.*gbaya.*|\\s*gba\\s*)$", "iso2": "", "iso3": "gba", "name_en": "Gbaya", "name_fr": "gbaya", "name_cs": "gbaja", "name_ru": "\u0433\u0431\u0430\u044f"}, {"regex": "^(.*ge.ez.*|\\s*gez\\s*)$", "iso2": "", "iso3": "gez", "name_en": "Ge'ez", "name_fr": "gu\u00e8ze", "name_cs": "etiop\u0161tina (ge'ez)", "name_ru": "\u0433\u0435\u044d\u0437"}, {"regex": "^(.*georgian.*|\\s*geo\\s*|\\s*kat\\s*|\\s*ka\\s*)$", "iso2": "ka", "iso3": "kat", "name_en": "Georgian", "name_fr": "g\u00e9orgien", "name_cs": "gruz\u00edn\u0161tina", "name_ru": "\u0433\u0440\u0443\u0437\u0438\u043d\u0441\u043a\u0438\u0439"}, {"regex": "^(.*german,\\s+mid[dle-]*\\s+high.*|.*mid[dle-]*\\s+high\\s+german.*|\\s*gmh\\s*)$", "iso2": "", "iso3": "gmh", "name_en": "German, Middle High (ca.1050-1500)", "name_fr": "allemand, moyen haut (ca. 1050-1500)", "name_cs": "st\u0159edov\u011bk\u00e1 hornon\u011bm\u010dina (cca 1050-1500)", "name_ru": "\u0441\u0440\u0435\u0434\u043d\u0435\u0432\u0435\u0440\u0445\u043d\u0435\u043d\u0435\u043c\u0435\u0446\u043a\u0438\u0439 (\u043e\u043a\u043e\u043b\u043e 1050-1500 \u0433\u0433.)"}, {"regex": "^(.*german,\\s+old\\s+high.*|.*old\\s+high\\s+german.*|\\s*goh\\s*)$", "iso2": "", "iso3": "goh", "name_en": "German, Old High (ca.750-1050)", "name_fr": "allemand, vieux haut (ca. 750-1050)", "name_cs": "star\u00e1 hornon\u011bm\u010dina (cca 750-1050)", "name_ru": "\u0434\u0440\u0435\u0432\u043d\u0435\u0432\u0435\u0440\u0445\u043d\u0435\u043d\u0435\u043c\u0435\u0446\u043a\u0438\u0439 (\u043e\u043a\u043e\u043b\u043e 750-1050 \u0433\u0433.)"}, {"regex": "^(.*germanic.*|\\s*gem\\s*)$", "iso2": "", "iso3": "gem", "name_en": "Germanic languages", "name_fr": "germaniques, langues", "name_cs": "germ\u00e1nsk\u00e9 jazyky, ostatn\u00ed", "name_ru": "\u0433\u0435\u0440\u043c\u0430\u043d\u0441\u043a\u0438\u0439 \u044f\u0437\u044b\u043a"}, {"regex": "^(.*gilbertese.*|\\s*gil\\s*)$", "iso2": "", "iso3": "gil", "name_en": "Gilbertese", "name_fr": "kiribati", "name_cs": "kiribat\u0161tina", "name_ru": "\u0433\u0438\u043b\u044c\u0431\u0435\u0440\u0442\u0441\u043a\u0438\u0439"}, {"regex": "^(.*gondi.*|\\s*gon\\s*)$", "iso2": "", "iso3": "gon", "name_en": "Gondi", "name_fr": "gond", "name_cs": "g\u00f3nd\u0161tina", "name_ru": "\u0433\u043e\u043d\u0434\u0438"}, {"regex": "^(.*gorontalo.*|\\s*gor\\s*)$", "iso2": "", "iso3": "gor", "name_en": "Gorontalo", "name_fr": "gorontalo", "name_cs": "gorontalo", "name_ru": "\u0433\u043e\u0440\u043e\u043d\u0442\u0430\u043b\u043e"}, {"regex": "^(.*gothic.*|\\s*got\\s*)$", "iso2": "", "iso3": "got", "name_en": "Gothic", "name_fr": "gothique", "name_cs": "g\u00f3t\u0161tina", "name_ru": "\u0433\u043e\u0442\u0441\u043a\u0438\u0439"}, {"regex": "^(.*grebo.*|\\s*grb\\s*)$", "iso2": "", "iso3": "grb", "name_en": "Grebo", "name_fr": "grebo", "name_cs": "grebo", "name_ru": "\u0433\u0440\u0435\u0431\u043e"}, {"regex": "^(.*guarani.*|\\s*grn\\s*|\\s*gn\\s*)$", "iso2": "gn", "iso3": "grn", "name_en": "Guarani", "name_fr": "guarani", "name_cs": "guaran\u0161tina", "name_ru": "\u0433\u0443\u0430\u0440\u0430\u043d\u0438"}, {"regex": "^(.*gujarati.*|\\s*guj\\s*|\\s*gu\\s*)$", "iso2": "gu", "iso3": "guj", "name_en": "Gujarati", "name_fr": "goudjrati", "name_cs": "gud\u017ear\u00e1t\u0161tina", "name_ru": "\u0433\u0443\u0434\u0436\u0430\u0440\u0430\u0442\u0438"}, {"regex": "^(.*gwich'in.*|\\s*gwi\\s*)$", "iso2": "", "iso3": "gwi", "name_en": "Gwich'in", "name_fr": "gwich'in", "name_cs": "gwich\u2018in", "name_ru": "\u0433\u0432\u0438\u0447\u0438\u043d"}, {"regex": "^(.*haida.*|\\s*hai\\s*)$", "iso2": "", "iso3": "hai", "name_en": "Haida", "name_fr": "haida", "name_cs": "haid\u0161tina", "name_ru": "\u0445\u0430\u0439\u0434\u0430"}, {"regex": "^(.*haitian.*|.*haitian\\s+creole.*|.*creole,\\s+haitian.*|\\s*hat\\s*|\\s*ht\\s*)$", "iso2": "ht", "iso3": "hat", "name_en": "Haitian; Haitian Creole", "name_fr": "ha\u00eftien; cr\u00e9ole ha\u00eftien", "name_cs": "haitsko-francouzsk\u00e1 kreol\u0161tina", "name_ru": "\u0433\u0430\u0438\u0442\u044f\u043d\u0441\u043a\u0438\u0439 \u043a\u0440\u0435\u043e\u043b\u044c\u0441\u043a\u0438\u0439 \u044f\u0437\u044b\u043a"}, {"regex": "^(.*hausa.*|\\s*hau\\s*|\\s*ha\\s*)$", "iso2": "ha", "iso3": "hau", "name_en": "Hausa", "name_fr": "haoussa", "name_cs": "hau\u0161tina", "name_ru": "\u0445\u0430\u0443\u0441\u0430"}, {"regex": "^(.*hawaiian.*|\\s*haw\\s*)$", "iso2": "", "iso3": "haw", "name_en": "Hawaiian", "name_fr": "hawa\u00efen", "name_cs": "havaj\u0161tina", "name_ru": "\u0433\u0430\u0432\u0430\u0439\u0441\u043a\u0438\u0439"}, {"regex": "^(.*hebrew.*|\\s*heb\\s*|\\s*he\\s*)$", "iso2": "he", "iso3": "heb", "name_en": "Hebrew", "name_fr": "h\u00e9breu", "name_cs": "hebrej\u0161tina", "name_ru": "\u0438\u0432\u0440\u0438\u0442"}, {"regex": "^(.*herero.*|\\s*her\\s*|\\s*hz\\s*)$", "iso2": "hz", "iso3": "her", "name_en": "Herero", "name_fr": "herero", "name_cs": "herer\u0161tina", "name_ru": "\u0433\u0435\u0440\u0435\u0440\u043e"}, {"regex": "^(.*hiligaynon.*|\\s*hil\\s*)$", "iso2": "", "iso3": "hil", "name_en": "Hiligaynon", "name_fr": "hiligaynon", "name_cs": "hiligaynon\u0161tina", "name_ru": "\u0445\u0438\u043b\u0438\u0433\u0430\u0439\u043d\u043e\u043d"}, {"regex": "^(.*himachali.*|.*west[ern]*\\s+pahari.*|.*pahari,\\s+west[ern]*.*|\\s*him\\s*)$", "iso2": "", "iso3": "him", "name_en": "Himachali languages; Western Pahari languages", "name_fr": "langues himachalis; langues paharis occidentales", "name_cs": "him\u00e1\u010dal\u0161tina", "name_ru": "\u0445\u0438\u043c\u0430\u0447\u0430\u043b\u0438"}, {"regex": "^(.*hindi.*|\\s*hin\\s*|\\s*hi\\s*)$", "iso2": "hi", "iso3": "hin", "name_en": "Hindi", "name_fr": "hindi", "name_cs": "hind\u0161tina", "name_ru": "\u0445\u0438\u043d\u0434\u0438"}, {"regex": "^(.*hiri\\s+motu.*|.*motu,\\s+hiri.*|\\s*hmo\\s*|\\s*ho\\s*)$", "iso2": "ho", "iso3": "hmo", "name_en": "Hiri Motu", "name_fr": "hiri motu", "name_cs": "hiri motu", "name_ru": "\u0445\u0438\u0440\u0438\u043c\u043e\u0442\u0443"}, {"regex": "^(.*hittite.*|\\s*hit\\s*)$", "iso2": "", "iso3": "hit", "name_en": "Hittite", "name_fr": "hittite", "name_cs": "chetit\u0161tina", "name_ru": "\u0445\u0435\u0442\u0442\u0441\u043a\u0438\u0439"}, {"regex": "^(.*hmong.*|.*mong[^o,]*|\\s*hmn\\s*)$", "iso2": "", "iso3": "hmn", "name_en": "Hmong; Mong", "name_fr": "hmong", "name_cs": "hmong\u0161tina", "name_ru": "\u0445\u043c\u043e\u043d\u0433"}, {"regex": "^(.*hungarian.*|\\s*hun\\s*|\\s*hu\\s*)$", "iso2": "hu", "iso3": "hun", "name_en": "Hungarian", "name_fr": "hongrois", "name_cs": "ma\u010far\u0161tina", "name_ru": "\u0432\u0435\u043d\u0433\u0435\u0440\u0441\u043a\u0438\u0439"}, {"regex": "^(.*hupa.*|\\s*hup\\s*)$", "iso2": "", "iso3": "hup", "name_en": "Hupa", "name_fr": "hupa", "name_cs": "hupa", "name_ru": "\u0445\u0443\u043f\u0430"}, {"regex": "^(.*iban.*|\\s*iba\\s*)$", "iso2": "", "iso3": "iba", "name_en": "Iban", "name_fr": "iban", "name_cs": "iban\u0161tina", "name_ru": "\u0438\u0431\u0430\u043d\u0441\u043a\u0438\u0439"}, {"regex": "^(.*icelandic.*|\\s*ice\\s*|\\s*isl\\s*|\\s*is\\s*)$", "iso2": "is", "iso3": "isl", "name_en": "Icelandic", "name_fr": "islandais", "name_cs": "island\u0161tina", "name_ru": "\u0438\u0441\u043b\u0430\u043d\u0434\u0441\u043a\u0438\u0439"}, {"regex": "^(.*ido.*|\\s*ido\\s*|\\s*io\\s*)$", "iso2": "io", "iso3": "ido", "name_en": "Ido", "name_fr": "ido", "name_cs": "ido", "name_ru": "\u0438\u0434\u043e"}, {"regex": "^(.*igbo.*|\\s*ibo\\s*|\\s*ig\\s*)$", "iso2": "ig", "iso3": "ibo", "name_en": "Igbo", "name_fr": "igbo", "name_cs": "igbo\u0161tina", "name_ru": "\u0438\u0433\u0431\u043e"}, {"regex": "^(.*ijo.*|\\s*ijo\\s*)$", "iso2": "", "iso3": "ijo", "name_en": "Ijo languages", "name_fr": "ijo, langues", "name_cs": "id\u017eo", "name_ru": "\u0438\u0434\u0436\u043e"}, {"regex": "^(.*iloko.*|\\s*ilo\\s*)$", "iso2": "", "iso3": "ilo", "name_en": "Iloko", "name_fr": "ilocano", "name_cs": "ilok\u00e1n\u0161tina", "name_ru": "\u0438\u043b\u043e\u043a\u043e"}, {"regex": "^(.*inari\\s+sami.*|.*sami,\\s+inari.*|\\s*smn\\s*)$", "iso2": "", "iso3": "smn", "name_en": "Inari Sami", "name_fr": "sami d'Inari", "name_cs": "s\u00e1m\u0161tina (inarijsk\u00e1)", "name_ru": "\u0438\u043d\u0430\u0440\u0438-\u0441\u0430\u0430\u043c\u0441\u043a\u0438\u0439"}, {"regex": "^(.*indic.*|\\s*inc\\s*)$", "iso2": "", "iso3": "inc", "name_en": "Indic languages", "name_fr": "indo-aryennes, langues", "name_cs": "indo-\u00e1rijsk\u00e9 jazyky, ostatn\u00ed", "name_ru": "\u0438\u043d\u0434\u0438\u0439\u0441\u043a\u0438\u0439 \u044f\u0437\u044b\u043a"}, {"regex": "^(.*indo-european.*|\\s*ine\\s*)$", "iso2": "", "iso3": "ine", "name_en": "Indo-European languages", "name_fr": "indo-europ\u00e9ennes, langues", "name_cs": "indoevropsk\u00e9 jazyky, ostatn\u00ed", "name_ru": "\u0438\u043d\u0434\u043e\u0435\u0432\u0440\u043e\u043f\u0435\u0439\u0441\u043a\u0438\u0439 \u044f\u0437\u044b\u043a"}, {"regex": "^(.*indonesian.*|\\s*ind\\s*|\\s*id\\s*)$", "iso2": "id", "iso3": "ind", "name_en": "Indonesian", "name_fr": "indon\u00e9sien", "name_cs": "indon\u00e9\u0161tina", "name_ru": "\u0438\u043d\u0434\u043e\u043d\u0435\u0437\u0438\u0439\u0441\u043a\u0438\u0439"}, {"regex": "^(.*ingush.*|\\s*inh\\s*)$", "iso2": "", "iso3": "inh", "name_en": "Ingush", "name_fr": "ingouche", "name_cs": "ingu\u0161tina", "name_ru": "\u0438\u043d\u0433\u0443\u0448\u0441\u043a\u0438\u0439"}, {"regex": "^(.*interlingua.*|\\s*ina\\s*|\\s*ia\\s*)$", "iso2": "ia", "iso3": "ina", "name_en": "Interlingua (International Auxiliary Language Association)", "name_fr": "interlingua (langue auxiliaire internationale)", "name_cs": "interlingua (Mezin\u00e1rodn\u00ed pomocn\u00e1 jazykov\u00e1 asociace)", "name_ru": "\u0438\u043d\u0442\u0435\u0440\u043b\u0438\u043d\u0433\u0432\u0430 (\u041c\u0435\u0436\u0434\u0443\u043d\u0430\u0440\u043e\u0434\u043d\u0430\u044f \u0430\u0441\u0441\u043e\u0446\u0438\u0430\u0446\u0438\u044f \u0432\u0441\u043f\u043e\u043c\u043e\u0433\u0430\u0442\u0435\u043b\u044c\u043d\u044b\u0445 \u044f\u0437\u044b\u043a\u043e\u0432)"}, {"regex": "^(.*interlingue.*|.*occidental.*|\\s*ile\\s*|\\s*ie\\s*)$", "iso2": "ie", "iso3": "ile", "name_en": "Interlingue; Occidental", "name_fr": "interlingue", "name_cs": "interlingue", "name_ru": "\u0438\u043d\u0442\u0435\u0440\u043b\u0438\u043d\u0433\u0432\u0435"}, {"regex": "^(.*inuktitut.*|\\s*iku\\s*|\\s*iu\\s*)$", "iso2": "iu", "iso3": "iku", "name_en": "Inuktitut", "name_fr": "inuktitut", "name_cs": "inuktitut\u0161tina", "name_ru": "\u0438\u043d\u0443\u043a\u0442\u0438\u0442\u0443\u0442"}, {"regex": "^(.*inupiaq.*|\\s*ipk\\s*|\\s*ik\\s*)$", "iso2": "ik", "iso3": "ipk", "name_en": "Inupiaq", "name_fr": "inupiaq", "name_cs": "inupiak\u0161tina", "name_ru": "\u0438\u043d\u0443\u043f\u0438\u0430\u043a"}, {"regex": "^(.*iranian.*|\\s*ira\\s*)$", "iso2": "", "iso3": "ira", "name_en": "Iranian languages", "name_fr": "iraniennes, langues", "name_cs": "\u00edr\u00e1nsk\u00e9 jazyky, ostatn\u00ed", "name_ru": "\u0438\u0440\u0430\u043d\u0441\u043a\u0438\u0439 \u044f\u0437\u044b\u043a"}, {"regex": "^(.*irish,\\s+mid[dle-]*.*|.*mid[dle-]*\\s+irish.*|\\s*mga\\s*)$", "iso2": "", "iso3": "mga", "name_en": "Irish, Middle (900-1200)", "name_fr": "irlandais moyen (900-1200)", "name_cs": "st\u0159edov\u011bk\u00e1 ir\u0161tina (900-1200)", "name_ru": "\u0441\u0440\u0435\u0434\u043d\u0435\u0438\u0440\u043b\u0430\u043d\u0434\u0441\u043a\u0438\u0439 (900-1200)"}, {"regex": "^(.*iroquoian.*|\\s*iro\\s*)$", "iso2": "", "iso3": "iro", "name_en": "Iroquoian languages", "name_fr": "iroquoises, langues", "name_cs": "irok\u00e9zsk\u00e9 jazyky", "name_ru": "\u0438\u0440\u043e\u043a\u0435\u0437\u0441\u043a\u0438\u0435 \u044f\u0437\u044b\u043a\u0438"}, {"regex": "^(.*italian.*|\\s*ita\\s*|\\s*it\\s*)$", "iso2": "it", "iso3": "ita", "name_en": "Italian", "name_fr": "italien", "name_cs": "ital\u0161tina", "name_ru": "\u0438\u0442\u0430\u043b\u044c\u044f\u043d\u0441\u043a\u0438\u0439"}, {"regex": "^(.*japanese.*|\\s*jpn\\s*|\\s*ja\\s*)$", "iso2": "ja", "iso3": "jpn", "name_en": "Japanese", "name_fr": "japonais", "name_cs": "japon\u0161tina", "name_ru": "\u044f\u043f\u043e\u043d\u0441\u043a\u0438\u0439"}, {"regex": "^(.*javanese.*|\\s*jav\\s*|\\s*jv\\s*)$", "iso2": "jv", "iso3": "jav", "name_en": "Javanese", "name_fr": "javanais", "name_cs": "jav\u00e1n\u0161tina", "name_ru": "\u044f\u0432\u0430\u043d\u0441\u043a\u0438\u0439"}, {"regex": "^(.*judeo-arabic.*|\\s*jrb\\s*)$", "iso2": "", "iso3": "jrb", "name_en": "Judeo-Arabic", "name_fr": "jud\u00e9o-arabe", "name_cs": "judeo-arab\u0161tina", "name_ru": "\u0435\u0432\u0440\u0435\u0439\u0441\u043a\u043e-\u0430\u0440\u0430\u0431\u0441\u043a\u0438\u0439"}, {"regex": "^(.*judeo-persian.*|\\s*jpr\\s*)$", "iso2": "", "iso3": "jpr", "name_en": "Judeo-Persian", "name_fr": "jud\u00e9o-persan", "name_cs": "judeo-per\u0161tina", "name_ru": "\u0435\u0432\u0440\u0435\u0439\u0441\u043a\u043e-\u043f\u0435\u0440\u0441\u0438\u0434\u0441\u043a\u0438\u0439"}, {"regex": "^(.*kabardian.*|\\s*kbd\\s*)$", "iso2": "", "iso3": "kbd", "name_en": "Kabardian", "name_fr": "kabardien", "name_cs": "kabardin\u0161tina", "name_ru": "\u043a\u0430\u0431\u0430\u0440\u0434\u0438\u043d\u0441\u043a\u0438\u0439"}, {"regex": "^(.*kabyle.*|\\s*kab\\s*)$", "iso2": "", "iso3": "kab", "name_en": "Kabyle", "name_fr": "kabyle", "name_cs": "kabyl\u0161tina", "name_ru": "\u043a\u0430\u0431\u0438\u043b\u044c\u0441\u043a\u0438\u0439"}, {"regex": "^(.*kachin.*|.*jingpho.*|\\s*kac\\s*)$", "iso2": "", "iso3": "kac", "name_en": "Kachin; Jingpho", "name_fr": "kachin; jingpho", "name_cs": "ka\u010djin\u0161tina", "name_ru": "\u043a\u0430\u0447\u0438\u043d\u0441\u043a\u0438\u0439"}, {"regex": "^(.*kalaallisut.*|.*greenlandic.*|\\s*kal\\s*|\\s*kl\\s*)$", "iso2": "kl", "iso3": "kal", "name_en": "Kalaallisut; Greenlandic", "name_fr": "groenlandais", "name_cs": "gr\u00f3n\u0161tina", "name_ru": "\u0433\u0440\u0435\u043d\u043b\u0430\u043d\u0434\u0441\u043a\u0438\u0439"}, {"regex": "^(.*kalmyk.*|.*oirat.*|\\s*xal\\s*)$", "iso2": "", "iso3": "xal", "name_en": "Kalmyk; Oirat", "name_fr": "kalmouk; o\u00efrat", "name_cs": "kalmy\u010dtina", "name_ru": "\u043a\u0430\u043b\u043c\u044b\u0446\u043a\u0438\u0439"}, {"regex": "^(.*kamba.*|\\s*kam\\s*)$", "iso2": "", "iso3": "kam", "name_en": "Kamba", "name_fr": "kamba", "name_cs": "kamb\u0161tina", "name_ru": "\u043a\u0430\u043c\u0431\u0430"}, {"regex": "^(.*kannada.*|\\s*kan\\s*|\\s*kn\\s*)$", "iso2": "kn", "iso3": "kan", "name_en": "Kannada", "name_fr": "kannada", "name_cs": "kannad\u0161tina", "name_ru": "\u043a\u0430\u043d\u043d\u0430\u0434\u0430"}, {"regex": "^(.*kanuri.*|\\s*kau\\s*|\\s*kr\\s*)$", "iso2": "kr", "iso3": "kau", "name_en": "Kanuri", "name_fr": "kanouri", "name_cs": "kanuri", "name_ru": "\u043a\u0430\u043d\u0443\u0440\u0438"}, {"regex": "^(.*kara-kalpak.*|\\s*kaa\\s*)$", "iso2": "", "iso3": "kaa", "name_en": "Kara-Kalpak", "name_fr": "karakalpak", "name_cs": "karakalpa\u010dtina", "name_ru": "\u043a\u0430\u0440\u0430\u043a\u0430\u043b\u043f\u0430\u043a\u0441\u043a\u0438\u0439"}, {"regex": "^(.*karachay-balkar.*|\\s*krc\\s*)$", "iso2": "", "iso3": "krc", "name_en": "Karachay-Balkar", "name_fr": "karatchai balkar", "name_cs": "kara\u010dajevo-balkar\u0161tina", "name_ru": "\u043a\u0430\u0440\u0430\u0447\u0430\u0435\u0432\u043e-\u0431\u0430\u043b\u043a\u0430\u0440\u0441\u043a\u0438\u0439"}, {"regex": "^(.*karelian.*|\\s*krl\\s*)$", "iso2": "", "iso3": "krl", "name_en": "Karelian", "name_fr": "car\u00e9lien", "name_cs": "karel\u0161tina", "name_ru": "\u043a\u0430\u0440\u0435\u043b\u044c\u0441\u043a\u0438\u0439"}, {"regex": "^(.*karen.*|\\s*kar\\s*)$", "iso2": "", "iso3": "kar", "name_en": "Karen languages", "name_fr": "karen, langues", "name_cs": "karen\u0161tina", "name_ru": "\u043a\u0430\u0440\u0435\u043d\u0441\u043a\u0438\u0439"}, {"regex": "^(.*kashmiri.*|\\s*kas\\s*|\\s*ks\\s*)$", "iso2": "ks", "iso3": "kas", "name_en": "Kashmiri", "name_fr": "kashmiri", "name_cs": "ka\u0161m\u00edr\u0161tina", "name_ru": "\u043a\u0430\u0448\u043c\u0438\u0440\u0438"}, {"regex": "^(.*kashubian.*|\\s*csb\\s*)$", "iso2": "", "iso3": "csb", "name_en": "Kashubian", "name_fr": "kachoube", "name_cs": "ka\u0161ub\u0161tina", "name_ru": "\u043a\u0430\u0448\u0443\u0431\u0438\u0430\u043d\u0441\u043a\u0438\u0439"}, {"regex": "^(.*kawi.*|\\s*kaw\\s*)$", "iso2": "", "iso3": "kaw", "name_en": "Kawi", "name_fr": "kawi", "name_cs": "kawi", "name_ru": "\u043a\u0430\u0432\u0438"}, {"regex": "^(.*kazakh.*|\\s*kaz\\s*|\\s*kk\\s*)$", "iso2": "kk", "iso3": "kaz", "name_en": "Kazakh", "name_fr": "kazakh", "name_cs": "kaza\u0161tina", "name_ru": "\u043a\u0430\u0437\u0430\u0445\u0441\u043a\u0438\u0439"}, {"regex": "^(.*khasi.*|\\s*kha\\s*)$", "iso2": "", "iso3": "kha", "name_en": "Khasi", "name_fr": "khasi", "name_cs": "kh\u00e1s\u00ed", "name_ru": "\u043a\u0445\u0430\u0441\u0438"}, {"regex": "^(.*khoisan.*|\\s*khi\\s*)$", "iso2": "", "iso3": "khi", "name_en": "Khoisan languages", "name_fr": "kho\u00efsan, langues", "name_cs": "khoisansk\u00e9 jazyky, ostatn\u00ed", "name_ru": "\u043a\u043e\u0439\u0441\u0430\u043d\u0441\u043a\u0438\u0439 \u044f\u0437\u044b\u043a"}, {"regex": "^(.*khotanese.*|.*sakan.*|\\s*kho\\s*)$", "iso2": "", "iso3": "kho", "name_en": "Khotanese; Sakan", "name_fr": "khotanais; sakan", "name_cs": "chot\u00e1n\u0161tina", "name_ru": "\u0445\u043e\u0442\u0430\u043d\u0441\u043a\u0438\u0439"}, {"regex": "^(.*kikuyu.*|.*gikuyu.*|\\s*kik\\s*|\\s*ki\\s*)$", "iso2": "ki", "iso3": "kik", "name_en": "Kikuyu; Gikuyu", "name_fr": "kikuyu", "name_cs": "kikuj\u0161tina", "name_ru": "\u043a\u0438\u043a\u0443\u0439\u044e"}, {"regex": "^(.*kimbundu.*|\\s*kmb\\s*)$", "iso2": "", "iso3": "kmb", "name_en": "Kimbundu", "name_fr": "kimbundu", "name_cs": "kimbund\u0161tina", "name_ru": "\u043a\u0438\u043c\u0431\u0443\u043d\u0434\u0438\u0439\u0441\u043a\u0438\u0439"}, {"regex": "^(.*kinyarwanda.*|\\s*kin\\s*|\\s*rw\\s*)$", "iso2": "rw", "iso3": "kin", "name_en": "Kinyarwanda", "name_fr": "rwanda", "name_cs": "rwand\u0161tina", "name_ru": "\u0440\u0443\u0430\u043d\u0434\u0430"}, {"regex": "^(.*kirghiz.*|.*kyrgyz.*|\\s*kir\\s*|\\s*ky\\s*)$", "iso2": "ky", "iso3": "kir", "name_en": "Kirghiz; Kyrgyz", "name_fr": "kirghiz", "name_cs": "kyrgyz\u0161tina", "name_ru": "\u043a\u044b\u0440\u0433\u044b\u0437\u0441\u043a\u0438\u0439"}, {"regex": "^(.*klingon.*|.*tlhingan-hol.*|\\s*tlh\\s*)$", "iso2": "", "iso3": "tlh", "name_en": "Klingon; tlhIngan-Hol", "name_fr": "klingon", "name_cs": "klingon\u0161tina", "name_ru": "\u043a\u043b\u0438\u043d\u0433\u043e\u043d\u0441\u043a\u0438\u0439"}, {"regex": "^(.*komi.*|\\s*kom\\s*|\\s*kv\\s*)$", "iso2": "kv", "iso3": "kom", "name_en": "Komi", "name_fr": "komi", "name_cs": "komij\u0161tina", "name_ru": "\u043a\u043e\u043c\u0438"}, {"regex": "^(.*kongo.*|\\s*kon\\s*|\\s*kg\\s*)$", "iso2": "kg", "iso3": "kon", "name_en": "Kongo", "name_fr": "kongo", "name_cs": "kon\u017e\u0161tina", "name_ru": "\u043a\u043e\u043d\u0433\u043e"}, {"regex": "^(.*konkani.*|\\s*kok\\s*)$", "iso2": "", "iso3": "kok", "name_en": "Konkani", "name_fr": "konkani", "name_cs": "konk\u00e1n\u0161tina", "name_ru": "\u043a\u043e\u043d\u043a\u0430\u043d\u0438"}, {"regex": "^(.*korean.*|\\s*kor\\s*|\\s*ko\\s*)$", "iso2": "ko", "iso3": "kor", "name_en": "Korean", "name_fr": "cor\u00e9en", "name_cs": "korej\u0161tina", "name_ru": "\u043a\u043e\u0440\u0435\u0439\u0441\u043a\u0438\u0439"}, {"regex": "^(.*kosraean.*|\\s*kos\\s*)$", "iso2": "", "iso3": "kos", "name_en": "Kosraean", "name_fr": "kosrae", "name_cs": "kosraj\u0161tina", "name_ru": "\u043a\u043e\u0441\u0440\u0430\u0435\u043d\u0441\u043a\u0438\u0439"}, {"regex": "^(.*kpelle.*|\\s*kpe\\s*)$", "iso2": "", "iso3": "kpe", "name_en": "Kpelle", "name_fr": "kpell\u00e9", "name_cs": "kpelle", "name_ru": "\u043a\u043f\u0435\u043b\u043b\u0435"}, {"regex": "^(.*kru\\s+l.*|\\s*kro\\s*)$", "iso2": "", "iso3": "kro", "name_en": "Kru languages", "name_fr": "krou, langues", "name_cs": "jazyk kru", "name_ru": "\u044f\u0437\u044b\u043a \u043a\u0440\u0443"}, {"regex": "^(.*kuanyama.*|.*kwanyama.*|\\s*kua\\s*|\\s*kj\\s*)$", "iso2": "kj", "iso3": "kua", "name_en": "Kuanyama; Kwanyama", "name_fr": "kuanyama; kwanyama", "name_cs": "kua\u0148am\u0161tina", "name_ru": "\u043a\u0438\u043d\u044c\u044f\u043c\u0430"}, {"regex": "^(.*kumyk.*|\\s*kum\\s*)$", "iso2": "", "iso3": "kum", "name_en": "Kumyk", "name_fr": "koumyk", "name_cs": "kumy\u010dtina", "name_ru": "\u043a\u0443\u043c\u044b\u043a\u0441\u043a\u0438\u0439"}, {"regex": "^(.*kurdish.*|\\s*kur\\s*|\\s*ku\\s*)$", "iso2": "ku", "iso3": "kur", "name_en": "Kurdish", "name_fr": "kurde", "name_cs": "kurd\u0161tina", "name_ru": "\u043a\u0443\u0440\u0434\u0441\u043a\u0438\u0439"}, {"regex": "^(.*kurukh.*|\\s*kru\\s*)$", "iso2": "", "iso3": "kru", "name_en": "Kurukh", "name_fr": "kurukh", "name_cs": "kuruch\u0161tina", "name_ru": "\u043a\u0443\u0440\u0443\u0445"}, {"regex": "^(.*kutenai.*|\\s*kut\\s*)$", "iso2": "", "iso3": "kut", "name_en": "Kutenai", "name_fr": "kutenai", "name_cs": "kutenai", "name_ru": "\u043a\u0443\u0442\u0435\u043d\u0430\u0438"}, {"regex": "^(.*ladino.*|\\s*lad\\s*)$", "iso2": "", "iso3": "lad", "name_en": "Ladino", "name_fr": "jud\u00e9o-espagnol", "name_cs": "ladin\u0161tina", "name_ru": "\u043b\u0430\u0434\u0438\u043d\u043e"}, {"regex": "^(.*lahnda.*|\\s*lah\\s*)$", "iso2": "", "iso3": "lah", "name_en": "Lahnda", "name_fr": "lahnda", "name_cs": "lahnd\u0161tina", "name_ru": "\u043b\u0430\u0445\u043d\u0434\u0430"}, {"regex": "^(.*lamba.*|\\s*lam\\s*)$", "iso2": "", "iso3": "lam", "name_en": "Lamba", "name_fr": "lamba", "name_cs": "lamb\u0161tina", "name_ru": "\u043b\u0430\u043c\u0431\u0430"}, {"regex": "^(.*land\\s+dayak.*|.*dayak,\\s+land.*|\\s*day\\s*)$", "iso2": "", "iso3": "day", "name_en": "Land Dayak languages", "name_fr": "dayak, langues", "name_cs": "daj\u00e1\u010dtina", "name_ru": "\u0434\u0430\u044f\u043a"}, {"regex": "^(.*lao.*|\\s*lao\\s*|\\s*lo\\s*)$", "iso2": "lo", "iso3": "lao", "name_en": "Lao", "name_fr": "lao", "name_cs": "lao\u0161tina", "name_ru": "\u043b\u0430\u043e\u0441\u0441\u043a\u0438\u0439"}, {"regex": "^(.*latin.*|\\s*lat\\s*|\\s*la\\s*)$", "iso2": "la", "iso3": "lat", "name_en": "Latin", "name_fr": "latin", "name_cs": "latina", "name_ru": "\u043b\u0430\u0442\u0438\u043d\u0441\u043a\u0438\u0439"}, {"regex": "^(.*latvian.*|\\s*lav\\s*|\\s*lv\\s*)$", "iso2": "lv", "iso3": "lav", "name_en": "Latvian", "name_fr": "letton", "name_cs": "loty\u0161tina", "name_ru": "\u043b\u0430\u0442\u044b\u0448\u0441\u043a\u0438\u0439"}, {"regex": "^(.*lezghian.*|\\s*lez\\s*)$", "iso2": "", "iso3": "lez", "name_en": "Lezghian", "name_fr": "lezghien", "name_cs": "lezgin\u0161tina", "name_ru": "\u043b\u0435\u0437\u0433\u0438\u043d\u0441\u043a\u0438\u0439"}, {"regex": "^(.*limburgan.*|.*limburger.*|.*limburgish.*|\\s*lim\\s*|\\s*li\\s*)$", "iso2": "li", "iso3": "lim", "name_en": "Limburgan; Limburger; Limburgish", "name_fr": "limbourgeois", "name_cs": "limbur\u0161tina", "name_ru": "\u043b\u0438\u043c\u0431\u0443\u0440\u0433\u0441\u043a\u0438\u0439"}, {"regex": "^(.*lingala.*|\\s*lin\\s*|\\s*ln\\s*)$", "iso2": "ln", "iso3": "lin", "name_en": "Lingala", "name_fr": "lingala", "name_cs": "lingal\u0161tina", "name_ru": "\u043b\u0438\u043d\u0433\u0430\u043b\u0430"}, {"regex": "^(.*lithuanian.*|\\s*lit\\s*|\\s*lt\\s*)$", "iso2": "lt", "iso3": "lit", "name_en": "Lithuanian", "name_fr": "lituanien", "name_cs": "litev\u0161tina", "name_ru": "\u043b\u0438\u0442\u043e\u0432\u0441\u043a\u0438\u0439"}, {"regex": "^(.*lojban.*|\\s*jbo\\s*)$", "iso2": "", "iso3": "jbo", "name_en": "Lojban", "name_fr": "lojban", "name_cs": "lojban", "name_ru": "\u043b\u043e\u0436\u0431\u0430\u043d"}, {"regex": "^(.*low\\s+german.*|.*low\\s+saxon.*|.*german,\\s+low.*|.*saxon,\\s+low.*|\\s*nds\\s*)$", "iso2": "", "iso3": "nds", "name_en": "Low German; Low Saxon; German, Low; Saxon, Low", "name_fr": "bas allemand; bas saxon; allemand, bas; saxon, bas", "name_cs": "dolnon\u011bm\u010dina (Plattdeutsch)", "name_ru": "\u043d\u0438\u0436\u043d\u0435\u0433\u0435\u0440\u043c\u0430\u043d\u0441\u043a\u0438\u0439"}, {"regex": "^(.*lower\\s+sorbian.*|.*sorbian,\\s+lower.*|\\s*dsb\\s*)$", "iso2": "", "iso3": "dsb", "name_en": "Lower Sorbian", "name_fr": "bas-sorabe", "name_cs": "dolnolu\u017eick\u00e1 srb\u0161tina", "name_ru": "\u043d\u0438\u0436\u043d\u0435\u043b\u0443\u0436\u0438\u0446\u043a\u0438\u0439"}, {"regex": "^(.*lozi.*|\\s*loz\\s*)$", "iso2": "", "iso3": "loz", "name_en": "Lozi", "name_fr": "lozi", "name_cs": "loz\u0161tina", "name_ru": "\u043b\u043e\u0437\u0438"}, {"regex": "^(.*luba-katanga.*|\\s*lub\\s*|\\s*lu\\s*)$", "iso2": "lu", "iso3": "lub", "name_en": "Luba-Katanga", "name_fr": "luba-katanga", "name_cs": "lubu-katan\u017e\u0161tina", "name_ru": "\u043b\u0443\u0431\u0430-\u043a\u0430\u0442\u0430\u043d\u0433\u0430"}, {"regex": "^(.*luba-lulua.*|\\s*lua\\s*)$", "iso2": "", "iso3": "lua", "name_en": "Luba-Lulua", "name_fr": "luba-lulua", "name_cs": "luba-lulua\u0161tina", "name_ru": "\u043b\u0443\u0431\u0430-\u043b\u0443\u043b\u0443\u0430"}, {"regex": "^(.*luise.o.*|\\s*lui\\s*)$", "iso2": "", "iso3": "lui", "name_en": "Luise\u00f1o", "name_fr": "luiseno", "name_cs": "luise\u0148o", "name_ru": "\u043b\u0443\u0438\u0441\u0435\u043d\u044c\u043e"}, {"regex": "^(.*lule\\s+sami.*|.*sami,\\s+lule.*|\\s*smj\\s*)$", "iso2": "", "iso3": "smj", "name_en": "Lule Sami", "name_fr": "sami de Lule", "name_cs": "s\u00e1m\u0161tina (lulejsk\u00e1)", "name_ru": "\u043b\u0443\u043b\u0435-\u0441\u0430\u0430\u043c\u0441\u043a\u0438\u0439"}, {"regex": "^(.*lunda.*|\\s*lun\\s*)$", "iso2": "", "iso3": "lun", "name_en": "Lunda", "name_fr": "lunda", "name_cs": "lund\u0161tina", "name_ru": "\u043b\u0443\u043d\u0434\u0430"}, {"regex": "^(.*luo.*|\\s*luo\\s*)$", "iso2": "", "iso3": "luo", "name_en": "Luo (Kenya and Tanzania)", "name_fr": "luo (Kenya et Tanzanie)", "name_cs": "luo\u0161tina (Ke\u0148a a Tanzanie)", "name_ru": "\u043b\u0443\u043e (\u041a\u0435\u043d\u0438\u044f \u0438 \u0422\u0430\u043d\u0437\u0430\u043d\u0438\u044f)"}, {"regex": "^(.*lushai.*|\\s*lus\\s*)$", "iso2": "", "iso3": "lus", "name_en": "Lushai", "name_fr": "lushai", "name_cs": "lu\u0161\u00e1\u00ed", "name_ru": "\u043b\u0443\u0448\u0430\u0439"}, {"regex": "^(.*luxembourgish.*|.*letzeburgesch.*|\\s*ltz\\s*|\\s*lb\\s*)$", "iso2": "lb", "iso3": "ltz", "name_en": "Luxembourgish; Letzeburgesch", "name_fr": "luxembourgeois", "name_cs": "lucembur\u0161tina", "name_ru": "\u043b\u044e\u043a\u0441\u0435\u043c\u0431\u0443\u0440\u0433\u0441\u043a\u0438\u0439"}, {"regex": "^(.*macedonian.*|\\s*mac\\s*|\\s*mkd\\s*|\\s*mk\\s*)$", "iso2": "mk", "iso3": "mkd", "name_en": "Macedonian", "name_fr": "mac\u00e9donien", "name_cs": "makedon\u0161tina", "name_ru": "\u043c\u0430\u043a\u0435\u0434\u043e\u043d\u0441\u043a\u0438\u0439"}, {"regex": "^(.*madurese.*|\\s*mad\\s*)$", "iso2": "", "iso3": "mad", "name_en": "Madurese", "name_fr": "madourais", "name_cs": "madur\u0161tina", "name_ru": "\u043c\u0430\u0434\u0443\u0440\u0441\u043a\u0438\u0439"}, {"regex": "^(.*magahi.*|\\s*mag\\s*)$", "iso2": "", "iso3": "mag", "name_en": "Magahi", "name_fr": "magahi", "name_cs": "magahij\u0161tina", "name_ru": "\u043c\u0430\u0433\u0430\u0445\u0438"}, {"regex": "^(.*maithili.*|\\s*mai\\s*)$", "iso2": "", "iso3": "mai", "name_en": "Maithili", "name_fr": "maithili", "name_cs": "maithili\u0161tina", "name_ru": "\u043c\u0430\u0439\u0442\u0445\u0438\u043b\u0438"}, {"regex": "^(.*makasar.*|\\s*mak\\s*)$", "iso2": "", "iso3": "mak", "name_en": "Makasar", "name_fr": "makassar", "name_cs": "makasar\u0161tina", "name_ru": "\u043c\u0430\u043a\u0430\u0441\u0441\u0430\u0440\u0441\u043a\u0438\u0439"}, {"regex": "^(.*malagasy.*|\\s*mlg\\s*|\\s*mg\\s*)$", "iso2": "mg", "iso3": "mlg", "name_en": "Malagasy", "name_fr": "malgache", "name_cs": "malga\u0161tina", "name_ru": "\u043c\u0430\u043b\u0430\u0433\u0430\u0441\u0438\u0439\u0441\u043a\u0438\u0439"}, {"regex": "^(.*malay[^m,]*|\\s*may\\s*|\\s*msa\\s*|\\s*ms\\s*)$", "iso2": "ms", "iso3": "msa", "name_en": "Malay", "name_fr": "malais", "name_cs": "malaj\u0161tina", "name_ru": "\u043c\u0430\u043b\u0430\u0439\u0441\u043a\u0438\u0439"}, {"regex": "^(.*malayalam.*|\\s*mal\\s*|\\s*ml\\s*)$", "iso2": "ml", "iso3": "mal", "name_en": "Malayalam", "name_fr": "malayalam", "name_cs": "malaj\u00e1lam\u0161tina", "name_ru": "\u043c\u0430\u043b\u0430\u044f\u043b\u0430\u043c"}, {"regex": "^(.*maltese.*|\\s*mlt\\s*|\\s*mt\\s*)$", "iso2": "mt", "iso3": "mlt", "name_en": "Maltese", "name_fr": "maltais", "name_cs": "malt\u0161tina", "name_ru": "\u043c\u0430\u043b\u044c\u0442\u0438\u0439\u0441\u043a\u0438\u0439"}, {"regex": "^(.*manchu.*|\\s*mnc\\s*)$", "iso2": "", "iso3": "mnc", "name_en": "Manchu", "name_fr": "mandchou", "name_cs": "mand\u017eu\u0161tina", "name_ru": "\u043c\u0430\u043d\u044c\u0447\u0436\u0443\u0440\u0441\u043a\u0438\u0439"}, {"regex": "^(.*mandar.*|\\s*mdr\\s*)$", "iso2": "", "iso3": "mdr", "name_en": "Mandar", "name_fr": "mandar", "name_cs": "mandar", "name_ru": "\u043c\u0430\u043d\u0434\u0430\u0440\u0441\u043a\u0438\u0439"}, {"regex": "^(.*mandingo.*|\\s*man\\s*)$", "iso2": "", "iso3": "man", "name_en": "Mandingo", "name_fr": "mandingue", "name_cs": "manding\u0161tina", "name_ru": "\u043c\u0430\u043d\u0434\u0438\u043d\u0433\u043e"}, {"regex": "^(.*manipuri.*|\\s*mni\\s*)$", "iso2": "", "iso3": "mni", "name_en": "Manipuri", "name_fr": "manipuri", "name_cs": "manipur\u0161tina", "name_ru": "\u043c\u0430\u043d\u0438\u043f\u0443\u0440\u0441\u043a\u0438\u0439"}, {"regex": "^(.*manobo.*|\\s*mno\\s*)$", "iso2": "", "iso3": "mno", "name_en": "Manobo languages", "name_fr": "manobo, langues", "name_cs": "manobo jazyky", "name_ru": "\u043c\u0430\u043d\u043e\u0431\u043e \u044f\u0437\u044b\u043a\u0438"}, {"regex": "^(.*manx.*|\\s*glv\\s*|\\s*gv\\s*)$", "iso2": "gv", "iso3": "glv", "name_en": "Manx", "name_fr": "manx; mannois", "name_cs": "man\u0161tina (manx)", "name_ru": "\u043c\u044d\u043d\u0441\u043a\u0438\u0439 (\u043c\u044d\u043d\u043a\u0441\u043a\u0438\u0439)"}, {"regex": "^(.*mapudungun.*|.*mapuche.*|\\s*arn\\s*)$", "iso2": "", "iso3": "arn", "name_en": "Mapudungun; Mapuche", "name_fr": "mapudungun; mapuche; mapuce", "name_cs": "mapuche (arauk\u00e1n\u0161tina)", "name_ru": "\u0430\u0440\u0430\u0443\u043a\u0430\u043d\u0441\u043a\u0438\u0439"}, {"regex": "^(.*marathi.*|\\s*mar\\s*|\\s*mr\\s*)$", "iso2": "mr", "iso3": "mar", "name_en": "Marathi", "name_fr": "marathe", "name_cs": "mar\u00e1th\u0161tina", "name_ru": "\u043c\u0430\u0440\u0430\u0442\u0445\u0438"}, {"regex": "^(.*mari[^t,]*|\\s*chm\\s*)$", "iso2": "", "iso3": "chm", "name_en": "Mari", "name_fr": "mari", "name_cs": "marij\u0161tina", "name_ru": "\u043c\u0430\u0440\u0438\u0439\u0441\u043a\u0438\u0439 (\u0447\u0435\u0440\u0435\u043c\u0438\u0441\u0441\u043a\u0438\u0439)"}, {"regex": "^(.*marshallese.*|\\s*mah\\s*|\\s*mh\\s*)$", "iso2": "mh", "iso3": "mah", "name_en": "Marshallese", "name_fr": "marshall", "name_cs": "mar\u0161\u00e1l\u0161tina", "name_ru": "\u043c\u0430\u0440\u0448\u0430\u043b\u043b\u044c\u0441\u043a\u0438\u0439"}, {"regex": "^(.*marwari.*|\\s*mwr\\s*)$", "iso2": "", "iso3": "mwr", "name_en": "Marwari", "name_fr": "marvari", "name_cs": "m\u00e1rv\u00e1r\u0161tina", "name_ru": "\u043c\u0430\u0440\u0432\u0430\u0440\u0438"}, {"regex": "^(.*masai.*|\\s*mas\\s*)$", "iso2": "", "iso3": "mas", "name_en": "Masai", "name_fr": "massa\u00ef", "name_cs": "masaj\u0161tina", "name_ru": "\u043c\u0430\u0441\u0430\u0438"}, {"regex": "^(.*mayan.*|\\s*myn\\s*)$", "iso2": "", "iso3": "myn", "name_en": "Mayan languages", "name_fr": "maya, langues", "name_cs": "maysk\u00e9 jazyky", "name_ru": "\u043c\u0430\u0439\u044f \u044f\u0437\u044b\u043a\u0438"}, {"regex": "^(.*mende.*|\\s*men\\s*)$", "iso2": "", "iso3": "men", "name_en": "Mende", "name_fr": "mend\u00e9", "name_cs": "mende", "name_ru": "\u043c\u0435\u043d\u0434\u0435"}, {"regex": "^(.*mi'kmaq.*|.*micmac.*|\\s*mic\\s*)$", "iso2": "", "iso3": "mic", "name_en": "Mi'kmaq; Micmac", "name_fr": "mi'kmaq; micmac", "name_cs": "micmac", "name_ru": "\u043c\u0438\u043a\u043c\u0430\u043a"}, {"regex": "^(.*minangkabau.*|\\s*min\\s*)$", "iso2": "", "iso3": "min", "name_en": "Minangkabau", "name_fr": "minangkabau", "name_cs": "minangkabau", "name_ru": "\u043c\u0438\u043d\u0430\u043d\u0433\u043a\u0430\u0431\u0430\u0443"}, {"regex": "^(.*mirandese.*|\\s*mwl\\s*)$", "iso2": "", "iso3": "mwl", "name_en": "Mirandese", "name_fr": "mirandais", "name_cs": "mirand\u0161tina", "name_ru": "\u043c\u0438\u0440\u0430\u043d\u0434\u0438\u0439\u0441\u043a\u0438\u0439"}, {"regex": "^(.*modern\\s+greek.*|.*greek,\\s+modern.*|[^c,]*greek[^c,]*|\\s*gre\\s*|\\s*ell\\s*|\\s*el\\s*)$", "iso2": "el", "iso3": "ell", "name_en": "Greek, Modern (1453-)", "name_fr": "grec moderne (apr\u00e8s 1453)", "name_cs": "modern\u00ed \u0159e\u010dtina (po 1453)", "name_ru": "\u0433\u0440\u0435\u0447\u0435\u0441\u043a\u0438\u0439 (\u043d\u043e\u0432\u043e\u0433\u0440\u0435\u0447\u0435\u0441\u043a\u0438\u0439) (\u043f\u043e\u0441\u043b\u0435 1453 \u0433.)"}, {"regex": "^(.*mohawk.*|\\s*moh\\s*)$", "iso2": "", "iso3": "moh", "name_en": "Mohawk", "name_fr": "mohawk", "name_cs": "mohawk", "name_ru": "\u043c\u043e\u0445\u0430\u0443\u043a"}, {"regex": "^(.*moksha.*|\\s*mdf\\s*)$", "iso2": "", "iso3": "mdf", "name_en": "Moksha", "name_fr": "moksa", "name_cs": "mok\u0161an\u0161tina", "name_ru": "\u043c\u043e\u043a\u0448\u0430\u043d\u0441\u043a\u0438\u0439"}, {"regex": "^(.*mon-khmer.*|\\s*mkh\\s*)$", "iso2": "", "iso3": "mkh", "name_en": "Mon-Khmer languages", "name_fr": "m\u00f4n-khmer, langues", "name_cs": "mon-khmersk\u00e9 jazyky, ostatn\u00ed", "name_ru": "\u043c\u043e\u043d\u043a\u0445\u043c\u0435\u0440\u0441\u043a\u0438\u0439 \u044f\u0437\u044b\u043a"}, {"regex": "^(.*mongo[^i,]*|\\s*lol\\s*)$", "iso2": "", "iso3": "lol", "name_en": "Mongo", "name_fr": "mongo", "name_cs": "mong\u0161tina", "name_ru": "\u043c\u043e\u043d\u0433\u043e"}, {"regex": "^(.*mongolian.*|\\s*mon\\s*|\\s*mn\\s*)$", "iso2": "mn", "iso3": "mon", "name_en": "Mongolian", "name_fr": "mongol", "name_cs": "mongol\u0161tina", "name_ru": "\u043c\u043e\u043d\u0433\u043e\u043b\u044c\u0441\u043a\u0438\u0439"}, {"regex": "^(.*montenegrin.*|\\s*cnr\\s*)$", "iso2": "", "iso3": "cnr", "name_en": "Montenegrin", "name_fr": "mont\u00e9n\u00e9grin", "name_cs": "\u010dernohor\u0161tina", "name_ru": "\u0447\u0435\u0440\u043d\u043e\u0433\u043e\u0440\u0441\u043a\u0438\u0439"}, {"regex": "^(.*mossi.*|\\s*mos\\s*)$", "iso2": "", "iso3": "mos", "name_en": "Mossi", "name_fr": "mor\u00e9", "name_cs": "mosi (more)", "name_ru": "\u043c\u043e\u0441\u0438"}, {"regex": "^(.*multiple.*|\\s*mul\\s*)$", "iso2": "", "iso3": "mul", "name_en": "Multiple languages", "name_fr": "multilingue", "name_cs": "slo\u017een\u00e9 (v\u00edce\u0159\u00e1dkov\u00e9) jazyky", "name_ru": "\u043d\u0435\u0441\u043a\u043e\u043b\u044c\u043a\u043e \u044f\u0437\u044b\u043a\u043e\u0432"}, {"regex": "^(.*munda.*|\\s*mun\\s*)$", "iso2": "", "iso3": "mun", "name_en": "Munda languages", "name_fr": "mounda, langues", "name_cs": "mundsk\u00e9 jazyky", "name_ru": "\u043c\u0443\u043d\u0434\u0430 \u044f\u0437\u044b\u043a\u0438"}, {"regex": "^(.*n'ko.*|\\s*nqo\\s*)$", "iso2": "", "iso3": "nqo", "name_en": "N'Ko", "name_fr": "n'ko", "name_cs": "n'ko", "name_ru": "\u043d\u043a\u043e"}, {"regex": "^(.*nahuatl.*|\\s*nah\\s*)$", "iso2": "", "iso3": "nah", "name_en": "Nahuatl languages", "name_fr": "nahuatl, langues", "name_cs": "nahuatl", "name_ru": "\u0430\u0446\u0442\u0435\u043a\u0441\u043a\u0438\u0439"}, {"regex": "^(.*nauru.*|\\s*nau\\s*|\\s*na\\s*)$", "iso2": "na", "iso3": "nau", "name_en": "Nauru", "name_fr": "nauruan", "name_cs": "naur\u0161tina", "name_ru": "\u043d\u0430\u0443\u0440\u0443"}, {"regex": "^(.*navajo.*|.*navaho.*|\\s*nav\\s*|\\s*nv\\s*)$", "iso2": "nv", "iso3": "nav", "name_en": "Navajo; Navaho", "name_fr": "navaho", "name_cs": "navah\u0161tina (navaho)", "name_ru": "\u043d\u0430\u0432\u0430\u0445\u043e"}, {"regex": "^(.*ndonga.*|\\s*ndo\\s*|\\s*ng\\s*)$", "iso2": "ng", "iso3": "ndo", "name_en": "Ndonga", "name_fr": "ndonga", "name_cs": "ndond\u0161tina", "name_ru": "\u043d\u0434\u0443\u043d\u0433\u0430"}, {"regex": "^(.*neapolitan.*|\\s*nap\\s*)$", "iso2": "", "iso3": "nap", "name_en": "Neapolitan", "name_fr": "napolitain", "name_cs": "neapol\u0161tina", "name_ru": "\u043d\u0435\u0430\u043f\u043e\u043b\u0438\u0442\u0430\u043d\u0441\u043a\u0438\u0439"}, {"regex": "^(.*nepal\\s+bhasa.*|.*bhasa,\\s+nepal.*|.*newari.*|\\s*new\\s*)$", "iso2": "", "iso3": "new", "name_en": "Nepal Bhasa; Newari", "name_fr": "nepal bhasa; newari", "name_cs": "n\u00e9v\u00e1r\u0161tina", "name_ru": "\u043d\u0435\u0432\u0430\u0440\u0441\u043a\u0438\u0439"}, {"regex": "^(.*nepali.*|\\s*nep\\s*|\\s*ne\\s*)$", "iso2": "ne", "iso3": "nep", "name_en": "Nepali", "name_fr": "n\u00e9palais", "name_cs": "nep\u00e1l\u0161tina", "name_ru": "\u043d\u0435\u043f\u0430\u043b\u044c\u0441\u043a\u0438\u0439"}, {"regex": "^(.*nias.*|\\s*nia\\s*)$", "iso2": "", "iso3": "nia", "name_en": "Nias", "name_fr": "nias", "name_cs": "nias", "name_ru": "\u043d\u0438\u0430\u0441"}, {"regex": "^(.*niger-kordofanian.*|\\s*nic\\s*)$", "iso2": "", "iso3": "nic", "name_en": "Niger-Kordofanian languages", "name_fr": "nig\u00e9ro-kordofaniennes, langues", "name_cs": "nigersko-kon\u017esk\u00e9 jazyky, ostatn\u00ed", "name_ru": "\u043d\u0438\u0433\u0435\u0440-\u043a\u043e\u0440\u0434\u043e\u0444\u0430\u043d\u0441\u043a\u0438\u0439 \u044f\u0437\u044b\u043a"}, {"regex": "^(.*nilo-saharan.*|\\s*ssa\\s*)$", "iso2": "", "iso3": "ssa", "name_en": "Nilo-Saharan languages", "name_fr": "nilo-sahariennes, langues", "name_cs": "nilsko-saharsk\u00e9 jazyky, ostatn\u00ed", "name_ru": "\u043d\u0438\u043b\u043e-\u0441\u0430\u0445\u0430\u0440\u0441\u043a\u0438\u0439 \u044f\u0437\u044b\u043a"}, {"regex": "^(.*niuean.*|\\s*niu\\s*)$", "iso2": "", "iso3": "niu", "name_en": "Niuean", "name_fr": "niu\u00e9", "name_cs": "niue\u0161tina", "name_ru": "\u043d\u0438\u0443\u044d"}, {"regex": "^(.*no\\s+linguistic.*|\\s*zxx\\s*)$", "iso2": "", "iso3": "zxx", "name_en": "No linguistic content", "name_fr": "pas de contenu linguistique", "name_cs": "\u017e\u00e1dn\u00fd jazykov\u00fd obsah", "name_ru": "\u0431\u0435\u0437 \u044f\u0437\u044b\u043a\u043e\u0432\u043e\u0433\u043e \u0441\u043e\u0434\u0435\u0440\u0436\u0430\u043d\u0438\u044f"}, {"regex": "^(.*nogai.*|\\s*nog\\s*)$", "iso2": "", "iso3": "nog", "name_en": "Nogai", "name_fr": "noga\u00ef; nogay", "name_cs": "nogaj\u0161tina", "name_ru": "\u043d\u043e\u0433\u0430\u0439\u0441\u043a\u0438\u0439"}, {"regex": "^(.*north[ern]*\\s+frisian.*|.*frisian,\\s+north[ern]*.*|\\s*frr\\s*)$", "iso2": "", "iso3": "frr", "name_en": "Northern Frisian", "name_fr": "frison septentrional", "name_cs": "fr\u00ed\u0161tina (severn\u00ed)", "name_ru": "\u0444\u0440\u0438\u0437\u0441\u043a\u0438\u0439 \u0441\u0435\u0432\u0435\u0440\u043d\u044b\u0439"}, {"regex": "^(.*north[ern]*\\s+ndebele.*|.*ndebele,\\s+north[ern]*.*|\\s*nde\\s*|\\s*nd\\s*)$", "iso2": "nd", "iso3": "nde", "name_en": "Ndebele, North; North Ndebele", "name_fr": "nd\u00e9b\u00e9l\u00e9 du Nord", "name_cs": "ndebel\u0161tina (Zimbabwe)", "name_ru": "\u043d\u0434\u0435\u0431\u0435\u043b\u0435"}, {"regex": "^(.*north[ern]*\\s+sami.*|.*sami,\\s+north[ern]*.*|\\s*sme\\s*|\\s*se\\s*)$", "iso2": "se", "iso3": "sme", "name_en": "Northern Sami", "name_fr": "sami du Nord", "name_cs": "s\u00e1m\u0161tina (severn\u00ed)", "name_ru": "\u0441\u0435\u0432\u0435\u0440\u043d\u043e\u0441\u0430\u0430\u043c\u0441\u043a\u0438\u0439"}, {"regex": "^(.*north\\s+american\\s+indian.*|\\s*nai\\s*)$", "iso2": "", "iso3": "nai", "name_en": "North American Indian languages", "name_fr": "nord-am\u00e9rindiennes, langues", "name_cs": "severoamerick\u00e9 indi\u00e1nsk\u00e9 jazyky, ostatn\u00ed", "name_ru": "\u044f\u0437\u044b\u043a \u0438\u043d\u0434\u0435\u0439\u0446\u0435\u0432 \u0421\u0435\u0432\u0435\u0440\u043d\u043e\u0439 \u0410\u043c\u0435\u0440\u0438\u043a\u0438"}, {"regex": "^(.*norwegian\\s+bokm\u00e5l.*|.*bokm\u00e5l,\\s+norwegian.*|.*bokm\u00e5l.*|\\s*nob\\s*|\\s*nb\\s*)$", "iso2": "nb", "iso3": "nob", "name_en": "Bokm\u00e5l, Norwegian; Norwegian Bokm\u00e5l", "name_fr": "norv\u00e9gien bokm\u00e5l", "name_cs": "nor\u0161tina (bokm\u00e5l)", "name_ru": "\u0431\u0443\u043a\u043c\u043e\u043b"}, {"regex": "^(.*norwegian\\s+nynorsk.*|.*nynorsk,\\s+norwegian.*|.*nynorsk.*|\\s*nno\\s*|\\s*nn\\s*)$", "iso2": "nn", "iso3": "nno", "name_en": "Norwegian Nynorsk; Nynorsk, Norwegian", "name_fr": "norv\u00e9gien nynorsk; nynorsk, norv\u00e9gien", "name_cs": "nor\u0161tina (nynorsk)", "name_ru": "\u043d\u044e\u043d\u043e\u0440\u0441\u043a (\u043d\u043e\u0432\u043e\u043d\u043e\u0440\u0432\u0435\u0436\u0441\u043a\u0438\u0439)"}, {"regex": "^(.*nubian.*|\\s*nub\\s*)$", "iso2": "", "iso3": "nub", "name_en": "Nubian languages", "name_fr": "nubiennes, langues", "name_cs": "nubijsk\u00e9 jazyky", "name_ru": "\u043d\u0443\u0431\u0438\u0439\u0441\u043a\u0438\u0435 \u044f\u0437\u044b\u043a\u0438"}, {"regex": "^(.*nyamwezi.*|\\s*nym\\s*)$", "iso2": "", "iso3": "nym", "name_en": "Nyamwezi", "name_fr": "nyamwezi", "name_cs": "\u0148amwe\u017e\u0161tina", "name_ru": "\u043d\u044c\u044f\u043c\u0432\u0435\u0437\u0438"}, {"regex": "^(.*nyankole.*|\\s*nyn\\s*)$", "iso2": "", "iso3": "nyn", "name_en": "Nyankole", "name_fr": "nyankol\u00e9", "name_cs": "nyankol\u0161tina", "name_ru": "\u043d\u044c\u044f\u043d\u043a\u043e\u043b\u0435"}, {"regex": "^(.*nyoro.*|\\s*nyo\\s*)$", "iso2": "", "iso3": "nyo", "name_en": "Nyoro", "name_fr": "nyoro", "name_cs": "nyor\u0161tina", "name_ru": "\u043d\u044c\u043e\u0440\u043e"}, {"regex": "^(.*nzima.*|\\s*nzi\\s*)$", "iso2": "", "iso3": "nzi", "name_en": "Nzima", "name_fr": "nzema", "name_cs": "nzima", "name_ru": "\u043d\u0437\u0438\u043c\u0430"}, {"regex": "^(.*off[icial.]*\\s+aramaic.*|.*imp[erial.]*\\s+aramaic.*|.*aramaic,\\s+off[icial.]*.*|.*aramaic,\\s+imp[erial.]*.*|\\s*arc\\s*)$", "iso2": "", "iso3": "arc", "name_en": "Official Aramaic (700-300 BCE); Imperial Aramaic (700-300 BCE)", "name_fr": "aram\u00e9en d'empire (700-300 BCE)", "name_cs": "aramej\u0161tina (700-300 p\u0159. K.)", "name_ru": "\u0430\u0440\u0430\u043c\u0435\u0439\u0441\u043a\u0438\u0439 (700-300 \u0433\u0433. \u0434\u043e \u043d. \u044d.)"}, {"regex": "^(.*ojibwa.*|\\s*oji\\s*|\\s*oj\\s*)$", "iso2": "oj", "iso3": "oji", "name_en": "Ojibwa", "name_fr": "ojibwa", "name_cs": "od\u017eibvej\u0161tina", "name_ru": "\u043e\u0434\u0436\u0438\u0431\u0432\u0435"}, {"regex": "^(.*old\\s+english.*|.*english,\\s+old.*|\\s*ang\\s*)$", "iso2": "", "iso3": "ang", "name_en": "English, Old (ca.450-1100)", "name_fr": "anglo-saxon (ca.450-1100)", "name_cs": "star\u00e1 anglosa\u0161tina (cca 450-1100)", "name_ru": "\u0441\u0442\u0430\u0440\u043e\u0430\u043d\u0433\u043b\u0438\u0439\u0441\u043a\u0438\u0439 (\u043e\u043a\u043e\u043b\u043e 450-1100 \u0433\u0433.)"}, {"regex": "^(.*old\\s+french.*|.*french,\\s+old.*|\\s*fro\\s*)$", "iso2": "", "iso3": "fro", "name_en": "French, Old (842-ca.1400)", "name_fr": "fran\u00e7ais ancien (842-ca.1400)", "name_cs": "starofrancouz\u0161tina (842-cca 1400)", "name_ru": "\u0441\u0442\u0430\u0440\u043e\u0444\u0440\u0430\u043d\u0446\u0443\u0437\u0441\u043a\u0438\u0439 (842-\u043e\u043a\u043e\u043b\u043e 1400 \u0433.)"}, {"regex": "^(.*old\\s+irish.*|.*irish,\\s+old.*|\\s*sga\\s*)$", "iso2": "", "iso3": "sga", "name_en": "Irish, Old (to 900)", "name_fr": "irlandais ancien (jusqu'\u00e0 900)", "name_cs": "staroir\u0161tina (do 900)", "name_ru": "\u0441\u0442\u0430\u0440\u043e\u0438\u0440\u043b\u0430\u043d\u0434\u0441\u043a\u0438\u0439 (\u0434\u043e 900 \u0433.)"}, {"regex": "^(.*old\\s+norse.*|.*norse,\\s+old.*|\\s*non\\s*)$", "iso2": "", "iso3": "non", "name_en": "Norse, Old", "name_fr": "norrois, vieux", "name_cs": "nor\u0161tina historick\u00e1", "name_ru": "\u0441\u0442\u0430\u0440\u043e\u043d\u043e\u0440\u0432\u0435\u0436\u0441\u043a\u0438\u0439"}, {"regex": "^(.*old\\s+persian.*|.*persian,\\s+old.*|\\s*peo\\s*)$", "iso2": "", "iso3": "peo", "name_en": "Persian, Old (ca.600-400 B.C.)", "name_fr": "perse, vieux (ca. 600-400 av. J.-C.)", "name_cs": "staroper\u0161tina (cca 600-400 p\u0159. K.)", "name_ru": "\u0441\u0442\u0430\u0440\u043e\u043f\u0435\u0440\u0441\u0438\u0434\u0441\u043a\u0438\u0439 (\u043e\u043a\u043e\u043b\u043e 600-400 \u0433\u0433. \u0434\u043e \u043d. \u044d.)"}, {"regex": "^(.*old\\s+proven\u00e7al.*|.*old\\s+occitan.*|.*proven\u00e7al,\\s+old.*|.*occitan,\\s+old.*|\\s*pro\\s*)$", "iso2": "", "iso3": "pro", "name_en": "Proven\u00e7al, Old (to 1500);Occitan, Old (to 1500)", "name_fr": "proven\u00e7al ancien (jusqu'\u00e0 1500); occitan ancien (jusqu'\u00e0 1500)", "name_cs": "star\u00e1 provens\u00e1l\u0161tina (do 1500)", "name_ru": "\u0441\u0442\u0430\u0440\u043e\u043f\u0440\u043e\u0432\u0430\u043d\u0441\u0430\u043b\u044c\u0441\u043a\u0438\u0439 (\u0434\u043e 1500 \u0433.)"}, {"regex": "^(.*oriya.*|\\s*ori\\s*|\\s*or\\s*)$", "iso2": "or", "iso3": "ori", "name_en": "Oriya", "name_fr": "oriya", "name_cs": "urij\u0161tina", "name_ru": "\u043e\u0440\u0438\u044f"}, {"regex": "^(.*oromo.*|\\s*orm\\s*|\\s*om\\s*)$", "iso2": "om", "iso3": "orm", "name_en": "Oromo", "name_fr": "galla", "name_cs": "orom\u0161tina", "name_ru": "\u043e\u0440\u043e\u043c\u043e"}, {"regex": "^(.*osage.*|\\s*osa\\s*)$", "iso2": "", "iso3": "osa", "name_en": "Osage", "name_fr": "osage", "name_cs": "osage", "name_ru": "\u043e\u0441\u0435\u0434\u0436\u0438"}, {"regex": "^(.*ossetian.*|.*ossetic.*|\\s*oss\\s*|\\s*os\\s*)$", "iso2": "os", "iso3": "oss", "name_en": "Ossetian; Ossetic", "name_fr": "oss\u00e8te", "name_cs": "oset\u0161tina", "name_ru": "\u043e\u0441\u0435\u0442\u0438\u043d\u0441\u043a\u0438\u0439"}, {"regex": "^(.*otomian.*|\\s*oto\\s*)$", "iso2": "", "iso3": "oto", "name_en": "Otomian languages", "name_fr": "otomi, langues", "name_cs": "otomijsk\u00e9 jazyky", "name_ru": "\u043e\u0442\u043e\u043c\u0430\u043d\u0433\u0441\u043a\u0438\u0435 \u044f\u0437\u044b\u043a\u0438"}, {"regex": "^(.*ottoman\\s+turkish.*|.*turkish,\\s+ottoman.*|\\s*ota\\s*)$", "iso2": "", "iso3": "ota", "name_en": "Turkish, Ottoman (1500-1928)", "name_fr": "turc ottoman (1500-1928)", "name_cs": "osmansk\u00e1 ture\u010dtina (1500-1928)", "name_ru": "\u0441\u0442\u0430\u0440\u043e\u0442\u0443\u0440\u0435\u0446\u043a\u0438\u0439 (1500-1928 \u0433\u0433.)"}, {"regex": "^(.*pahlavi.*|\\s*pal\\s*)$", "iso2": "", "iso3": "pal", "name_en": "Pahlavi", "name_fr": "pahlavi", "name_cs": "pahlav\u0161tina (st\u0159edn\u00ed per\u0161tina)", "name_ru": "\u043f\u0435\u0445\u043b\u0435\u0432\u0438\u0439\u0441\u043a\u0438\u0439"}, {"regex": "^(.*palauan.*|\\s*pau\\s*)$", "iso2": "", "iso3": "pau", "name_en": "Palauan", "name_fr": "palau", "name_cs": "palau\u0161tina", "name_ru": "\u043f\u0430\u043b\u0430\u0443"}, {"regex": "^(.*pali.*|\\s*pli\\s*|\\s*pi\\s*)$", "iso2": "pi", "iso3": "pli", "name_en": "Pali", "name_fr": "pali", "name_cs": "p\u00e1li", "name_ru": "\u043f\u0430\u043b\u0438"}, {"regex": "^(.*pampanga.*|.*kapampangan.*|\\s*pam\\s*)$", "iso2": "", "iso3": "pam", "name_en": "Pampanga; Kapampangan", "name_fr": "pampangan", "name_cs": "pampangau", "name_ru": "\u043f\u0430\u043c\u043f\u0430\u043d\u0433\u0430"}, {"regex": "^(.*pangasinan.*|\\s*pag\\s*)$", "iso2": "", "iso3": "pag", "name_en": "Pangasinan", "name_fr": "pangasinan", "name_cs": "pangasinan\u0161tina", "name_ru": "\u043f\u0430\u043d\u0433\u0430\u0441\u0438\u043d\u0430\u043d"}, {"regex": "^(.*panjabi.*|.*punjabi.*|\\s*pan\\s*|\\s*pa\\s*)$", "iso2": "pa", "iso3": "pan", "name_en": "Panjabi; Punjabi", "name_fr": "pendjabi", "name_cs": "pa\u0148d\u017e\u00e1b\u0161tina", "name_ru": "\u043f\u0435\u043d\u0434\u0436\u0430\u0431\u0441\u043a\u0438\u0439"}, {"regex": "^(.*papiamento.*|\\s*pap\\s*)$", "iso2": "", "iso3": "pap", "name_en": "Papiamento", "name_fr": "papiamento", "name_cs": "papiamento", "name_ru": "\u043f\u0430\u043f\u044c\u044f\u043c\u0435\u043d\u0442\u043e"}, {"regex": "^(.*papuan.*|\\s*paa\\s*)$", "iso2": "", "iso3": "paa", "name_en": "Papuan languages", "name_fr": "papoues, langues", "name_cs": "papu\u00e1nsk\u00e9 jazyky, ostatn\u00ed", "name_ru": "\u043f\u0430\u043f\u0443\u0430\u0441\u0441\u043a\u0438\u0439 \u044f\u0437\u044b\u043a"}, {"regex": "^(.*pedi.*|.*sepedi.*|.*north[ern]*\\s+sotho.*|.*sotho,\\s+north[ern]*.*|\\s*nso\\s*)$", "iso2": "", "iso3": "nso", "name_en": "Pedi; Sepedi; Northern Sotho", "name_fr": "pedi; sepedi; sotho du Nord", "name_cs": "sot\u0161tina (severn\u00ed)", "name_ru": "\u0441\u043e\u0442\u043e \u0441\u0435\u0432\u0435\u0440\u043d\u044b\u0439"}, {"regex": "^(.*philippine.*|\\s*phi\\s*)$", "iso2": "", "iso3": "phi", "name_en": "Philippine languages", "name_fr": "philippines, langues", "name_cs": "filip\u00ednsk\u00e9 jazyky, ostatn\u00ed", "name_ru": "\u0444\u0438\u043b\u0438\u043f\u043f\u0438\u043d\u0441\u043a\u0438\u0439 \u044f\u0437\u044b\u043a"}, {"regex": "^(.*phoenician.*|\\s*phn\\s*)$", "iso2": "", "iso3": "phn", "name_en": "Phoenician", "name_fr": "ph\u00e9nicien", "name_cs": "f\u00e9ni\u010dtina", "name_ru": "\u0444\u0438\u043d\u0438\u043a\u0438\u0439\u0441\u043a\u0438\u0439"}, {"regex": "^(.*pohnpeian.*|\\s*pon\\s*)$", "iso2": "", "iso3": "pon", "name_en": "Pohnpeian", "name_fr": "pohnpei", "name_cs": "pohnpei\u0161tina (ponape)", "name_ru": "\u043f\u043e\u043d\u0430\u043f\u0435"}, {"regex": "^(.*polish.*|\\s*pol\\s*|\\s*pl\\s*)$", "iso2": "pl", "iso3": "pol", "name_en": "Polish", "name_fr": "polonais", "name_cs": "pol\u0161tina", "name_ru": "\u043f\u043e\u043b\u044c\u0441\u043a\u0438\u0439"}, {"regex": "^(.*portuguese.*|\\s*por\\s*|\\s*pt\\s*)$", "iso2": "pt", "iso3": "por", "name_en": "Portuguese", "name_fr": "portugais", "name_cs": "portugal\u0161tina", "name_ru": "\u043f\u043e\u0440\u0442\u0443\u0433\u0430\u043b\u044c\u0441\u043a\u0438\u0439"}, {"regex": "^(.*prakrit.*|\\s*pra\\s*)$", "iso2": "", "iso3": "pra", "name_en": "Prakrit languages", "name_fr": "pr\u00e2krit, langues", "name_cs": "pr\u00e1krtsk\u00e9 jazyky", "name_ru": "\u043f\u0440\u0430\u043a\u0440\u0438\u0442\u044b \u044f\u0437\u044b\u043a\u0438"}, {"regex": "^(.*pushto.*|.*pashto.*|\\s*pus\\s*|\\s*ps\\s*)$", "iso2": "ps", "iso3": "pus", "name_en": "Pushto; Pashto", "name_fr": "pachto", "name_cs": "pa\u0161t\u0161tina", "name_ru": "\u043f\u0443\u0448\u0442\u0443"}, {"regex": "^(.*quechua.*|\\s*que\\s*|\\s*qu\\s*)$", "iso2": "qu", "iso3": "que", "name_en": "Quechua", "name_fr": "quechua", "name_cs": "ke\u010du\u00e1n\u0161tina", "name_ru": "\u043a\u0435\u0447\u0443\u0430"}, {"regex": "^(.*rajasthani.*|\\s*raj\\s*)$", "iso2": "", "iso3": "raj", "name_en": "Rajasthani", "name_fr": "rajasthani", "name_cs": "r\u00e1d\u017east\u00e1n\u0161tina", "name_ru": "\u0440\u0430\u0434\u0436\u0430\u0441\u0442\u0445\u0430\u043d\u0438"}, {"regex": "^(.*rapanui.*|\\s*rap\\s*)$", "iso2": "", "iso3": "rap", "name_en": "Rapanui", "name_fr": "rapanui", "name_cs": "rapanui\u0161tina", "name_ru": "\u0440\u0430\u043f\u0430\u043d\u0443\u0438"}, {"regex": "^(.*rarotongan.*|.*cook\\s+islands\\s+maori.*|\\s*rar\\s*)$", "iso2": "", "iso3": "rar", "name_en": "Rarotongan; Cook Islands Maori", "name_fr": "rarotonga; maori des \u00eeles Cook", "name_cs": "rarotonga\u0161tina", "name_ru": "\u0440\u0430\u0440\u043e\u0442\u043e\u043d\u0433\u0430\u043d\u0441\u043a\u0438\u0439"}, {"regex": "^(.*reserved.*|\\s*qaa-qtz\\s*)$", "iso2": "", "iso3": "qaa-qtz", "name_en": "Reserved for local use", "name_fr": "r\u00e9serv\u00e9e \u00e0 l'usage local", "name_cs": "vyhrazeno pro m\u00edstn\u00ed pou\u017eit\u00ed", "name_ru": "\u0437\u0430\u0440\u0435\u0437\u0435\u0440\u0432\u0438\u0440\u043e\u0432\u0430\u043d\u043e \u0434\u043b\u044f \u043b\u043e\u043a\u0430\u043b\u044c\u043d\u043e\u0433\u043e \u0438\u0441\u043f\u043e\u043b\u044c\u0437\u043e\u0432\u0430\u043d\u0438\u044f"}, {"regex": "^(.*romance.*|\\s*roa\\s*)$", "iso2": "", "iso3": "roa", "name_en": "Romance languages", "name_fr": "romanes, langues", "name_cs": "rom\u00e1nsk\u00e9 jazyky, ostatn\u00ed", "name_ru": "\u0440\u043e\u043c\u0430\u043d\u0441\u043a\u0438\u0439 \u044f\u0437\u044b\u043a"}, {"regex": "^(.*romansh.*|\\s*roh\\s*|\\s*rm\\s*)$", "iso2": "rm", "iso3": "roh", "name_en": "Romansh", "name_fr": "romanche", "name_cs": "r\u00e9torom\u00e1n\u0161tina", "name_ru": "\u0440\u0435\u0442\u043e\u0440\u043e\u043c\u0430\u043d\u0441\u043a\u0438\u0439"}, {"regex": "^(.*romany.*|\\s*rom\\s*)$", "iso2": "", "iso3": "rom", "name_en": "Romany", "name_fr": "tsigane", "name_cs": "rom\u0161tina", "name_ru": "\u0446\u044b\u0433\u0430\u043d\u0441\u043a\u0438\u0439"}, {"regex": "^(.*rundi.*|\\s*run\\s*|\\s*rn\\s*)$", "iso2": "rn", "iso3": "run", "name_en": "Rundi", "name_fr": "rundi", "name_cs": "kirund\u0161tina", "name_ru": "\u0440\u0443\u043d\u0434\u0438"}, {"regex": "^(.*russian.*|\\s*rus\\s*|\\s*ru\\s*)$", "iso2": "ru", "iso3": "rus", "name_en": "Russian", "name_fr": "russe", "name_cs": "ru\u0161tina", "name_ru": "\u0440\u0443\u0441\u0441\u043a\u0438\u0439"}, {"regex": "^(.*salishan.*|\\s*sal\\s*)$", "iso2": "", "iso3": "sal", "name_en": "Salishan languages", "name_fr": "salishennes, langues", "name_cs": "sali\u0161sk\u00e9 jazyky", "name_ru": "\u0441\u0430\u043b\u0438\u0448\u0441\u043a\u0438\u0435 \u044f\u0437\u044b\u043a\u0438"}, {"regex": "^(.*samaritan\\s+aramaic.*|.*aramaic,\\s+samaritan.*|\\s*sam\\s*)$", "iso2": "", "iso3": "sam", "name_en": "Samaritan Aramaic", "name_fr": "samaritain", "name_cs": "samar\u0161tina", "name_ru": "\u0441\u0430\u043c\u0430\u0440\u0438\u0442\u044f\u043d\u0441\u043a\u0438\u0439 \u0430\u0440\u0430\u043c\u0435\u0439\u0441\u043a\u0438\u0439"}, {"regex": "^(.*samoan.*|\\s*smo\\s*|\\s*sm\\s*)$", "iso2": "sm", "iso3": "smo", "name_en": "Samoan", "name_fr": "samoan", "name_cs": "samoj\u0161tina", "name_ru": "\u0441\u0430\u043c\u043e\u0430\u043d\u0441\u043a\u0438\u0439"}, {"regex": "^(.*sandawe.*|\\s*sad\\s*)$", "iso2": "", "iso3": "sad", "name_en": "Sandawe", "name_fr": "sandawe", "name_cs": "sandaw\u0161tina", "name_ru": "\u0441\u0430\u043d\u0434\u0430\u0432\u0435"}, {"regex": "^(.*sango.*|\\s*sag\\s*|\\s*sg\\s*)$", "iso2": "sg", "iso3": "sag", "name_en": "Sango", "name_fr": "sango", "name_cs": "sang\u0161tina", "name_ru": "\u0441\u0430\u043d\u0433\u043e"}, {"regex": "^(.*sanskrit.*|\\s*san\\s*|\\s*sa\\s*)$", "iso2": "sa", "iso3": "san", "name_en": "Sanskrit", "name_fr": "sanskrit", "name_cs": "sanskrt", "name_ru": "\u0441\u0430\u043d\u0441\u043a\u0440\u0438\u0442"}, {"regex": "^(.*santali.*|\\s*sat\\s*)$", "iso2": "", "iso3": "sat", "name_en": "Santali", "name_fr": "santal", "name_cs": "sant\u00e1l\u0161tina", "name_ru": "\u0441\u0430\u043d\u0442\u0430\u043b\u0438"}, {"regex": "^(.*sardinian.*|\\s*srd\\s*|\\s*sc\\s*)$", "iso2": "sc", "iso3": "srd", "name_en": "Sardinian", "name_fr": "sarde", "name_cs": "sard\u0161tina", "name_ru": "\u0441\u0430\u0440\u0434\u0438\u043d\u0441\u043a\u0438\u0439"}, {"regex": "^(.*sasak.*|\\s*sas\\s*)$", "iso2": "", "iso3": "sas", "name_en": "Sasak", "name_fr": "sasak", "name_cs": "sasak\u0161tina", "name_ru": "\u0441\u0430\u0441\u0430\u043a\u0438"}, {"regex": "^(.*scots.*|\\s*sco\\s*)$", "iso2": "", "iso3": "sco", "name_en": "Scots", "name_fr": "\u00e9cossais", "name_cs": "skot\u0161tina", "name_ru": "\u0448\u043e\u0442\u043b\u0430\u043d\u0434\u0441\u043a\u0438\u0439"}, {"regex": "^(.*selkup.*|\\s*sel\\s*)$", "iso2": "", "iso3": "sel", "name_en": "Selkup", "name_fr": "selkoupe", "name_cs": "selkup\u0161tina", "name_ru": "\u0441\u0435\u043b\u044c\u043a\u0443\u043f\u0441\u043a\u0438\u0439"}, {"regex": "^(.*semitic.*|\\s*sem\\s*)$", "iso2": "", "iso3": "sem", "name_en": "Semitic languages", "name_fr": "s\u00e9mitiques, langues", "name_cs": "semitsk\u00e9 jazyky, ostatn\u00ed", "name_ru": "\u0441\u0435\u043c\u0438\u0442\u0441\u043a\u0438\u0439 \u044f\u0437\u044b\u043a"}, {"regex": "^(.*serbian.*|\\s*srp\\s*|\\s*sr\\s*)$", "iso2": "sr", "iso3": "srp", "name_en": "Serbian", "name_fr": "serbe", "name_cs": "srb\u0161tina", "name_ru": "\u0441\u0435\u0440\u0431\u0441\u043a\u0438\u0439"}, {"regex": "^(.*serer.*|\\s*srr\\s*)$", "iso2": "", "iso3": "srr", "name_en": "Serer", "name_fr": "s\u00e9r\u00e8re", "name_cs": "serer\u0161tina", "name_ru": "\u0441\u0435\u0440\u0435\u0440"}, {"regex": "^(.*shona.*|\\s*sna\\s*|\\s*sn\\s*)$", "iso2": "sn", "iso3": "sna", "name_en": "Shona", "name_fr": "shona", "name_cs": "\u0161on\u0161tina", "name_ru": "\u0448\u043e\u043d\u0430"}, {"regex": "^(.*sichuan\\s+yi.*|.*yi,\\s+sichuan.*|.*nuosu.*|\\s*iii\\s*|\\s*ii\\s*)$", "iso2": "ii", "iso3": "iii", "name_en": "Sichuan Yi; Nuosu", "name_fr": "yi de Sichuan", "name_cs": "s\u2018\u010dchuan\u0161tina", "name_ru": "\u043d\u043e\u0441\u0443"}, {"regex": "^(.*sicilian.*|\\s*scn\\s*)$", "iso2": "", "iso3": "scn", "name_en": "Sicilian", "name_fr": "sicilien", "name_cs": "sicil\u0161tina", "name_ru": "\u0441\u0438\u0446\u0438\u043b\u0438\u0439\u0441\u043a\u0438\u0439"}, {"regex": "^(.*sidamo.*|\\s*sid\\s*)$", "iso2": "", "iso3": "sid", "name_en": "Sidamo", "name_fr": "sidamo", "name_cs": "sidamo", "name_ru": "\u0441\u0438\u0434\u0430\u043c\u0430"}, {"regex": "^(.*sign.*|\\s*sgn\\s*)$", "iso2": "", "iso3": "sgn", "name_en": "Sign Languages", "name_fr": "langues des signes", "name_cs": "znakov\u00e9 jazyky", "name_ru": "\u044f\u0437\u044b\u043a \u0433\u043b\u0443\u0445\u043e\u043d\u0435\u043c\u044b\u0445"}, {"regex": "^(.*siksika.*|\\s*bla\\s*)$", "iso2": "", "iso3": "bla", "name_en": "Siksika", "name_fr": "blackfoot", "name_cs": "siksika", "name_ru": "\u0441\u0438\u043a\u0441\u0438\u043a\u0430"}, {"regex": "^(.*sindhi.*|\\s*snd\\s*|\\s*sd\\s*)$", "iso2": "sd", "iso3": "snd", "name_en": "Sindhi", "name_fr": "sindhi", "name_cs": "sindh\u0161tina", "name_ru": "\u0441\u0438\u043d\u0434\u0445\u0438"}, {"regex": "^(.*sinhala.*|.*sinhalese.*|\\s*sin\\s*|\\s*si\\s*)$", "iso2": "si", "iso3": "sin", "name_en": "Sinhala; Sinhalese", "name_fr": "singhalais", "name_cs": "sinh\u00e1l\u0161tina", "name_ru": "\u0441\u0438\u043d\u0433\u0430\u043b\u044c\u0441\u043a\u0438\u0439"}, {"regex": "^(.*sino-*tibetan.*|\\s*sit\\s*)$", "iso2": "", "iso3": "sit", "name_en": "Sino-Tibetan languages", "name_fr": "sino-tib\u00e9taines, langues", "name_cs": "sinotibetsk\u00e9 jazyky, ostatn\u00ed", "name_ru": "\u0441\u0438\u043d\u043e\u0442\u0438\u0431\u0435\u0442\u0441\u043a\u0438\u0439 \u044f\u0437\u044b\u043a"}, {"regex": "^(.*siouan.*|\\s*sio\\s*)$", "iso2": "", "iso3": "sio", "name_en": "Siouan languages", "name_fr": "sioux, langues", "name_cs": "siouxsk\u00e9 jazyky, ostatn\u00ed", "name_ru": "\u0441\u0438\u0443 \u044f\u0437\u044b\u043a\u0438"}, {"regex": "^(.*skolt\\s+sami.*|.*sami,\\s+skolt.*|\\s*sms\\s*)$", "iso2": "", "iso3": "sms", "name_en": "Skolt Sami", "name_fr": "sami skolt", "name_cs": "s\u00e1m\u0161tina (skoltsk\u00e1)", "name_ru": "\u043a\u043e\u043b\u0442\u0442\u0430-\u0441\u0430\u0430\u043c\u0441\u043a\u0438\u0439"}, {"regex": "^(.*slave.*|\\s*den\\s*)$", "iso2": "", "iso3": "den", "name_en": "Slave (Athapascan)", "name_fr": "esclave (athapascan)", "name_cs": "slave", "name_ru": "\u0441\u043b\u044d\u0439\u0432\u0438"}, {"regex": "^(.*slovak.*|\\s*slo\\s*|\\s*slk\\s*|\\s*sk\\s*)$", "iso2": "sk", "iso3": "slk", "name_en": "Slovak", "name_fr": "slovaque", "name_cs": "sloven\u0161tina", "name_ru": "\u0441\u043b\u043e\u0432\u0430\u0446\u043a\u0438\u0439"}, {"regex": "^(.*slovenian.*|\\s*slv\\s*|\\s*sl\\s*)$", "iso2": "sl", "iso3": "slv", "name_en": "Slovenian", "name_fr": "slov\u00e8ne", "name_cs": "slovin\u0161tina", "name_ru": "\u0441\u043b\u043e\u0432\u0435\u043d\u0441\u043a\u0438\u0439"}, {"regex": "^(.*sogdian.*|\\s*sog\\s*)$", "iso2": "", "iso3": "sog", "name_en": "Sogdian", "name_fr": "sogdien", "name_cs": "sogd\u0161tina", "name_ru": "\u0441\u043e\u0433\u0434\u0438\u0439\u0441\u043a\u0438\u0439"}, {"regex": "^(.*somali.*|\\s*som\\s*|\\s*so\\s*)$", "iso2": "so", "iso3": "som", "name_en": "Somali", "name_fr": "somali", "name_cs": "som\u00e1l\u0161tina", "name_ru": "\u0441\u043e\u043c\u0430\u043b\u0438"}, {"regex": "^(.*songhai.*|\\s*son\\s*)$", "iso2": "", "iso3": "son", "name_en": "Songhai languages", "name_fr": "songhai, langues", "name_cs": "songhaj\u0161tina", "name_ru": "\u0441\u043e\u043d\u0433\u0430\u0438"}, {"regex": "^(.*soninke.*|\\s*snk\\s*)$", "iso2": "", "iso3": "snk", "name_en": "Soninke", "name_fr": "sonink\u00e9", "name_cs": "sonik\u0161tina", "name_ru": "\u0441\u043e\u043d\u0438\u043d\u043a\u0435"}, {"regex": "^(.*sotho,\\s+south[ern]*.*|.*south[ern]*\\s+sotho.*|\\s*sot\\s*|\\s*st\\s*)$", "iso2": "st", "iso3": "sot", "name_en": "Sotho, Southern", "name_fr": "sotho du Sud", "name_cs": "sot\u0161tina (ji\u017en\u00ed)", "name_ru": "\u0441\u043e\u0442\u043e \u044e\u0436\u043d\u044b\u0439"}, {"regex": "^(.*south[ern]*\\s+altai.*|.*altai,\\s+south[ern]*.*|\\s*alt\\s*)$", "iso2": "", "iso3": "alt", "name_en": "Southern Altai", "name_fr": "altai du Sud", "name_cs": "altaj\u0161tina (ji\u017en\u00ed)", "name_ru": "\u044e\u0436\u043d\u043e\u0430\u043b\u0442\u0430\u0439\u0441\u043a\u0438\u0439"}, {"regex": "^(.*south[ern]*\\s+ndebele.*|.*ndebele,\\s+south[ern]*.*|\\s*nbl\\s*|\\s*nr\\s*)$", "iso2": "nr", "iso3": "nbl", "name_en": "Ndebele, South; South Ndebele", "name_fr": "nd\u00e9b\u00e9l\u00e9 du Sud", "name_cs": "ndebel\u0161tina (Ji\u017en\u00ed Afrika)", "name_ru": "\u043d\u0434\u0435\u0431\u0435\u043b\u0435 \u044e\u0436\u043d\u044b\u0439"}, {"regex": "^(.*south[ern]*\\s+sami.*|.*sami,\\s+south[ern]*.*|\\s*sma\\s*)$", "iso2": "", "iso3": "sma", "name_en": "Southern Sami", "name_fr": "sami du Sud", "name_cs": "s\u00e1m\u0161tina (ji\u017en\u00ed)", "name_ru": "\u0441\u0430\u0430\u043c\u0441\u043a\u0438\u0439 (\u044e\u0436\u043d\u044b\u0439)"}, {"regex": "^(.*south\\s+american\\s+indian.*|\\s*sai\\s*)$", "iso2": "", "iso3": "sai", "name_en": "South American Indian languages", "name_fr": "sud-am\u00e9rindiennes, langues", "name_cs": "jihoamerick\u00e9 indi\u00e1nsk\u00e9 jazyky, ostatn\u00ed", "name_ru": "\u044f\u0437\u044b\u043a \u0438\u043d\u0434\u0435\u0439\u0446\u0435\u0432 \u042e\u0436\u043d\u043e\u0439 \u0410\u043c\u0435\u0440\u0438\u043a\u0438"}, {"regex": "^(.*spanish.*|.*castilian.*|\\s*spa\\s*|\\s*es\\s*)$", "iso2": "es", "iso3": "spa", "name_en": "Spanish; Castilian", "name_fr": "espagnol; castillan", "name_cs": "\u0161pan\u011bl\u0161tina", "name_ru": "\u0438\u0441\u043f\u0430\u043d\u0441\u043a\u0438\u0439"}, {"regex": "^(.*sranan\\s+tongo.*|.*tongo,\\s+sranan.*|\\s*srn\\s*)$", "iso2": "", "iso3": "srn", "name_en": "Sranan Tongo", "name_fr": "sranan tongo", "name_cs": "sranan tongo", "name_ru": "\u0441\u0440\u0430\u043d\u0430\u043d \u0442\u043e\u043d\u0433\u043e"}, {"regex": "^(.*standard\\s+moroccan\\s+tamazight.*|\\s*zgh\\s*)$", "iso2": "", "iso3": "zgh", "name_en": "Standard Moroccan Tamazight", "name_fr": "amazighe standard marocain", "name_cs": "standardn\u00ed marock\u00e1 berber\u0161tina (tamazight)", "name_ru": "\u0441\u0442\u0430\u043d\u0434\u0430\u0440\u0442\u043d\u044b\u0439 \u043c\u0430\u0440\u043e\u043a\u043a\u0430\u043d\u0441\u043a\u0438\u0439 \u0431\u0435\u0440\u0431\u0435\u0440\u0441\u043a\u0438\u0439 \u044f\u0437\u044b\u043a (\u0442\u0430\u043c\u0430\u0437\u0438\u0433\u0445\u0442)"}, {"regex": "^(.*sukuma.*|\\s*suk\\s*)$", "iso2": "", "iso3": "suk", "name_en": "Sukuma", "name_fr": "sukuma", "name_cs": "sukuma", "name_ru": "\u0441\u0443\u043a\u0443\u043c\u0430"}, {"regex": "^(.*sumerian.*|\\s*sux\\s*)$", "iso2": "", "iso3": "sux", "name_en": "Sumerian", "name_fr": "sum\u00e9rien", "name_cs": "sumer\u0161tina", "name_ru": "\u0448\u0443\u043c\u0435\u0440\u0441\u043a\u0438\u0439"}, {"regex": "^(.*sundanese.*|\\s*sun\\s*|\\s*su\\s*)$", "iso2": "su", "iso3": "sun", "name_en": "Sundanese", "name_fr": "soundanais", "name_cs": "sundan\u0161tina", "name_ru": "\u0441\u0443\u043d\u0434\u0430\u043d\u0441\u043a\u0438\u0439"}, {"regex": "^(.*susu.*|\\s*sus\\s*)$", "iso2": "", "iso3": "sus", "name_en": "Susu", "name_fr": "soussou", "name_cs": "susu", "name_ru": "\u0441\u0443\u0441\u0443"}, {"regex": "^(.*swahili.*|\\s*swa\\s*|\\s*sw\\s*)$", "iso2": "sw", "iso3": "swa", "name_en": "Swahili", "name_fr": "swahili", "name_cs": "svahil\u0161tina", "name_ru": "\u0441\u0443\u0430\u0445\u0438\u043b\u0438"}, {"regex": "^(.*swati.*|\\s*ssw\\s*|\\s*ss\\s*)$", "iso2": "ss", "iso3": "ssw", "name_en": "Swati", "name_fr": "swati", "name_cs": "siswat\u0161tina", "name_ru": "\u0441\u0432\u0430\u0437\u0438"}, {"regex": "^(.*swedish.*|\\s*swe\\s*|\\s*sv\\s*)$", "iso2": "sv", "iso3": "swe", "name_en": "Swedish", "name_fr": "su\u00e9dois", "name_cs": "\u0161v\u00e9d\u0161tina", "name_ru": "\u0448\u0432\u0435\u0434\u0441\u043a\u0438\u0439"}, {"regex": "^(.*swiss\\s+german.*|.*german,\\s+swiss.*|.*alemannic.*|.*alsatian.*|\\s*gsw\\s*)$", "iso2": "", "iso3": "gsw", "name_en": "Swiss German; Alemannic; Alsatian", "name_fr": "suisse al\u00e9manique; al\u00e9manique; alsacien", "name_cs": "\u0161v\u00fdcarsk\u00e1 n\u011bm\u010dina; aleman\u0161tina", "name_ru": "\u0448\u0432\u0435\u0439\u0446\u0430\u0440\u0441\u043a\u0438\u0439 \u043d\u0435\u043c\u0435\u0446\u043a\u0438\u0439"}, {"regex": "^(.*syriac.*|\\s*syr\\s*)$", "iso2": "", "iso3": "syr", "name_en": "Syriac", "name_fr": "syriaque", "name_cs": "syr\u0161tina", "name_ru": "\u0441\u0438\u0440\u0438\u0439\u0441\u043a\u0438\u0439"}, {"regex": "^(.*tagalog.*|\\s*tgl\\s*|\\s*tl\\s*)$", "iso2": "tl", "iso3": "tgl", "name_en": "Tagalog", "name_fr": "tagalog", "name_cs": "tagal\u0161tina (tagalog)", "name_ru": "\u0442\u0430\u0433\u0430\u043b\u044c\u0441\u043a\u0438\u0439"}, {"regex": "^(.*tahitian.*|\\s*tah\\s*|\\s*ty\\s*)$", "iso2": "ty", "iso3": "tah", "name_en": "Tahitian", "name_fr": "tahitien", "name_cs": "tahit\u0161tina", "name_ru": "\u0442\u0430\u0438\u0442\u044f\u043d\u0441\u043a\u0438\u0439"}, {"regex": "^(.*tai.*|\\s*tai\\s*)$", "iso2": "", "iso3": "tai", "name_en": "Tai languages", "name_fr": "tai, langues", "name_cs": "thajsk\u00e9 jazyky, ostatn\u00ed", "name_ru": "\u0442\u0430\u0439\u0441\u043a\u0438\u0439 \u044f\u0437\u044b\u043a"}, {"regex": "^(.*tajik.*|\\s*tgk\\s*|\\s*tg\\s*)$", "iso2": "tg", "iso3": "tgk", "name_en": "Tajik", "name_fr": "tadjik", "name_cs": "tad\u017ei\u010dtina", "name_ru": "\u0442\u0430\u0434\u0436\u0438\u043a\u0441\u043a\u0438\u0439"}, {"regex": "^(.*tamashek.*|\\s*tmh\\s*)$", "iso2": "", "iso3": "tmh", "name_en": "Tamashek", "name_fr": "tamacheq", "name_cs": "tama\u0161ek", "name_ru": "\u0442\u0430\u043c\u0430\u0448\u0435\u043a"}, {"regex": "^(.*tamil.*|\\s*tam\\s*|\\s*ta\\s*)$", "iso2": "ta", "iso3": "tam", "name_en": "Tamil", "name_fr": "tamoul", "name_cs": "tamil\u0161tina", "name_ru": "\u0442\u0430\u043c\u0438\u043b\u044c\u0441\u043a\u0438\u0439"}, {"regex": "^(.*tatar.*|\\s*tat\\s*|\\s*tt\\s*)$", "iso2": "tt", "iso3": "tat", "name_en": "Tatar", "name_fr": "tatar", "name_cs": "tatar\u0161tina", "name_ru": "\u0442\u0430\u0442\u0430\u0440\u0441\u043a\u0438\u0439"}, {"regex": "^(.*telugu.*|\\s*tel\\s*|\\s*te\\s*)$", "iso2": "te", "iso3": "tel", "name_en": "Telugu", "name_fr": "t\u00e9lougou", "name_cs": "telug\u0161tina", "name_ru": "\u0442\u0435\u043b\u0443\u0433\u0443"}, {"regex": "^(.*tereno.*|\\s*ter\\s*)$", "iso2": "", "iso3": "ter", "name_en": "Tereno", "name_fr": "tereno", "name_cs": "tereno", "name_ru": "\u0442\u0435\u0440\u0435\u043d\u043e"}, {"regex": "^(.*tetum.*|\\s*tet\\s*)$", "iso2": "", "iso3": "tet", "name_en": "Tetum", "name_fr": "tetum", "name_cs": "tetum\u0161tina", "name_ru": "\u0442\u0435\u0442\u0443\u043c"}, {"regex": "^(.*thai.*|\\s*tha\\s*|\\s*th\\s*)$", "iso2": "th", "iso3": "tha", "name_en": "Thai", "name_fr": "tha\u00ef", "name_cs": "thaj\u0161tina", "name_ru": "\u0442\u0430\u0439\u0441\u043a\u0438\u0439"}, {"regex": "^(.*tibetan.*|\\s*tib\\s*|\\s*bod\\s*|\\s*bo\\s*)$", "iso2": "bo", "iso3": "bod", "name_en": "Tibetan", "name_fr": "tib\u00e9tain", "name_cs": "tibet\u0161tina", "name_ru": "\u0442\u0438\u0431\u0435\u0442\u0441\u043a\u0438\u0439"}, {"regex": "^(.*tigre.*|\\s*tig\\s*)$", "iso2": "", "iso3": "tig", "name_en": "Tigre", "name_fr": "tigr\u00e9", "name_cs": "tigrej\u0161tina", "name_ru": "\u0442\u0438\u0433\u0440\u0435"}, {"regex": "^(.*tigrinya.*|\\s*tir\\s*|\\s*ti\\s*)$", "iso2": "ti", "iso3": "tir", "name_en": "Tigrinya", "name_fr": "tigrigna", "name_cs": "tigrinij\u0161tina", "name_ru": "\u0442\u0438\u0433\u0440\u0438\u043d\u044c\u044f"}, {"regex": "^(.*timne.*|\\s*tem\\s*)$", "iso2": "", "iso3": "tem", "name_en": "Timne", "name_fr": "temne", "name_cs": "temne", "name_ru": "\u0442\u0435\u043c\u043d\u0435"}, {"regex": "^(.*tiv.*|\\s*tiv\\s*)$", "iso2": "", "iso3": "tiv", "name_en": "Tiv", "name_fr": "tiv", "name_cs": "tiv\u0161tina", "name_ru": "\u0442\u0438\u0432\u0438"}, {"regex": "^(.*tlingit.*|\\s*tli\\s*)$", "iso2": "", "iso3": "tli", "name_en": "Tlingit", "name_fr": "tlingit", "name_cs": "tlingit", "name_ru": "\u0442\u043b\u0438\u043d\u0433\u0438\u0442"}, {"regex": "^(.*tok\\s+pisin.*|.*pisin,\\s+tok.*|\\s*tpi\\s*)$", "iso2": "", "iso3": "tpi", "name_en": "Tok Pisin", "name_fr": "tok pisin", "name_cs": "tok pisin", "name_ru": "\u0442\u043e\u043a-\u043f\u0438\u0441\u0438\u043d"}, {"regex": "^(.*tokelau.*|\\s*tkl\\s*)$", "iso2": "", "iso3": "tkl", "name_en": "Tokelau", "name_fr": "tokelau", "name_cs": "tokelau\u0161tina", "name_ru": "\u0442\u043e\u043a\u0435\u043b\u0430\u0439\u0441\u043a\u0438\u0439"}, {"regex": "^(.*tsimshian.*|\\s*tsi\\s*)$", "iso2": "", "iso3": "tsi", "name_en": "Tsimshian", "name_fr": "tsimshian", "name_cs": "tsim\u0161ijsk\u00e9 jazyky", "name_ru": "\u0446\u0438\u043c\u0448\u0438\u0430\u043d"}, {"regex": "^(.*tsonga.*|\\s*tso\\s*|\\s*ts\\s*)$", "iso2": "ts", "iso3": "tso", "name_en": "Tsonga", "name_fr": "tsonga", "name_cs": "tsong\u0161tina", "name_ru": "\u0442\u0441\u043e\u043d\u0433\u0430"}, {"regex": "^(.*tswana.*|\\s*tsn\\s*|\\s*tn\\s*)$", "iso2": "tn", "iso3": "tsn", "name_en": "Tswana", "name_fr": "tswana", "name_cs": "setswan\u0161tina (tswan\u0161tina)", "name_ru": "\u0442\u0441\u0432\u0430\u043d\u0430"}, {"regex": "^(.*tumbuka.*|\\s*tum\\s*)$", "iso2": "", "iso3": "tum", "name_en": "Tumbuka", "name_fr": "tumbuka", "name_cs": "tumbuk\u0161tina", "name_ru": "\u0442\u0443\u043c\u0431\u0443\u043a\u0430"}, {"regex": "^(.*tupi.*|\\s*tup\\s*)$", "iso2": "", "iso3": "tup", "name_en": "Tupi languages", "name_fr": "tupi, langues", "name_cs": "tupijsk\u00e9 jazyky", "name_ru": "\u0442\u0443\u043f\u0438"}, {"regex": "^(.*turkmen.*|\\s*tuk\\s*|\\s*tk\\s*)$", "iso2": "tk", "iso3": "tuk", "name_en": "Turkmen", "name_fr": "turkm\u00e8ne", "name_cs": "turkmen\u0161tina", "name_ru": "\u0442\u0443\u0440\u043a\u043c\u0435\u043d\u0441\u043a\u0438\u0439"}, {"regex": "^(.*tuvalu.*|\\s*tvl\\s*)$", "iso2": "", "iso3": "tvl", "name_en": "Tuvalu", "name_fr": "tuvalu", "name_cs": "tuval\u0161tina", "name_ru": "\u0442\u0443\u0432\u0430\u043b\u0443"}, {"regex": "^(.*tuvinian.*|\\s*tyv\\s*)$", "iso2": "", "iso3": "tyv", "name_en": "Tuvinian", "name_fr": "touva", "name_cs": "tuvin\u0161tina", "name_ru": "\u0442\u0443\u0432\u0438\u043d\u0441\u043a\u0438\u0439"}, {"regex": "^(.*twi.*|\\s*twi\\s*|\\s*tw\\s*)$", "iso2": "tw", "iso3": "twi", "name_en": "Twi", "name_fr": "twi", "name_cs": "twi", "name_ru": "\u0442\u0432\u0438"}, {"regex": "^(.*udmurt.*|\\s*udm\\s*)$", "iso2": "", "iso3": "udm", "name_en": "Udmurt", "name_fr": "oudmourte", "name_cs": "udmurt\u0161tina", "name_ru": "\u0443\u0434\u043c\u0443\u0440\u0442\u0441\u043a\u0438\u0439"}, {"regex": "^(.*ugaritic.*|\\s*uga\\s*)$", "iso2": "", "iso3": "uga", "name_en": "Ugaritic", "name_fr": "ougaritique", "name_cs": "ugarit\u0161tina", "name_ru": "\u0443\u0433\u0430\u0440\u0438\u0442\u0441\u043a\u0438\u0439"}, {"regex": "^(.*uighur.*|.*uyghur.*|\\s*uig\\s*|\\s*ug\\s*)$", "iso2": "ug", "iso3": "uig", "name_en": "Uighur; Uyghur", "name_fr": "ou\u00efgour", "name_cs": "ujgur\u0161tina", "name_ru": "\u0443\u0439\u0433\u0443\u0440\u0441\u043a\u0438\u0439"}, {"regex": "^(.*ukrainian.*|\\s*ukr\\s*|\\s*uk\\s*)$", "iso2": "uk", "iso3": "ukr", "name_en": "Ukrainian", "name_fr": "ukrainien", "name_cs": "ukrajin\u0161tina", "name_ru": "\u0443\u043a\u0440\u0430\u0438\u043d\u0441\u043a\u0438\u0439"}, {"regex": "^(.*umbundu.*|\\s*umb\\s*)$", "iso2": "", "iso3": "umb", "name_en": "Umbundu", "name_fr": "umbundu", "name_cs": "umbundu", "name_ru": "\u0443\u043c\u0431\u0443\u043d\u0434\u0443"}, {"regex": "^(.*uncoded.*|\\s*mis\\s*)$", "iso2": "", "iso3": "mis", "name_en": "Uncoded languages", "name_fr": "langues non cod\u00e9es", "name_cs": "r\u016fzn\u00e9 jazyky", "name_ru": "\u0441\u043c\u0435\u0448\u0430\u043d\u043d\u044b\u0435 \u044f\u0437\u044b\u043a\u0438"}, {"regex": "^(.*undetermined.*|\\s*und\\s*)$", "iso2": "", "iso3": "und", "name_en": "Undetermined", "name_fr": "ind\u00e9termin\u00e9e", "name_cs": "nezn\u00e1m\u00fd jazyk", "name_ru": "\u043d\u0435\u0438\u0437\u0432\u0435\u0441\u0442\u043d\u044b\u0439 \u044f\u0437\u044b\u043a"}, {"regex": "^(.*upper\\s+sorbian.*|.*sorbian,\\s+upper.*|\\s*hsb\\s*)$", "iso2": "", "iso3": "hsb", "name_en": "Upper Sorbian", "name_fr": "haut-sorabe", "name_cs": "hornolu\u017eick\u00e1 srb\u0161tina", "name_ru": "\u0432\u0435\u0440\u0445\u043d\u0435\u043b\u0443\u0436\u0438\u0446\u043a\u0438\u0439"}, {"regex": "^(.*urdu.*|\\s*urd\\s*|\\s*ur\\s*)$", "iso2": "ur", "iso3": "urd", "name_en": "Urdu", "name_fr": "ourdou", "name_cs": "urd\u0161tina", "name_ru": "\u0443\u0440\u0434\u0443"}, {"regex": "^(.*uzbek.*|\\s*uzb\\s*|\\s*uz\\s*)$", "iso2": "uz", "iso3": "uzb", "name_en": "Uzbek", "name_fr": "ouszbek", "name_cs": "uzbe\u010dtina", "name_ru": "\u0443\u0437\u0431\u0435\u043a\u0441\u043a\u0438\u0439"}, {"regex": "^(.*vai.*|\\s*vai\\s*)$", "iso2": "", "iso3": "vai", "name_en": "Vai", "name_fr": "va\u00ef", "name_cs": "vai", "name_ru": "\u0432\u0430\u0438"}, {"regex": "^(.*venda.*|\\s*ven\\s*|\\s*ve\\s*)$", "iso2": "ve", "iso3": "ven", "name_en": "Venda", "name_fr": "venda", "name_cs": "vend\u0161tina", "name_ru": "\u0432\u0435\u043d\u0434\u0430"}, {"regex": "^(.*vietnamese.*|\\s*vie\\s*|\\s*vi\\s*)$", "iso2": "vi", "iso3": "vie", "name_en": "Vietnamese", "name_fr": "vietnamien", "name_cs": "vietnam\u0161tina", "name_ru": "\u0432\u044c\u0435\u0442\u043d\u0430\u043c\u0441\u043a\u0438\u0439"}, {"regex": "^(.*volap\u00fck.*|\\s*vol\\s*|\\s*vo\\s*)$", "iso2": "vo", "iso3": "vol", "name_en": "Volap\u00fck", "name_fr": "volap\u00fck", "name_cs": "volap\u00fck", "name_ru": "\u0432\u043e\u043b\u0430\u043f\u044e\u043a"}, {"regex": "^(.*votic.*|\\s*vot\\s*)$", "iso2": "", "iso3": "vot", "name_en": "Votic", "name_fr": "vote", "name_cs": "votiat\u0161tina", "name_ru": "\u0432\u043e\u0434\u0441\u043a\u0438\u0439"}, {"regex": "^(.*wakashan.*|\\s*wak\\s*)$", "iso2": "", "iso3": "wak", "name_en": "Wakashan languages", "name_fr": "wakashanes, langues", "name_cs": "waka\u0161sk\u00e9 jazyky", "name_ru": "\u0432\u0430\u043a\u0430\u0448\u0441\u043a\u0438\u0435 \u044f\u0437\u044b\u043a\u0438"}, {"regex": "^(.*walloon.*|\\s*wln\\s*|\\s*wa\\s*)$", "iso2": "wa", "iso3": "wln", "name_en": "Walloon", "name_fr": "wallon", "name_cs": "valon\u0161tina", "name_ru": "\u0432\u0430\u043b\u043b\u043e\u043d\u0441\u043a\u0438\u0439"}, {"regex": "^(.*waray.*|\\s*war\\s*)$", "iso2": "", "iso3": "war", "name_en": "Waray", "name_fr": "waray", "name_cs": "waray", "name_ru": "\u0432\u0430\u0440\u0430\u0439"}, {"regex": "^(.*washo.*|\\s*was\\s*)$", "iso2": "", "iso3": "was", "name_en": "Washo", "name_fr": "washo", "name_cs": "wa\u0161tina", "name_ru": "\u0432\u0430\u0448\u043e"}, {"regex": "^(.*welsh.*|\\s*wel\\s*|\\s*cym\\s*|\\s*cy\\s*)$", "iso2": "cy", "iso3": "cym", "name_en": "Welsh", "name_fr": "gallois", "name_cs": "vel\u0161tina", "name_ru": "\u0432\u0430\u043b\u043b\u0438\u0439\u0441\u043a\u0438\u0439"}, {"regex": "^(.*west[ern]*\\s+frisian.*|.*frisian,\\s+west[ern]*.*|\\s*fry\\s*|\\s*fy\\s*)$", "iso2": "fy", "iso3": "fry", "name_en": "Western Frisian", "name_fr": "frison occidental", "name_cs": "fr\u00ed\u0161tina", "name_ru": "\u0444\u0440\u0438\u0437\u0441\u043a\u0438\u0439"}, {"regex": "^(.*wolaitta.*|.*wolaytta.*|\\s*wal\\s*)$", "iso2": "", "iso3": "wal", "name_en": "Wolaitta; Wolaytta", "name_fr": "wolaitta; wolaytta", "name_cs": "walam\u0161tina", "name_ru": "\u0432\u043e\u043b\u0430\u043c\u043e"}, {"regex": "^(.*wolof.*|\\s*wol\\s*|\\s*wo\\s*)$", "iso2": "wo", "iso3": "wol", "name_en": "Wolof", "name_fr": "wolof", "name_cs": "wolof\u0161tina", "name_ru": "\u0432\u043e\u043b\u043e\u0444"}, {"regex": "^(.*xhosa.*|\\s*xho\\s*|\\s*xh\\s*)$", "iso2": "xh", "iso3": "xho", "name_en": "Xhosa", "name_fr": "xhosa", "name_cs": "xho\u0161tina", "name_ru": "\u043a\u043e\u0441\u0430"}, {"regex": "^(.*yakut.*|\\s*sah\\s*)$", "iso2": "", "iso3": "sah", "name_en": "Yakut", "name_fr": "iakoute", "name_cs": "jakut\u0161tina", "name_ru": "\u044f\u043a\u0443\u0442\u0441\u043a\u0438\u0439"}, {"regex": "^(.*yao.*|\\s*yao\\s*)$", "iso2": "", "iso3": "yao", "name_en": "Yao", "name_fr": "yao", "name_cs": "jao\u0161tina", "name_ru": "\u044f\u043e"}, {"regex": "^(.*yapese.*|\\s*yap\\s*)$", "iso2": "", "iso3": "yap", "name_en": "Yapese", "name_fr": "yapois", "name_cs": "yapese", "name_ru": "\u044f\u043f"}, {"regex": "^(.*yiddish.*|\\s*yid\\s*|\\s*yi\\s*)$", "iso2": "yi", "iso3": "yid", "name_en": "Yiddish", "name_fr": "yiddish", "name_cs": "jidi\u0161", "name_ru": "\u0438\u0434\u0438\u0448"}, {"regex": "^(.*yoruba.*|\\s*yor\\s*|\\s*yo\\s*)$", "iso2": "yo", "iso3": "yor", "name_en": "Yoruba", "name_fr": "yoruba", "name_cs": "jorub\u0161tina", "name_ru": "\u0439\u043e\u0440\u0443\u0431\u0430"}, {"regex": "^(.*yupik.*|\\s*ypk\\s*)$", "iso2": "", "iso3": "ypk", "name_en": "Yupik languages", "name_fr": "yupik, langues", "name_cs": "yupik", "name_ru": "\u044e\u043f\u0438\u043a\u0441\u043a\u0438\u0439 \u044f\u0437\u044b\u043a"}, {"regex": "^(.*zande.*|\\s*znd\\s*)$", "iso2": "", "iso3": "znd", "name_en": "Zande languages", "name_fr": "zand\u00e9, langues", "name_cs": "zand\u0161tina", "name_ru": "\u0437\u0430\u043d\u0434\u0435"}, {"regex": "^(.*zapotec.*|\\s*zap\\s*)$", "iso2": "", "iso3": "zap", "name_en": "Zapotec", "name_fr": "zapot\u00e8que", "name_cs": "zapot\u00e9\u010dtina", "name_ru": "\u0441\u0430\u043f\u043e\u0442\u0435\u043a\u0441\u043a\u0438\u0439"}, {"regex": "^(.*zaza.*|.*dimili.*|.*dimli.*|.*kirdki.*|.*kirmanjki.*|.*zazaki.*|\\s*zza\\s*)$", "iso2": "", "iso3": "zza", "name_en": "Zaza; Dimili; Dimli; Kirdki; Kirmanjki; Zazaki", "name_fr": "zaza; dimili; dimli; kirdki; kirmanjki; zazaki", "name_cs": "zaza", "name_ru": "\u0437\u0430\u0437\u0430"}, {"regex": "^(.*zenaga.*|\\s*zen\\s*)$", "iso2": "", "iso3": "zen", "name_en": "Zenaga", "name_fr": "zenaga", "name_cs": "zenaga", "name_ru": "\u0437\u0435\u043d\u0430\u0433\u0441\u043a\u0438\u0439"}, {"regex": "^(.*zhuang.*|.*chuang.*|\\s*zha\\s*|\\s*za\\s*)$", "iso2": "za", "iso3": "zha", "name_en": "Zhuang; Chuang", "name_fr": "zhuang; chuang", "name_cs": "\u010duang\u0161tina", "name_ru": "\u0447\u0436\u0443\u0430\u043d\u0441\u043a\u0438\u0439"}, {"regex": "^(.*zulu.*|\\s*zul\\s*|\\s*zu\\s*)$", "iso2": "zu", "iso3": "zul", "name_en": "Zulu", "name_fr": "zoulou", "name_cs": "zulu\u0161tina", "name_ru": "\u0437\u0443\u043b\u0443"}, {"regex": "^(.*zuni.*|\\s*zun\\s*)$", "iso2": "", "iso3": "zun", "name_en": "Zuni", "name_fr": "zuni", "name_cs": "zunij\u0161tina", "name_ru": "\u0437\u0443\u043d\u044c\u0438"}, {"regex": "^([^b,]*dogri[^b,]*|\\s*doi\\s*)$", "iso2": "", "iso3": "doi", "name_en": "Dogri", "name_fr": "dogri", "name_cs": "dogar\u0161tina", "name_ru": "\u0434\u043e\u0433\u0440\u0438"}, {"regex": "^([^by,]*norwegian[^by,]*|\\s*nor\\s*|\\s*no\\s*)$", "iso2": "no", "iso3": "nor", "name_en": "Norwegian", "name_fr": "norv\u00e9gien", "name_cs": "nor\u0161tina", "name_ru": "\u043d\u043e\u0440\u0432\u0435\u0436\u0441\u043a\u0438\u0439"}, {"regex": "^([^c,]*maori[^c,]*|\\s*mao\\s*|\\s*mri\\s*|\\s*mi\\s*)$", "iso2": "mi", "iso3": "mri", "name_en": "Maori", "name_fr": "maori", "name_cs": "maor\u0161tina", "name_ru": "\u043c\u0430\u043e\u0440\u0438"}, {"regex": "^([^cmo,]*english[^cmo,]*|\\s*eng\\s*|\\s*en\\s*)$", "iso2": "en", "iso3": "eng", "name_en": "English", "name_fr": "anglais", "name_cs": "angli\u010dtina", "name_ru": "\u0430\u043d\u0433\u043b\u0438\u0439\u0441\u043a\u0438\u0439"}, {"regex": "^([^cmo,]*french[^cmo,]*|\\s*fre\\s*|\\s*fra\\s*|\\s*fr\\s*)$", "iso2": "fr", "iso3": "fra", "name_en": "French", "name_fr": "fran\u00e7ais", "name_cs": "francouz\u0161tina", "name_ru": "\u0444\u0440\u0430\u043d\u0446\u0443\u0437\u0441\u043a\u0438\u0439"}, {"regex": "^([^co,]*slavic[^co,]*|\\s*sla\\s*)$", "iso2": "", "iso3": "sla", "name_en": "Slavic languages", "name_fr": "slaves, langues", "name_cs": "slovansk\u00e9 jazyky, ostatn\u00ed", "name_ru": "\u0441\u043b\u0430\u0432\u044f\u043d\u0441\u043a\u0438\u0439 \u044f\u0437\u044b\u043a"}, {"regex": "^([^co,]*turkish[^co,]*|\\s*tur\\s*|\\s*tr\\s*)$", "iso2": "tr", "iso3": "tur", "name_en": "Turkish", "name_fr": "turc", "name_cs": "ture\u010dtina", "name_ru": "\u0442\u0443\u0440\u0435\u0446\u043a\u0438\u0439"}, {"regex": "^([^d,]*occitan[^d,]*|\\s*oci\\s*|\\s*oc\\s*)$", "iso2": "oc", "iso3": "oci", "name_en": "Occitan (post 1500)", "name_fr": "occitan (apr\u00e8s 1500)", "name_cs": "okcit\u00e1n\u0161tina (po 1500)", "name_ru": "\u043e\u043a\u0441\u0438\u0442\u0430\u043d\u0441\u043a\u0438\u0439 (\u043f\u043e\u0441\u043b\u0435 1500 \u0433.)"}, {"regex": "^([^fhp,]*creole[^fhp,]*[^,]*|\\s*crp\\s*)$", "iso2": "", "iso3": "crp", "name_en": "Creoles and pidgins", "name_fr": "cr\u00e9oles et pidgins", "name_cs": "kreol\u0161tina a jin\u00e9 pidginy, ostatn\u00ed", "name_ru": "\u043a\u0440\u0435\u043e\u043b\u044c\u0441\u043a\u0438\u0435 \u0438 \u043f\u0438\u0434\u0436\u0438\u043d\u044b"}, {"regex": "^([^him,]*german[^him,]*|\\s*ger\\s*|\\s*deu\\s*|\\s*de\\s*)$", "iso2": "de", "iso3": "deu", "name_en": "German", "name_fr": "allemand", "name_cs": "n\u011bm\u010dina", "name_ru": "\u043d\u0435\u043c\u0435\u0446\u043a\u0438\u0439"}, {"regex": "^([^j,]*arabic[^j,]*|\\s*ara\\s*|\\s*ar\\s*)$", "iso2": "ar", "iso3": "ara", "name_en": "Arabic", "name_fr": "arabe", "name_cs": "arab\u0161tina", "name_ru": "\u0430\u0440\u0430\u0431\u0441\u043a\u0438\u0439"}, {"regex": "^([^jo]*persian[^jo]*|\\s*per\\s*|\\s*fas\\s*|\\s*fa\\s*)$", "iso2": "fa", "iso3": "fas", "name_en": "Persian", "name_fr": "persan", "name_cs": "per\u0161tina", "name_ru": "\u043f\u0435\u0440\u0441\u0438\u0434\u0441\u043a\u0438\u0439"}, {"regex": "^([^klr,]*sami[^kr,]*|\\s*smi\\s*)$", "iso2": "", "iso3": "smi", "name_en": "Sami languages", "name_fr": "sames, langues", "name_cs": "s\u00e1msk\u00e9 jazyky", "name_ru": "\u0441\u0430\u0430\u043c\u0441\u043a\u0438\u0435 \u044f\u0437\u044b\u043a\u0438"}, {"regex": "^([^m,]*dutch[^m,]*|.*flemish.*|\\s*dut\\s*|\\s*nld\\s*|\\s*nl\\s*)$", "iso2": "nl", "iso3": "nld", "name_en": "Dutch; Flemish", "name_fr": "n\u00e9erlandais; flamand", "name_cs": "nizozem\u0161tina", "name_ru": "\u043d\u0438\u0434\u0435\u0440\u043b\u0430\u043d\u0434\u0441\u043a\u0438\u0439 (\u0433\u043e\u043b\u043b\u0430\u043d\u0434\u0441\u043a\u0438\u0439)"}, {"regex": "^([^o,]*bulgarian[^o,]*|\\s*bul\\s*|\\s*bg\\s*)$", "iso2": "bg", "iso3": "bul", "name_en": "Bulgarian", "name_fr": "bulgare", "name_cs": "bulhar\u0161tina", "name_ru": "\u0431\u043e\u043b\u0433\u0430\u0440\u0441\u043a\u0438\u0439"}, {"regex": "^([^o,]*irish[^o,]*|\\s*gle\\s*|\\s*ga\\s*)$", "iso2": "ga", "iso3": "gle", "name_en": "Irish", "name_fr": "irlandais", "name_cs": "ir\u0161tina", "name_ru": "\u0438\u0440\u043b\u0430\u043d\u0434\u0441\u043a\u0438\u0439"}, {"regex": "^([^op,]*sorbian[^op,]*|\\s*wen\\s*)$", "iso2": "", "iso3": "wen", "name_en": "Sorbian languages", "name_fr": "sorabes, langues", "name_cs": "lu\u017eickosrbsk\u00e9 jazyky", "name_ru": "\u043b\u0443\u0436\u0438\u0446\u043a\u0438\u0435 \u044f\u0437\u044b\u043a\u0438"}, {"regex": "^([^s,]*akan.*|\\s*aka\\s*|\\s*ak\\s*)$", "iso2": "ak", "iso3": "aka", "name_en": "Akan", "name_fr": "akan", "name_cs": "akan\u0161tina", "name_ru": "\u0430\u043a\u0430\u043d"}, {"regex": "^([^v,]*athapascan[^v,]*|\\s*ath\\s*)$", "iso2": "", "iso3": "ath", "name_en": "Athapascan languages", "name_fr": "athapascanes, langues", "name_cs": "athapask\u00e1nsk\u00e9 jazyky", "name_ru": "\u0430\u0442\u0430\u043f\u0430\u0447\u0441\u043a\u0438\u0435 \u044f\u0437\u044b\u043a\u0438"}, {"regex": "^([^w,]*shan[^w,]*|\\s*shn\\s*)$", "iso2": "", "iso3": "shn", "name_en": "Shan", "name_fr": "chan", "name_cs": "\u0161an\u0161tina", "name_ru": "\u0448\u0430\u043d\u0441\u043a\u0438\u0439"}, {"regex": "^([^y,]*tonga[^y,]*|[^y,]*tonga,*\\s+[^y,]*|\\s*ton\\s*|\\s*to\\s*)$", "iso2": "to", "iso3": "ton", "name_en": "Tonga (Tonga Islands)", "name_fr": "tongan (\u00celes Tonga)", "name_cs": "tong\u00e1n\u0161tina", "name_ru": "\u0442\u043e\u043d\u0433\u0430\u043d\u0441\u043a\u0438\u0439"}, {"regex": "^(\\s*romanian.*|.*moldavian.*|.*moldovan.*|\\s*rum\\s*|\\s*ron\\s*|\\s*ro\\s*)$", "iso2": "ro", "iso3": "ron", "name_en": "Romanian; Moldavian; Moldovan", "name_fr": "roumain; moldave", "name_cs": "rumun\u0161tina", "name_ru": "\u0440\u0443\u043c\u044b\u043d\u0441\u043a\u0438\u0439"}, {"metadata": {"iso3": "ISO 639-2 alpha-3 code", "name_cs": "\u010cesk\u00fd n\u00e1zev", "name_en": "English name", "name_fr": "Nom fran\u00e7ais", "name_ru": "\u041d\u0430\u0437\u0432\u0430\u043d\u0438\u0435 \u043d\u0430 \u0440\u0443\u0441\u0441\u043a\u043e\u043c \u044f\u0437\u044b\u043a\u0435"}}, {"sources": ["[https://text.nkp.cz/o-knihovne/odborne-cinnosti/zpracovani-fondu/informativni-materialy/priloha-y/](N\u00e1rodn\u00ed knihovna \u010cR - K\u00f3dy jazyk\u016f MARC)", "[https://www.garant.ru/products/ipo/prime/doc/72626396/#1000](\u0413\u0410\u0420\u0410\u041d\u0422 - \u0420\u0435\u0448\u0435\u043d\u0438\u0435 \u041a\u043e\u043b\u043b\u0435\u0433\u0438\u0438 \u0415\u0432\u0440\u0430\u0437\u0438\u0439\u0441\u043a\u043e\u0439 \u044d\u043a\u043e\u043d\u043e\u043c\u0438\u0447\u0435\u0441\u043a\u043e\u0439 \u043a\u043e\u043c\u0438\u0441\u0441\u0438\u0438 \u043e\u0442 10 \u0441\u0435\u043d\u0442\u044f\u0431\u0440\u044f 2019 \u0433. \u2116 152 \u201c\u041e \u043a\u043b\u0430\u0441\u0441\u0438\u0444\u0438\u043a\u0430\u0442\u043e\u0440\u0435 \u044f\u0437\u044b\u043a\u043e\u0432\u201d (\u043d\u0435 \u0432\u0441\u0442\u0443\u043f\u0438\u043b\u043e \u0432 \u0441\u0438\u043b\u0443))", "[https://www.unicode.org/cldr/cldr-aux/charts/23.1/summary/cs.html?hide](Unicode - Locale Data Summary for cs [Czech])", "[https://www.unicode.org/cldr/cldr-aux/charts/23.1/summary/ru.html?hide](Unicode - Locale Data Summary for ru [Russian])"]}]