[{"regex": "^(.*[dg]e.*\\s*ma.*|\\s*dem\\s*|\\s*276\\s*)$", "iso3": "DEM", "isoN": "276", "name_en": "Deutsche Mark", "name_fr": "Deutsche Mark", "name_cs": "N\u011bmeck\u00e1 marka", "name_ru": "\u041d\u0435\u043c\u0435\u0446\u043a\u0430\u044f \u043c\u0430\u0440\u043a\u0430", "minor_units": "2"}, {"regex": "^(.*[dn][eu]t\\S*\\s+gu.*|\\s*nlg\\s*|\\s*528\\s*)$", "iso3": "NLG", "isoN": "528", "name_en": "Dutch guilder", "name_fr": "Florin n\u00e9erlandais", "name_cs": "Nizozemsk\u00fd gulden", "name_ru": "\u041d\u0438\u0434\u0435\u0440\u043b\u0430\u043d\u0434\u0441\u043a\u0438\u0439 \u0433\u0443\u043b\u044c\u0434\u0435\u043d", "minor_units": "2"}, {"regex": "^(.*adb.*|\\s*xua\\s*|\\s*965\\s*)$", "iso3": "XUA", "isoN": "965", "name_en": "ADB Unit of Account", "name_fr": "Unit\u00e9 de compte de la BAD", "name_cs": "\u00da\u010detn\u00ed jednotka ADB", "name_ru": "\u0420\u0430\u0441\u0447\u0451\u0442\u043d\u0430\u044f \u0435\u0434\u0438\u043d\u0438\u0446\u0430 ADB", "minor_units": ""}, {"regex": "^(.*afg.*|\\s*afn\\s*|\\s*971\\s*)$", "iso3": "AFN", "isoN": "971", "name_en": "Afghani", "name_fr": "Afghani afghan", "name_cs": "Afgh\u00e1nsk\u00fd afgh\u00e1n", "name_ru": "\u0410\u0444\u0433\u0430\u043d\u0441\u043a\u0438\u0439 \u0430\u0444\u0433\u0430\u043d\u0438", "minor_units": "2"}, {"regex": "^(.*alg.*\\s+di.*|\\s*dzd\\s*|\\s*012\\s*)$", "iso3": "DZD", "isoN": "12", "name_en": "Algerian Dinar", "name_fr": "Dinar alg\u00e9rien", "name_cs": "Al\u017e\u00edrsk\u00fd din\u00e1r", "name_ru": "\u0410\u043b\u0436\u0438\u0440\u0441\u043a\u0438\u0439 \u0434\u0438\u043d\u0430\u0440", "minor_units": "2"}, {"regex": "^(.*arg.*\\s+pe.*|\\s*ars\\s*|\\s*032\\s*)$", "iso3": "ARS", "isoN": "32", "name_en": "Argentine Peso", "name_fr": "Peso argentin", "name_cs": "Argentinsk\u00e9 peso", "name_ru": "\u0410\u0440\u0433\u0435\u043d\u0442\u0438\u043d\u0441\u043a\u043e\u0435 \u043f\u0435\u0441\u043e", "minor_units": "2"}, {"regex": "^(.*arm.*\\s+dr.*|.*dram.*|\\s*amd\\s*|\\s*051\\s*)$", "iso3": "AMD", "isoN": "51", "name_en": "Armenian Dram", "name_fr": "Dram arm\u00e9nien", "name_cs": "Arm\u00e9nsk\u00fd dram", "name_ru": "\u0410\u0440\u043c\u044f\u043d\u0441\u043a\u0438\u0439 \u0434\u0440\u0430\u043c", "minor_units": "2"}, {"regex": "^(.*aru.*\\s+fl.*|\\s*awg\\s*|\\s*533\\s*)$", "iso3": "AWG", "isoN": "533", "name_en": "Aruban Florin", "name_fr": "Florin arubais", "name_cs": "Arubsk\u00fd zlat\u00fd", "name_ru": "\u0410\u0440\u0443\u0431\u0430\u043d\u0441\u043a\u0438\u0439 \u0444\u043b\u043e\u0440\u0438\u043d", "minor_units": "2"}, {"regex": "^(.*aus.*\\s+do.*|\\s*aud\\s*|\\s*036\\s*)$", "iso3": "AUD", "isoN": "36", "name_en": "Australian Dollar", "name_fr": "Dollar australien", "name_cs": "Australsk\u00fd dolar", "name_ru": "\u0410\u0432\u0441\u0442\u0440\u0430\u043b\u0438\u0439\u0441\u043a\u0438\u0439 \u0434\u043e\u043b\u043b\u0430\u0440", "minor_units": "2"}, {"regex": "^(.*aus.*\\s+sc.*|.*schi.+|\\s*ats\\s*|\\s*040\\s*)$", "iso3": "ATS", "isoN": "40", "name_en": "Austrian schilling", "name_fr": "Schilling autrichien", "name_cs": "Rakousk\u00fd \u0161ilink", "name_ru": "\u0410\u0432\u0441\u0442\u0440\u0438\u0439\u0441\u043a\u0438\u0439 \u0448\u0438\u043b\u043b\u0438\u043d\u0433", "minor_units": "2"}, {"regex": "^(.*aze.*\\s+ma.*|\\s*azn\\s*|\\s*944\\s*)$", "iso3": "AZN", "isoN": "944", "name_en": "Azerbaijan Manat", "name_fr": "Manat az\u00e9ri", "name_cs": "\u00c1zerb\u00e1jd\u017e\u00e1nsk\u00fd manat", "name_ru": "\u0410\u0437\u0435\u0440\u0431\u0430\u0439\u0434\u0436\u0430\u043d\u0441\u043a\u0438\u0439 \u043c\u0430\u043d\u0430\u0442", "minor_units": "2"}, {"regex": "^(.*bah.*\\s+di.*|\\s*bhd\\s*|\\s*048\\s*)$", "iso3": "BHD", "isoN": "48", "name_en": "Bahraini Dinar", "name_fr": "Dinar bahre\u00efni", "name_cs": "Bahrajnsk\u00fd din\u00e1r", "name_ru": "\u0411\u0430\u0445\u0440\u0435\u0439\u043d\u0441\u043a\u0438\u0439 \u0434\u0438\u043d\u0430\u0440", "minor_units": "3"}, {"regex": "^(.*bah.*\\s+do.*|\\s*bsd\\s*|\\s*044\\s*)$", "iso3": "BSD", "isoN": "44", "name_en": "Bahamian Dollar", "name_fr": "Dollar baham\u00e9en", "name_cs": "Bahamsk\u00fd dolar", "name_ru": "\u0411\u0430\u0433\u0430\u043c\u0441\u043a\u0438\u0439 \u0434\u043e\u043b\u043b\u0430\u0440", "minor_units": "2"}, {"regex": "^(.*bah.*|\\s*thb\\s*|\\s*764\\s*)$", "iso3": "THB", "isoN": "764", "name_en": "Baht", "name_fr": "Baht tha\u00eflandais", "name_cs": "Thajsk\u00fd baht", "name_ru": "\u0422\u0430\u0438\u043b\u0430\u043d\u0434\u0441\u043a\u0438\u0439 \u0431\u0430\u0442", "minor_units": "2"}, {"regex": "^(.*bal.*|\\s*pab\\s*|\\s*590\\s*)$", "iso3": "PAB", "isoN": "590", "name_en": "Balboa", "name_fr": "Balboa panam\u00e9en", "name_cs": "Panamsk\u00e1 balboa", "name_ru": "\u041f\u0430\u043d\u0430\u043c\u0441\u043a\u043e\u0435 \u0431\u0430\u043b\u044c\u0431\u043e\u0430", "minor_units": "2"}, {"regex": "^(.*bar.*\\s+do.*|\\s*bbd\\s*|\\s*052\\s*)$", "iso3": "BBD", "isoN": "52", "name_en": "Barbados Dollar", "name_fr": "Dollar barbadien", "name_cs": "Barbadosk\u00fd dolar", "name_ru": "\u0411\u0430\u0440\u0431\u0430\u0434\u043e\u0441\u0441\u043a\u0438\u0439 \u0434\u043e\u043b\u043b\u0430\u0440", "minor_units": "2"}, {"regex": "^(.*bel.*\\s+do.*|\\s*bzd\\s*|\\s*084\\s*)$", "iso3": "BZD", "isoN": "84", "name_en": "Belize Dollar", "name_fr": "Dollar b\u00e9liz\u00e9en", "name_cs": "Belizsk\u00fd dolar", "name_ru": "\u0411\u0435\u043b\u0438\u0437\u0441\u043a\u0438\u0439 \u0434\u043e\u043b\u043b\u0430\u0440", "minor_units": "2"}, {"regex": "^(.*bel.*\\s+fr.*|\\s*bef\\s*|\\s*056\\s*)$", "iso3": "BEF", "isoN": "56", "name_en": "Belgian franc", "name_fr": "Franc belge", "name_cs": "Belgick\u00fd frank", "name_ru": "\u0411\u0435\u043b\u044c\u0433\u0438\u0439\u0441\u043a\u0438\u0439 \u0444\u0440\u0430\u043d\u043a", "minor_units": "2"}, {"regex": "^(.*bel.*\\s+r[ou].*|\\s*byn\\s*|\\s*933\\s*)$", "iso3": "BYN", "isoN": "933", "name_en": "Belarusian Ruble", "name_fr": "Rouble bi\u00e9lorusse", "name_cs": "B\u011blorusk\u00fd rubl", "name_ru": "\u0411\u0435\u043b\u043e\u0440\u0443\u0441\u0441\u043a\u0438\u0439 \u0440\u0443\u0431\u043b\u044c", "minor_units": "2"}, {"regex": "^(.*bol.*\\s+so.*|\\s*ved\\s*|\\s*926\\s*)$", "iso3": "VED", "isoN": "926", "name_en": "Bol\u00edvar Soberano", "name_fr": "Bolivar souverain", "name_cs": "Suver\u00e9nn\u00ed bol\u00edvar", "name_ru": "\u0421\u0443\u0432\u0435\u0440\u0435\u043d\u043d\u044b\u0439 \u0431\u043e\u043b\u0438\u0432\u0430\u0440", "minor_units": "2"}, {"regex": "^(.*bol.*|\\s*bob\\s*|\\s*068\\s*)$", "iso3": "BOB", "isoN": "68", "name_en": "Boliviano", "name_fr": "Boliviano bolivien", "name_cs": "Bolivijsk\u00fd boliviano", "name_ru": "\u0411\u043e\u043b\u0438\u0432\u0438\u0439\u0441\u043a\u0438\u0439 \u0431\u043e\u043b\u0438\u0432\u0438\u0430\u043d\u043e", "minor_units": "2"}, {"regex": "^(.*bra.*\\s+re.*|[^u]*real.*|\\s*brl\\s*|\\s*986\\s*)$", "iso3": "BRL", "isoN": "986", "name_en": "Brazilian Real", "name_fr": "R\u00e9al br\u00e9silien", "name_cs": "Brazilsk\u00fd real", "name_ru": "\u0411\u0440\u0430\u0437\u0438\u043b\u044c\u0441\u043a\u0438\u0439 \u0440\u0435\u0430\u043b", "minor_units": "2"}, {"regex": "^(.*bru.*\\s+do.*|\\s*bnd\\s*|\\s*096\\s*)$", "iso3": "BND", "isoN": "96", "name_en": "Brunei Dollar", "name_fr": "Dollar brun\u00e9ien", "name_cs": "Brunejsk\u00fd dolar", "name_ru": "\u0411\u0440\u0443\u043d\u0435\u0439\u0441\u043a\u0438\u0439 \u0434\u043e\u043b\u043b\u0430\u0440", "minor_units": "2"}, {"regex": "^(.*bul.*\\s+lev.*|.*lev.*|\\s*bgn\\s*|\\s*975\\s*)$", "iso3": "BGN", "isoN": "975", "name_en": "Bulgarian Lev", "name_fr": "Nouveau lev bulgare", "name_cs": "Bulharsk\u00fd lev", "name_ru": "\u0411\u043e\u043b\u0433\u0430\u0440\u0441\u043a\u0438\u0439 \u043b\u0435\u0432", "minor_units": "2"}, {"regex": "^(.*bur.*\\s+fr.*|\\s*bif\\s*|\\s*108\\s*)$", "iso3": "BIF", "isoN": "108", "name_en": "Burundi Franc", "name_fr": "Franc burundais", "name_cs": "Burundsk\u00fd frank", "name_ru": "\u0411\u0443\u0440\u0443\u043d\u0434\u0438\u0439\u0441\u043a\u0438\u0439 \u0444\u0440\u0430\u043d\u043a", "minor_units": "0"}, {"regex": "^(.*ca[bp].*\\s*ver.*\\s+es.*|\\s*cve\\s*|\\s*132\\s*)$", "iso3": "CVE", "isoN": "132", "name_en": "Cabo Verde Escudo", "name_fr": "Escudo capverdien", "name_cs": "Kapverdsk\u00e9 escudo", "name_ru": "\u042d\u0441\u043a\u0443\u0434\u043e \u041a\u0430\u0431\u043e-\u0412\u0435\u0440\u0434\u0435", "minor_units": "2"}, {"regex": "^(.*cay.*\\s+isl.*\\s+do.*|\\s*kyd\\s*|\\s*136\\s*)$", "iso3": "KYD", "isoN": "136", "name_en": "Cayman Islands Dollar", "name_fr": "Dollar des \u00eeles Ca\u00efmanes", "name_cs": "Kajmansk\u00fd dolar", "name_ru": "\u0414\u043e\u043b\u043b\u0430\u0440 \u041a\u0430\u0439\u043c\u0430\u043d\u043e\u0432\u044b\u0445 \u043e\u0441\u0442\u0440\u043e\u0432\u043e\u0432", "minor_units": "2"}, {"regex": "^(.*cfa.*\\s+fr.*\\s+bceao.*|\\s*xof\\s*|\\s*952\\s*)$", "iso3": "XOF", "isoN": "952", "name_en": "CFA Franc BCEAO", "name_fr": "Franc CFA (BCEAO)", "name_cs": "CFA/BCEAO frank", "name_ru": "\u0424\u0440\u0430\u043d\u043a \u041a\u0424\u0410 \u0412\u0421\u0415\u0410\u041e", "minor_units": "0"}, {"regex": "^(.*cfa.*\\s+fr.*\\s+beac.*|\\s*xaf\\s*|\\s*950\\s*)$", "iso3": "XAF", "isoN": "950", "name_en": "CFA Franc BEAC", "name_fr": "Franc CFA (BEAC)", "name_cs": "CFA/BEAC frank", "name_ru": "\u0424\u0440\u0430\u043d\u043a \u041a\u0424\u0410 \u0412\u0415\u0410\u0421", "minor_units": "0"}, {"regex": "^(.*cfp.*\\s+fr.*|\\s*xpf\\s*|\\s*953\\s*)$", "iso3": "XPF", "isoN": "953", "name_en": "CFP Franc", "name_fr": "Franc CFP", "name_cs": "CFP frank", "name_ru": "\u0424\u0440\u0430\u043d\u043a \u041a\u0424\u041f", "minor_units": "0"}, {"regex": "^(.*chi.*\\s+pe.*|\\s*clp\\s*|\\s*152\\s*)$", "iso3": "CLP", "isoN": "152", "name_en": "Chilean Peso", "name_fr": "Peso chilien", "name_cs": "Chilsk\u00e9 peso", "name_ru": "\u0427\u0438\u043b\u0438\u0439\u0441\u043a\u043e\u0435 \u043f\u0435\u0441\u043e", "minor_units": "0"}, {"regex": "^(.*col.*\\s+pe.*|\\s*cop\\s*|\\s*170\\s*)$", "iso3": "COP", "isoN": "170", "name_en": "Colombian Peso", "name_fr": "Peso colombien", "name_cs": "Kolumbijsk\u00e9 peso", "name_ru": "\u041a\u043e\u043b\u0443\u043c\u0431\u0438\u0439\u0441\u043a\u043e\u0435 \u043f\u0435\u0441\u043e", "minor_units": "2"}, {"regex": "^(.*com.*\\s+fr.*|\\s*kmf\\s*|\\s*174\\s*)$", "iso3": "KMF", "isoN": "174", "name_en": "Comorian Franc", "name_fr": "Franc comorien", "name_cs": "Komorsk\u00fd frank", "name_ru": "\u0424\u0440\u0430\u043d\u043a \u041a\u043e\u043c\u043e\u0440\u0441\u043a\u0438\u0445 \u043e\u0441\u0442\u0440\u043e\u0432\u043e\u0432", "minor_units": "0"}, {"regex": "^(.*con.*\\s+fr.*|\\s*cdf\\s*|\\s*976\\s*)$", "iso3": "CDF", "isoN": "976", "name_en": "Congolese Franc", "name_fr": "Franc congolais", "name_cs": "Kon\u017esk\u00fd frank", "name_ru": "\u041a\u043e\u043d\u0433\u043e\u043b\u0435\u0437\u0441\u043a\u0438\u0439 \u0444\u0440\u0430\u043d\u043a", "minor_units": "2"}, {"regex": "^(.*con.*\\s+ma.*|\\s*bam\\s*|\\s*977\\s*)$", "iso3": "BAM", "isoN": "977", "name_en": "Convertible Mark", "name_fr": "Mark convertible bosniaque", "name_cs": "Bosensk\u00e1 konvertibiln\u00ed marka", "name_ru": "\u041a\u043e\u043d\u0432\u0435\u0440\u0442\u0438\u0440\u0443\u0435\u043c\u0430\u044f \u043c\u0430\u0440\u043a\u0430 \u0411\u043e\u0441\u043d\u0438\u0438 \u0438 \u0413\u0435\u0440\u0446\u0435\u0433\u043e\u0432\u0438\u043d\u044b", "minor_units": "2"}, {"regex": "^(.*cor.*\\s+oro.*|\\s*nio\\s*|\\s*558\\s*)$", "iso3": "NIO", "isoN": "558", "name_en": "Cordoba Oro", "name_fr": "C\u00f3rdoba oro nicaraguayen", "name_cs": "Nikaragujsk\u00e1 c\u00f3rdoba", "name_ru": "\u041d\u0438\u043a\u0430\u0440\u0430\u0433\u0443\u0430\u043d\u0441\u043a\u0430\u044f \u043a\u043e\u0440\u0434\u043e\u0431\u0430", "minor_units": "2"}, {"regex": "^(.*cos.*\\s+ric.*\\s+co.*|\\s*crc\\s*|\\s*188\\s*)$", "iso3": "CRC", "isoN": "188", "name_en": "Costa Rican Colon", "name_fr": "Col\u00f3n costaricain", "name_cs": "Kostarick\u00fd col\u00f3n", "name_ru": "\u041a\u043e\u0441\u0442\u0430\u0440\u0438\u043a\u0430\u043d\u0441\u043a\u0438\u0439 \u043a\u043e\u043b\u043e\u043d", "minor_units": "2"}, {"regex": "^(.*cub.*\\s+pe.*|\\s*cup\\s*|\\s*192\\s*)$", "iso3": "CUP", "isoN": "192", "name_en": "Cuban Peso", "name_fr": "Peso cubain", "name_cs": "Kub\u00e1nsk\u00e9 peso", "name_ru": "\u041a\u0443\u0431\u0438\u043d\u0441\u043a\u043e\u0435 \u043f\u0435\u0441\u043e", "minor_units": "2"}, {"regex": "^(.*cyp.*\\s+[lp][io].*|\\s*cyp\\s*|\\s*196\\s*)$", "iso3": "CYP", "isoN": "196", "name_en": "Cypriot pound", "name_fr": "Livre chypriote", "name_cs": "Kypersk\u00e1 libra", "name_ru": "\u041a\u0438\u043f\u0440\u0441\u043a\u0438\u0439 \u0444\u0443\u043d\u0442", "minor_units": "2"}, {"regex": "^(.*cze.*\\s+ko.*|\\s*czk\\s*|\\s*203\\s*)$", "iso3": "CZK", "isoN": "203", "name_en": "Czech Koruna", "name_fr": "Couronne tch\u00e8que", "name_cs": "\u010cesk\u00e1 koruna", "name_ru": "\u0427\u0435\u0448\u0441\u043a\u0430\u044f \u043a\u0440\u043e\u043d\u0430", "minor_units": "2"}, {"regex": "^(.*dal.*|\\s*gmd\\s*|\\s*270\\s*)$", "iso3": "GMD", "isoN": "270", "name_en": "Dalasi", "name_fr": "Dalasi gambien", "name_cs": "Gambijsk\u00fd dalasi", "name_ru": "\u0413\u0430\u043c\u0431\u0438\u0439\u0441\u043a\u0438\u0439 \u0434\u0430\u043b\u0430\u0441\u0438", "minor_units": "2"}, {"regex": "^(.*dan.*\\s+kr.*|\\s*dkk\\s*|\\s*208\\s*)$", "iso3": "DKK", "isoN": "208", "name_en": "Danish Krone", "name_fr": "Couronne danoise", "name_cs": "D\u00e1nsk\u00e1 koruna", "name_ru": "\u0414\u0430\u0442\u0441\u043a\u0430\u044f \u043a\u0440\u043e\u043d\u0430", "minor_units": "2"}, {"regex": "^(.*den.*|\\s*mkd\\s*|\\s*807\\s*)$", "iso3": "MKD", "isoN": "807", "name_en": "Denar", "name_fr": "Denar mac\u00e9donien", "name_cs": "Makedonsk\u00fd den\u00e1r", "name_ru": "\u041c\u0430\u043a\u0435\u0434\u043e\u043d\u0441\u043a\u0438\u0439 \u0434\u0438\u043d\u0430\u0440", "minor_units": "2"}, {"regex": "^(.*dji.*\\s+fr.*|\\s*djf\\s*|\\s*262\\s*)$", "iso3": "DJF", "isoN": "262", "name_en": "Djibouti Franc", "name_fr": "Franc djiboutien", "name_cs": "D\u017eibutsk\u00fd frank", "name_ru": "\u0424\u0440\u0430\u043d\u043a \u0414\u0436\u0438\u0431\u0443\u0442\u0438", "minor_units": "0"}, {"regex": "^(.*dob.*|\\s*stn\\s*|\\s*930\\s*)$", "iso3": "STN", "isoN": "930", "name_en": "Dobra", "name_fr": "Dobra", "name_cs": "Svatotom\u00e1\u0161sk\u00e1 dobra", "name_ru": "\u0414\u043e\u0431\u0440\u0430", "minor_units": "2"}, {"regex": "^(.*dom.*\\s+pe.*|\\s*dop\\s*|\\s*214\\s*)$", "iso3": "DOP", "isoN": "214", "name_en": "Dominican Peso", "name_fr": "Peso dominicain", "name_cs": "Dominik\u00e1nsk\u00e9 peso", "name_ru": "\u0414\u043e\u043c\u0438\u043d\u0438\u043a\u0430\u043d\u0441\u043a\u043e\u0435 \u043f\u0435\u0441\u043e", "minor_units": "2"}, {"regex": "^(.*don.*|\\s*vnd\\s*|\\s*704\\s*)$", "iso3": "VND", "isoN": "704", "name_en": "Dong", "name_fr": "D\u00f4ng vietnamien", "name_cs": "Vietnamsk\u00fd dong", "name_ru": "\u0412\u044c\u0435\u0442\u043d\u0430\u043c\u0441\u043a\u0438\u0439 \u0434\u043e\u043d\u0433", "minor_units": "0"}, {"regex": "^(.*eas.*\\s+car.*\\s+do.*|.*ec\\s+do.*|\\s*xcd\\s*|\\s*951\\s*)$", "iso3": "XCD", "isoN": "951", "name_en": "East Caribbean Dollar", "name_fr": "Dollar des Cara\u00efbes orientales", "name_cs": "V\u00fdchodokaribsk\u00fd dolar", "name_ru": "\u0412\u043e\u0441\u0442\u043e\u0447\u043d\u043e-\u043a\u0430\u0440\u0438\u0431\u0441\u043a\u0438\u0439 \u0434\u043e\u043b\u043b\u0430\u0440", "minor_units": "2"}, {"regex": "^(.*egy.*\\s+po.*|\\s*egp\\s*|\\s*818\\s*)$", "iso3": "EGP", "isoN": "818", "name_en": "Egyptian Pound", "name_fr": "Livre \u00e9gyptienne", "name_cs": "Egyptsk\u00e1 libra", "name_ru": "\u0415\u0433\u0438\u043f\u0435\u0442\u0441\u043a\u0438\u0439 \u0444\u0443\u043d\u0442", "minor_units": "2"}, {"regex": "^(.*el\\s+sal.*\\s+co.*|\\s*svc\\s*|\\s*222\\s*)$", "iso3": "SVC", "isoN": "222", "name_en": "El Salvador Colon", "name_fr": "Col\u00f3n salvadorien", "name_cs": "Salvadorsk\u00fd col\u00f3n", "name_ru": "\u0421\u0430\u043b\u044c\u0432\u0430\u0434\u043e\u0440\u0441\u043a\u0438\u0439 \u043a\u043e\u043b\u043e\u043d", "minor_units": "2"}, {"regex": "^(.*erm.*\\s+do.*|\\s*bmd\\s*|\\s*060\\s*)$", "iso3": "BMD", "isoN": "60", "name_en": "Bermudian Dollar", "name_fr": "Dollar bermudien", "name_cs": "Bermudsk\u00fd dolar", "name_ru": "\u0411\u0435\u0440\u043c\u0443\u0434\u0441\u043a\u0438\u0439 \u0434\u043e\u043b\u043b\u0430\u0440", "minor_units": "2"}, {"regex": "^(.*est.*\\s+kr.*|.*kroo.+|\\s*EEK\\s*|\\s*233\\s*)$", "iso3": "EEK", "isoN": "233", "name_en": "Estonian kroon", "name_fr": "Couronne estonienne", "name_cs": "Estonsk\u00e1 koruna", "name_ru": "\u042d\u0441\u0442\u043e\u043d\u0441\u043a\u0430\u044f \u043a\u0440\u043e\u043d\u0430", "minor_units": "2"}, {"regex": "^(.*eth.*\\s+bi.*|\\s*etb\\s*|\\s*230\\s*)$", "iso3": "ETB", "isoN": "230", "name_en": "Ethiopian Birr", "name_fr": "Birr \u00e9thiopien", "name_cs": "Etiopsk\u00fd birr", "name_ru": "\u042d\u0444\u0438\u043e\u043f\u0441\u043a\u0438\u0439 \u0431\u044b\u0440", "minor_units": "2"}, {"regex": "^(.*eur.*\\s+com.*\\s+un.*|.*eurco.*|\\s*xba\\s*|\\s*955\\s*)$", "iso3": "XBA", "isoN": "955", "name_en": "Bond Markets Unit European Composite Unit (EURCO)", "name_fr": "Unit\u00e9 europ\u00e9enne compos\u00e9e", "name_cs": "Evropsk\u00e1 sm\u00ed\u0161en\u00e1 jednotka", "name_ru": "\u0415\u0432\u0440\u043e\u043f\u0435\u0439\u0441\u043a\u0430\u044f \u0441\u043e\u0441\u0442\u0430\u0432\u043d\u0430\u044f \u0435\u0434\u0438\u043d\u0438\u0446\u0430", "minor_units": ""}, {"regex": "^(.*eur.*\\s+mon.*\\s+un.*|.*e\\W+m\\W+u\\W+6.*|\\s*xbb\\s*|\\s*956\\s*)$", "iso3": "XBB", "isoN": "956", "name_en": "Bond Markets Unit European Monetary Unit (E.M.U.-6)", "name_fr": "Unit\u00e9 mon\u00e9taire europ\u00e9enne", "name_cs": "Evropsk\u00e1 pen\u011b\u017en\u00ed jednotka", "name_ru": "\u0415\u0432\u0440\u043e\u043f\u0435\u0439\u0441\u043a\u0430\u044f \u0441\u043e\u0441\u0442\u0430\u0432\u043d\u0430\u044f \u0435\u0434\u0438\u043d\u0438\u0446\u0430", "minor_units": ""}, {"regex": "^(.*eur.*\\s+uni.*\\s+ac.*17.*|.*e\\W+u\\W+a\\W+17.*|\\s*xbd\\s*|\\s*958\\s*)$", "iso3": "XBD", "isoN": "958", "name_en": "Bond Markets Unit European Unit of Account 17 (E.U.A.-17)", "name_fr": "Unit\u00e9 de compte europ\u00e9enne (XBD)", "name_cs": "Evropsk\u00e1 jednotka \u00fa\u010dtu 17 (XBD)", "name_ru": "\u0440\u0430\u0441\u0447\u0435\u0442\u043d\u0430\u044f \u0435\u0434\u0438\u043d\u0438\u0446\u0430 \u0435\u0432\u0440\u043e\u043f\u0435\u0439\u0441\u043a\u043e\u0433\u043e \u0432\u0430\u043b\u044e\u0442\u043d\u043e\u0433\u043e \u0441\u043e\u0433\u043b\u0430\u0448\u0435\u043d\u0438\u044f (XBD)", "minor_units": ""}, {"regex": "^(.*eur.*\\s+uni.*\\s+ac.*9.*|.*e\\W+u\\W+a\\W+9.*|\\s*xbc\\s*|\\s*957\\s*)$", "iso3": "XBC", "isoN": "957", "name_en": "Bond Markets Unit European Unit of Account 9 (E.U.A.-9)", "name_fr": "Unit\u00e9 de compte europ\u00e9enne (XBC)", "name_cs": "Evropsk\u00e1 jednotka \u00fa\u010dtu 9 (XBC)", "name_ru": "\u0440\u0430\u0441\u0447\u0435\u0442\u043d\u0430\u044f \u0435\u0434\u0438\u043d\u0438\u0446\u0430 \u0435\u0432\u0440\u043e\u043f\u0435\u0439\u0441\u043a\u043e\u0433\u043e \u0432\u0430\u043b\u044e\u0442\u043d\u043e\u0433\u043e \u0441\u043e\u0433\u043b\u0430\u0448\u0435\u043d\u0438\u044f (XBC)", "minor_units": ""}, {"regex": "^(.*fal.*\\s+isl.*\\s+po.*|\\s*fkp\\s*|\\s*238\\s*)$", "iso3": "FKP", "isoN": "238", "name_en": "Falkland Islands Pound", "name_fr": "Livre des Falkland", "name_cs": "Falklandsk\u00e1 libra", "name_ru": "\u0424\u0443\u043d\u0442 \u0424\u043e\u043b\u043a\u043b\u0435\u043d\u0434\u0441\u043a\u0438\u0445 \u043e\u0441\u0442\u0440\u043e\u0432\u043e\u0432", "minor_units": "2"}, {"regex": "^(.*fij.*\\s+do.*|\\s*fjd\\s*|\\s*242\\s*)$", "iso3": "FJD", "isoN": "242", "name_en": "Fiji Dollar", "name_fr": "Dollar fidjien", "name_cs": "Fid\u017eijsk\u00fd dolar", "name_ru": "\u0414\u043e\u043b\u043b\u0430\u0440 \u0424\u0438\u0434\u0436\u0438", "minor_units": "2"}, {"regex": "^(.*fin.*\\s+ma.*|\\s*FIM\\s*|\\s*246\\s*)$", "iso3": "FIM", "isoN": "246", "name_en": "Finnish markka", "name_fr": "Mark finlandais", "name_cs": "Finsk\u00e1 markka", "name_ru": "\u0424\u0438\u043d\u043b\u044f\u043d\u0434\u0441\u043a\u0430\u044f \u043c\u0430\u0440\u043a\u0430", "minor_units": "2"}, {"regex": "^(.*for\\S*|\\s*huf\\s*|\\s*348\\s*)$", "iso3": "HUF", "isoN": "348", "name_en": "Forint", "name_fr": "Forint hongrois", "name_cs": "Ma\u010farsk\u00fd forint", "name_ru": "\u0412\u0435\u043d\u0433\u0435\u0440\u0441\u043a\u0438\u0439 \u0444\u043e\u0440\u0438\u043d\u0442", "minor_units": "2"}, {"regex": "^(.*fre.*\\s+fr.*|\\s*FRF\\s*|\\s*250\\s*)$", "iso3": "FRF", "isoN": "250", "name_en": "French franc", "name_fr": "Franc fran\u00e7ais", "name_cs": "Francouzsk\u00fd frank", "name_ru": "\u0424\u0440\u0430\u043d\u0446\u0443\u0437\u0441\u043a\u0438\u0439 \u0444\u0440\u0430\u043d\u043a", "minor_units": "2"}, {"regex": "^(.*gha.*\\s+ce.*|.*cedi.*|\\s*ghs\\s*|\\s*936\\s*)$", "iso3": "GHS", "isoN": "936", "name_en": "Ghana Cedi", "name_fr": "C\u00e9di ghan\u00e9en", "name_cs": "Ghansk\u00fd cedi", "name_ru": "\u0413\u0430\u043d\u0441\u043a\u0438\u0439 \u0441\u0435\u0434\u0438", "minor_units": "2"}, {"regex": "^(.*gib.*\\s+po.*|\\s*gip\\s*|\\s*292\\s*)$", "iso3": "GIP", "isoN": "292", "name_en": "Gibraltar Pound", "name_fr": "Livre de Gibraltar", "name_cs": "Gibraltarsk\u00e1 libra", "name_ru": "\u0413\u0438\u0431\u0440\u0430\u043b\u0442\u0430\u0440\u0441\u043a\u0438\u0439 \u0444\u0443\u043d\u0442", "minor_units": "2"}, {"regex": "^(.*gold.*|\\s*xau\\s*|\\s*959\\s*)$", "iso3": "XAU", "isoN": "959", "name_en": "Gold", "name_fr": "Or", "name_cs": "Zlato", "name_ru": "\u0417\u043e\u043b\u043e\u0442\u043e", "minor_units": ""}, {"regex": "^(.*gou.*|\\s*htg\\s*|\\s*332\\s*)$", "iso3": "HTG", "isoN": "332", "name_en": "Gourde", "name_fr": "Gourde ha\u00eftienne", "name_cs": "Haitsk\u00fd gourde", "name_ru": "\u0413\u0430\u0438\u0442\u044f\u043d\u0441\u043a\u0438\u0439 \u0433\u0443\u0440\u0434", "minor_units": "2"}, {"regex": "^(.*gre.*\\s+dr.*|.*drac.+|\\s*GRD\\s*|\\s*300\\s*)$", "iso3": "GRD", "isoN": "300", "name_en": "Greek drachma", "name_fr": "Drachme grecque", "name_cs": "\u0158eck\u00e1 drachma", "name_ru": "\u0413\u0440\u0435\u0447\u0435\u0441\u043a\u0430\u044f \u0434\u0440\u0430\u0445\u043c\u0430", "minor_units": "2"}, {"regex": "^(.*gua[^y]*|\\s*pyg\\s*|\\s*600\\s*)$", "iso3": "PYG", "isoN": "600", "name_en": "Guarani", "name_fr": "Guaran\u00ed paraguayen", "name_cs": "Paraguajsk\u00e9 guarani", "name_ru": "\u041f\u0430\u0440\u0430\u0433\u0432\u0430\u0439\u0441\u043a\u0438\u0439 \u0433\u0443\u0430\u0440\u0430\u043d\u0438", "minor_units": "0"}, {"regex": "^(.*gui.*\\s+fr.*|\\s*gnf\\s*|\\s*324\\s*)$", "iso3": "GNF", "isoN": "324", "name_en": "Guinean Franc", "name_fr": "Franc guin\u00e9en", "name_cs": "Guinejsk\u00fd frank", "name_ru": "\u0413\u0432\u0438\u043d\u0435\u0439\u0441\u043a\u0438\u0439 \u0444\u0440\u0430\u043d\u043a", "minor_units": "0"}, {"regex": "^(.*guy.*\\s+do.*|\\s*gyd\\s*|\\s*328\\s*)$", "iso3": "GYD", "isoN": "328", "name_en": "Guyana Dollar", "name_fr": "Dollar du Guyana", "name_cs": "Guyansk\u00fd dolar", "name_ru": "\u0413\u0430\u0439\u0430\u043d\u0441\u043a\u0438\u0439 \u0434\u043e\u043b\u043b\u0430\u0440", "minor_units": "2"}, {"regex": "^(.*hon.*\\s+kon.*\\s+do.*|\\s*hkd\\s*|\\s*344\\s*)$", "iso3": "HKD", "isoN": "344", "name_en": "Hong Kong Dollar", "name_fr": "Dollar de Hong Kong", "name_cs": "Hongkongsk\u00fd dolar", "name_ru": "\u0413\u043e\u043d\u043a\u043e\u043d\u0433\u0441\u043a\u0438\u0439 \u0434\u043e\u043b\u043b\u0430\u0440", "minor_units": "2"}, {"regex": "^(.*hry.*|\\s*uah\\s*|\\s*980\\s*)$", "iso3": "UAH", "isoN": "980", "name_en": "Hryvnia", "name_fr": "Hryvnia ukrainienne", "name_cs": "Ukrajinsk\u00e1 h\u0159ivna", "name_ru": "\u0423\u043a\u0440\u0430\u0438\u043d\u0441\u043a\u0430\u044f \u0433\u0440\u0438\u0432\u043d\u0430", "minor_units": "2"}, {"regex": "^(.*ice.*\\s+kr.*|\\s*isk\\s*|\\s*352\\s*)$", "iso3": "ISK", "isoN": "352", "name_en": "Iceland Krona", "name_fr": "Couronne islandaise", "name_cs": "Islandsk\u00e1 koruna", "name_ru": "\u0418\u0441\u043b\u0430\u043d\u0434\u0441\u043a\u0430\u044f \u043a\u0440\u043e\u043d\u0430", "minor_units": "0"}, {"regex": "^(.*ind.*\\s+ru.*|\\s*inr\\s*|\\s*356\\s*)$", "iso3": "INR", "isoN": "356", "name_en": "Indian Rupee", "name_fr": "Roupie indienne", "name_cs": "Indick\u00e1 rupie", "name_ru": "\u0418\u043d\u0434\u0438\u0439\u0441\u043a\u0430\u044f \u0440\u0443\u043f\u0438\u044f", "minor_units": "2"}, {"regex": "^(.*ira.*\\s+di.*|\\s*iqd\\s*|\\s*368\\s*)$", "iso3": "IQD", "isoN": "368", "name_en": "Iraqi Dinar", "name_fr": "Dinar irakien", "name_cs": "Ir\u00e1ck\u00fd din\u00e1r", "name_ru": "\u0418\u0440\u0430\u043a\u0441\u043a\u0438\u0439 \u0434\u0438\u043d\u0430\u0440", "minor_units": "3"}, {"regex": "^(.*ira.*\\s+ri.*|\\s*irr\\s*|\\s*364\\s*)$", "iso3": "IRR", "isoN": "364", "name_en": "Iranian Rial", "name_fr": "Rial iranien", "name_cs": "\u00cdr\u00e1nsk\u00fd rij\u00e1l", "name_ru": "\u0418\u0440\u0430\u043d\u0441\u043a\u0438\u0439 \u0440\u0438\u0430\u043b", "minor_units": "2"}, {"regex": "^(.*iri.*\\s+po.*|\\s*IEP\\s*|\\s*372\\s*)$", "iso3": "IEP", "isoN": "372", "name_en": "Irish pound", "name_fr": "Livre irlandaise", "name_cs": "Irsk\u00e1 libra", "name_ru": "\u0418\u0440\u043b\u0430\u043d\u0434\u0441\u043a\u0438\u0439 \u0444\u0443\u043d\u0442", "minor_units": "2"}, {"regex": "^(.*ita.*\\s+li.*|\\s*ITL\\s*|\\s*380\\s*)$", "iso3": "ITL", "isoN": "380", "name_en": "Italian lira", "name_fr": "Lire italienne", "name_cs": "Italsk\u00e1 lira", "name_ru": "\u0418\u0442\u0430\u043b\u044c\u044f\u043d\u0441\u043a\u0430\u044f \u043b\u0438\u0440\u0430", "minor_units": "0"}, {"regex": "^(.*jam.*\\s+do.*|\\s*jmd\\s*|\\s*388\\s*)$", "iso3": "JMD", "isoN": "388", "name_en": "Jamaican Dollar", "name_fr": "Dollar jama\u00efcain", "name_cs": "Jamajsk\u00fd dolar", "name_ru": "\u042f\u043c\u0430\u0439\u0441\u043a\u0438\u0439 \u0434\u043e\u043b\u043b\u0430\u0440", "minor_units": "2"}, {"regex": "^(.*jor.*\\s+di.*|\\s*jod\\s*|\\s*400\\s*)$", "iso3": "JOD", "isoN": "400", "name_en": "Jordanian Dinar", "name_fr": "Dinar jordanien", "name_cs": "Jord\u00e1nsk\u00fd din\u00e1r", "name_ru": "\u0418\u043e\u0440\u0434\u0430\u043d\u0441\u043a\u0438\u0439 \u0434\u0438\u043d\u0430\u0440", "minor_units": "3"}, {"regex": "^(.*ken.*\\s+sh.*|\\s*kes\\s*|\\s*404\\s*)$", "iso3": "KES", "isoN": "404", "name_en": "Kenyan Shilling", "name_fr": "Shilling k\u00e9nyan", "name_cs": "Ke\u0148sk\u00fd \u0161ilink", "name_ru": "\u041a\u0435\u043d\u0438\u0439\u0441\u043a\u0438\u0439 \u0448\u0438\u043b\u043b\u0438\u043d\u0433", "minor_units": "2"}, {"regex": "^(.*kin.*|\\s*pgk\\s*|\\s*598\\s*)$", "iso3": "PGK", "isoN": "598", "name_en": "Kina", "name_fr": "Kina papouan-n\u00e9o-guin\u00e9en", "name_cs": "Papu\u00e1nsk\u00e1 nov\u00e1 kina", "name_ru": "\u041a\u0438\u043d\u0430", "minor_units": "2"}, {"regex": "^(.*kun.*|\\s*hrk\\s*|\\s*191\\s*)$", "iso3": "HRK", "isoN": "191", "name_en": "Kuna", "name_fr": "Kuna croate", "name_cs": "Chorvatsk\u00e1 kuna", "name_ru": "\u0425\u043e\u0440\u0432\u0430\u0442\u0441\u043a\u0430\u044f \u043a\u0443\u043d\u0430", "minor_units": "2"}, {"regex": "^(.*kuw.*\\s+di.*|\\s*kwd\\s*|\\s*414\\s*)$", "iso3": "KWD", "isoN": "414", "name_en": "Kuwaiti Dinar", "name_fr": "Dinar kowe\u00eftien", "name_cs": "Kuvajtsk\u00fd din\u00e1r", "name_ru": "\u041a\u0443\u0432\u0435\u0439\u0442\u0441\u043a\u0438\u0439 \u0434\u0438\u043d\u0430\u0440", "minor_units": "3"}, {"regex": "^(.*kwa[^c]*|\\s*aoa\\s*|\\s*973\\s*)$", "iso3": "AOA", "isoN": "973", "name_en": "Kwanza", "name_fr": "Kwanza angolais", "name_cs": "Angolsk\u00e1 kwanza", "name_ru": "\u0410\u043d\u0433\u043e\u043b\u044c\u0441\u043a\u0430\u044f \u043a\u0432\u0430\u043d\u0437\u0430", "minor_units": "2"}, {"regex": "^(.*kya.*|\\s*mmk\\s*|\\s*104\\s*)$", "iso3": "MMK", "isoN": "104", "name_en": "Kyat", "name_fr": "Kyat myanmarais", "name_cs": "Myanmarsk\u00fd kyat", "name_ru": "\u041a\u044c\u044f\u0442", "minor_units": "2"}, {"regex": "^(.*lao.*\\s+kip.*|.*kip.*|\\s*lak\\s*|\\s*418\\s*)$", "iso3": "LAK", "isoN": "418", "name_en": "Lao Kip", "name_fr": "Kip loatien", "name_cs": "Laosk\u00fd kip", "name_ru": "\u041a\u0438\u043f \u041b\u041d\u0414\u0420", "minor_units": "2"}, {"regex": "^(.*lat.*\\s+la.*|.*lats.*|\\s*LVL\\s*|\\s*428\\s*)$", "iso3": "LVL", "isoN": "428", "name_en": "Latvian lats", "name_fr": "Lats letton", "name_cs": "Loty\u0161sk\u00fd lat", "name_ru": "\u041b\u0430\u0442\u0432\u0438\u0439\u0441\u043a\u0438\u0439 \u043b\u0430\u0442", "minor_units": "2"}, {"regex": "^(.*leb.*\\s+po.*|\\s*lbp\\s*|\\s*422\\s*)$", "iso3": "LBP", "isoN": "422", "name_en": "Lebanese Pound", "name_fr": "Livre libanaise", "name_cs": "Libanonsk\u00e1 libra", "name_ru": "\u041b\u0438\u0432\u0430\u043d\u0441\u043a\u0438\u0439 \u0444\u0443\u043d\u0442", "minor_units": "2"}, {"regex": "^(.*lek.*|\\s*all\\s*|\\s*008\\s*)$", "iso3": "ALL", "isoN": "8", "name_en": "Lek", "name_fr": "Lek albanais", "name_cs": "Alb\u00e1nsk\u00fd lek", "name_ru": "\u0410\u043b\u0431\u0430\u043d\u0441\u043a\u0438\u0439 \u043b\u0435\u043a", "minor_units": "2"}, {"regex": "^(.*lem.*|\\s*hnl\\s*|\\s*340\\s*)$", "iso3": "HNL", "isoN": "340", "name_en": "Lempira", "name_fr": "Lempira hondurien", "name_cs": "Hondurask\u00e1 lempira", "name_ru": "\u0413\u043e\u043d\u0434\u0443\u0440\u0430\u0441\u0441\u043a\u0430\u044f \u043b\u0435\u043c\u043f\u0438\u0440\u0430", "minor_units": "2"}, {"regex": "^(.*leo.*|\\s*sll\\s*|\\s*694\\s*)$", "iso3": "SLL", "isoN": "694", "name_en": "Leone", "name_fr": "Leone sierra-l\u00e9onais", "name_cs": "Sierro-leonsk\u00fd leone", "name_ru": "\u041b\u0435\u043e\u043d\u0435", "minor_units": "2"}, {"regex": "^(.*lib.*\\s+di.*|\\s*lyd\\s*|\\s*434\\s*)$", "iso3": "LYD", "isoN": "434", "name_en": "Libyan Dinar", "name_fr": "Dinar lybien", "name_cs": "Libyjsk\u00fd din\u00e1r", "name_ru": "\u041b\u0438\u0432\u0438\u0439\u0441\u043a\u0438\u0439 \u0434\u0438\u043d\u0430\u0440", "minor_units": "3"}, {"regex": "^(.*lib.*\\s+do.*|\\s*lrd\\s*|\\s*430\\s*)$", "iso3": "LRD", "isoN": "430", "name_en": "Liberian Dollar", "name_fr": "Dollar lib\u00e9rien", "name_cs": "Liberijsk\u00fd dolar", "name_ru": "\u041b\u0438\u0431\u0435\u0440\u0438\u0439\u0441\u043a\u0438\u0439 \u0434\u043e\u043b\u043b\u0430\u0440", "minor_units": "2"}, {"regex": "^(.*lil.*|\\s*szl\\s*|\\s*748\\s*)$", "iso3": "SZL", "isoN": "748", "name_en": "Lilangeni", "name_fr": "Lilangeni swazi", "name_cs": "Svazijsk\u00fd lilangeni", "name_ru": "\u0421\u0432\u0430\u0437\u0438\u043b\u0435\u043d\u0434\u0441\u043a\u0438\u0439 \u043b\u0438\u043b\u0430\u043d\u0433\u0435\u043d\u0438", "minor_units": "2"}, {"regex": "^(.*lit.*\\s+li.*|.*lita.+|\\s*LTL\\s*|\\s*440\\s*)$", "iso3": "LTL", "isoN": "440", "name_en": "Lithuanian litas", "name_fr": "Litas lituanien", "name_cs": "Litevsk\u00fd litas", "name_ru": "\u041b\u0438\u0442\u043e\u0432\u0441\u043a\u0438\u0439 \u043b\u0438\u0442", "minor_units": "2"}, {"regex": "^(.*lot[^y]*|\\s*lsl\\s*|\\s*426\\s*)$", "iso3": "LSL", "isoN": "426", "name_en": "Loti", "name_fr": "Loti lesothan", "name_cs": "Lesothsk\u00fd loti", "name_ru": "\u041b\u043e\u0442\u0438", "minor_units": "2"}, {"regex": "^(.*lux.*\\s+fr.*|\\s*LUF\\s*|\\s*442\\s*)$", "iso3": "LUF", "isoN": "442", "name_en": "Luxembourg franc", "name_fr": "Franc luxembourgeois", "name_cs": "Lucembursk\u00fd frank", "name_ru": "\u041b\u044e\u043a\u0441\u0435\u043c\u0431\u0443\u0440\u0433\u0441\u043a\u0438\u0439 \u0444\u0440\u0430\u043d\u043a", "minor_units": "2"}, {"regex": "^(.*mal.*\\s+ar.*|.*aria[^n]+|\\s*mga\\s*|\\s*969\\s*)$", "iso3": "MGA", "isoN": "969", "name_en": "Malagasy Ariary", "name_fr": "Ariary malgache", "name_cs": "Madagaskarsk\u00fd ariary", "name_ru": "\u041c\u0430\u043b\u0430\u0433\u0430\u0441\u0438\u0439\u0441\u043a\u0438\u0439 \u0430\u0440\u0438\u0430\u0440\u0438", "minor_units": "2"}, {"regex": "^(.*mal.*\\s+kw.*|\\s*mwk\\s*|\\s*454\\s*)$", "iso3": "MWK", "isoN": "454", "name_en": "Malawi Kwacha", "name_fr": "Kwacha malawite", "name_cs": "Malawijsk\u00e1 kwacha", "name_ru": "\u041c\u0430\u043b\u0430\u0432\u0438\u0439\u0441\u043a\u0430\u044f \u043a\u0432\u0430\u0447\u0430", "minor_units": "2"}, {"regex": "^(.*mal.*\\s+li.*|\\s*mlt\\s*|\\s*470\\s*)$", "iso3": "MTL", "isoN": "470", "name_en": "Maltese lira", "name_fr": "Lire maltaise", "name_cs": "Maltsk\u00e1 lira", "name_ru": "\u041c\u0430\u043b\u044c\u0442\u0438\u0439\u0441\u043a\u0430\u044f \u043b\u0438\u0440\u0430", "minor_units": "2"}, {"regex": "^(.*mal.*\\s+ri.*|.*ring.+|\\s*myr\\s*|\\s*458\\s*)$", "iso3": "MYR", "isoN": "458", "name_en": "Malaysian Ringgit", "name_fr": "Ringgit malais", "name_cs": "Malajsijsk\u00fd ringgit", "name_ru": "\u041c\u0430\u043b\u0430\u0439\u0437\u0438\u0439\u0441\u043a\u0438\u0439 \u0440\u0438\u043d\u0433\u0433\u0438\u0442", "minor_units": "2"}, {"regex": "^(.*mau.*\\s+ru.*|\\s*mur\\s*|\\s*480\\s*)$", "iso3": "MUR", "isoN": "480", "name_en": "Mauritius Rupee", "name_fr": "Roupie mauricienne", "name_cs": "Mauricijsk\u00e1 rupie", "name_ru": "\u041c\u0430\u0432\u0440\u0438\u043a\u0438\u0439\u0441\u043a\u0430\u044f \u0440\u0443\u043f\u0438\u044f", "minor_units": "2"}, {"regex": "^(.*mex.*\\s+pe.*|\\s*mxn\\s*|\\s*484\\s*)$", "iso3": "MXN", "isoN": "484", "name_en": "Mexican Peso", "name_fr": "Peso mexicain", "name_cs": "Mexick\u00e9 peso", "name_ru": "\u041c\u0435\u043a\u0441\u0438\u043a\u0430\u043d\u0441\u043a\u043e\u0435 \u043d\u043e\u0432\u043e\u0435 \u043f\u0435\u0441\u043e", "minor_units": "2"}, {"regex": "^(.*mex.*\\s+uni.*\\s+de\\s+inv.*|\\s*udi\\s*|\\s*mxv\\s*|\\s*979\\s*)$", "iso3": "MXV", "isoN": "979", "name_en": "Mexican Unidad de Inversion (UDI)", "name_fr": "Unit\u00e9 de conversion mexicaine (UDI)", "name_cs": "Mexican Unidad de Inversion (UDI)", "name_ru": "\u041c\u0435\u043a\u0441\u0438\u043a\u0430\u043d\u0441\u043a\u0430\u044f \u043f\u0435\u0440\u0435\u0441\u0447\u0435\u0442\u043d\u0430\u044f \u0435\u0434\u0438\u043d\u0438\u0446\u0430 (UDI)", "minor_units": "2"}, {"regex": "^(.*mol.*\\s+leu.*|\\s*mdl\\s*|\\s*498\\s*)$", "iso3": "MDL", "isoN": "498", "name_en": "Moldovan Leu", "name_fr": "Leu moldave", "name_cs": "Moldavsk\u00fd lei", "name_ru": "\u041c\u043e\u043b\u0434\u0430\u0432\u0441\u043a\u0438\u0439 \u043b\u0435\u0439", "minor_units": "2"}, {"regex": "^(.*mor.*\\s+di.*|\\s*mad\\s*|\\s*504\\s*)$", "iso3": "MAD", "isoN": "504", "name_en": "Moroccan Dirham", "name_fr": "Dirham marocain", "name_cs": "Marock\u00fd din\u00e1r", "name_ru": "\u041c\u0430\u0440\u043e\u043a\u043a\u0430\u043d\u0441\u043a\u0438\u0439 \u0434\u0438\u0440\u0445\u0430\u043c", "minor_units": "2"}, {"regex": "^(.*moz.*\\s+me.*|.*meti.+|\\s*mzn\\s*|\\s*943\\s*)$", "iso3": "MZN", "isoN": "943", "name_en": "Mozambique Metical", "name_fr": "Metical mozambicain", "name_cs": "Mozambick\u00fd metical", "name_ru": "\u041c\u043e\u0437\u0430\u043c\u0431\u0438\u043a\u0441\u043a\u0438\u0439 \u043c\u0435\u0442\u0438\u043a\u0430\u043b", "minor_units": "2"}, {"regex": "^(.*mvd.*|\\s*bov\\s*|\\s*984\\s*)$", "iso3": "BOV", "isoN": "984", "name_en": "Mvdol", "name_fr": "Mvdol bolivien", "name_cs": "Bolivijsk\u00fd mvdol", "name_ru": "\u0411\u043e\u043b\u0438\u0432\u0438\u0439\u0441\u043a\u0438\u0439 \u043c\u0432\u0434\u043e\u043b", "minor_units": "2"}, {"regex": "^(.*nai.*|\\s*ngn\\s*|\\s*566\\s*)$", "iso3": "NGN", "isoN": "566", "name_en": "Naira", "name_fr": "Naira nig\u00e9rian", "name_cs": "Nigerijsk\u00e1 naira", "name_ru": "\u041d\u0438\u0433\u0435\u0440\u0438\u0439\u0441\u043a\u0430\u044f \u043d\u0430\u0439\u0440\u0430", "minor_units": "2"}, {"regex": "^(.*nak.*|\\s*ern\\s*|\\s*232\\s*)$", "iso3": "ERN", "isoN": "232", "name_en": "Nakfa", "name_fr": "Nafka \u00e9rythr\u00e9en", "name_cs": "Eritrejsk\u00e1 nakfa", "name_ru": "\u041d\u0430\u043a\u0444\u0430", "minor_units": "2"}, {"regex": "^(.*nep.*\\s+ru.*|\\s*npr\\s*|\\s*524\\s*)$", "iso3": "NPR", "isoN": "524", "name_en": "Nepalese Rupee", "name_fr": "Roupie n\u00e9palaise", "name_cs": "Nep\u00e1lsk\u00e1 rupie", "name_ru": "\u041d\u0435\u043f\u0430\u043b\u044c\u0441\u043a\u0430\u044f \u0440\u0443\u043f\u0438\u044f", "minor_units": "2"}, {"regex": "^(.*net.*\\s+ant.*\\s+gu.*|\\s*ang\\s*|\\s*532\\s*)$", "iso3": "ANG", "isoN": "532", "name_en": "Netherlands Antillean Guilder", "name_fr": "Florin antillais", "name_cs": "Zlat\u00fd Nizozemsk\u00fdch Antil", "name_ru": "\u041d\u0438\u0434\u0435\u0440\u043b\u0430\u043d\u0434\u0441\u043a\u0438\u0439 \u0430\u043d\u0442\u0438\u043b\u044c\u0441\u043a\u0438\u0439 \u0433\u0443\u043b\u044c\u0434\u0435\u043d", "minor_units": "2"}, {"regex": "^(.*new.*\\s+zea.*\\s+do.*|\\s*nzd\\s*|\\s*554\\s*)$", "iso3": "NZD", "isoN": "554", "name_en": "New Zealand Dollar", "name_fr": "Dollar n\u00e9o-z\u00e9landais", "name_cs": "Novoz\u00e9landsk\u00fd dolar", "name_ru": "\u041d\u043e\u0432\u043e\u0437\u0435\u043b\u0430\u043d\u0434\u0441\u043a\u0438\u0439 \u0434\u043e\u043b\u043b\u0430\u0440", "minor_units": "2"}, {"regex": "^(.*ngu.*|\\s*btn\\s*|\\s*064\\s*)$", "iso3": "BTN", "isoN": "64", "name_en": "Ngultrum", "name_fr": "Ngultrum bouthanais", "name_cs": "Bh\u00fat\u00e1nsk\u00fd ngultrum", "name_ru": "\u0411\u0443\u0442\u0430\u043d\u0441\u043a\u0438\u0439 \u043d\u0433\u0443\u043b\u0442\u0440\u0443\u043c", "minor_units": "2"}, {"regex": "^(.*nor.*\\s+kor.*\\s+wo.*|\\s*kpw\\s*|\\s*408\\s*)$", "iso3": "KPW", "isoN": "408", "name_en": "North Korean Won", "name_fr": "Won nord-cor\u00e9en", "name_cs": "Severokorejsk\u00fd won", "name_ru": "\u0421\u0435\u0432\u0435\u0440\u043e-\u043a\u043e\u0440\u0435\u0439\u0441\u043a\u0430\u044f \u0432\u043e\u043d\u0430", "minor_units": "2"}, {"regex": "^(.*nor.*\\s+kr.*|\\s*nok\\s*|\\s*578\\s*)$", "iso3": "NOK", "isoN": "578", "name_en": "Norwegian Krone", "name_fr": "Couronne norv\u00e9gienne", "name_cs": "Norsk\u00e1 koruna", "name_ru": "\u041d\u043e\u0440\u0432\u0435\u0436\u0441\u043a\u0430\u044f \u043a\u0440\u043e\u043d\u0430", "minor_units": "2"}, {"regex": "^(.*oug.*|\\s*mru\\s*|\\s*929\\s*)$", "iso3": "MRU", "isoN": "929", "name_en": "Ouguiya", "name_fr": "Ouguiya", "name_cs": "Maurit\u00e1nsk\u00e1 uk\u00edj\u00e1", "name_ru": "\u0423\u0433\u0438\u044f", "minor_units": "2"}, {"regex": "^(.*pa[^t]a.*|\\s*top\\s*|\\s*776\\s*)$", "iso3": "TOP", "isoN": "776", "name_en": "Pa\u2019anga", "name_fr": "Pa\u2019anga tongan", "name_cs": "Ton\u017esk\u00e1 paanga", "name_ru": "\u041f\u0430\u0430\u043d\u0433\u0430", "minor_units": "2"}, {"regex": "^(.*pak.*\\s+ru.*|\\s*pkr\\s*|\\s*586\\s*)$", "iso3": "PKR", "isoN": "586", "name_en": "Pakistan Rupee", "name_fr": "Roupie pakistanaise", "name_cs": "P\u00e1kist\u00e1nsk\u00e1 rupie", "name_ru": "\u041f\u0430\u043a\u0438\u0441\u0442\u0430\u043d\u0441\u043a\u0430\u044f \u0440\u0443\u043f\u0438\u044f", "minor_units": "2"}, {"regex": "^(.*palladium.*|\\s*xpd\\s*|\\s*964\\s*)$", "iso3": "XPD", "isoN": "964", "name_en": "Palladium", "name_fr": "Palladium", "name_cs": "Paladium", "name_ru": "\u041f\u0430\u043b\u043b\u0430\u0434\u0438\u0439", "minor_units": ""}, {"regex": "^(.*pat.*|\\s*mop\\s*|\\s*446\\s*)$", "iso3": "MOP", "isoN": "446", "name_en": "Pataca", "name_fr": "Pataca macanaise", "name_cs": "Macajsk\u00e1 pataca", "name_ru": "\u041f\u0430\u0442\u0430\u043a\u0430 \u041c\u0430\u043a\u0430\u043e", "minor_units": "2"}, {"regex": "^(.*pes.*\\s+co.*|\\s*cuc\\s*|\\s*931\\s*)$", "iso3": "CUC", "isoN": "931", "name_en": "Peso Convertible", "name_fr": "Peso cubain convertible", "name_cs": "Kub\u00e1nsk\u00e9 konvertibiln\u00ed peso", "name_ru": "\u041a\u0443\u0431\u0438\u043d\u0441\u043a\u043e\u0435 \u043a\u043e\u043d\u0432\u0435\u0440\u0442\u0438\u0440\u0443\u0435\u043c\u043e\u0435 \u043f\u0435\u0441\u043e", "minor_units": "2"}, {"regex": "^(.*pes.*\\s+ur.*|.*ur.*\\s+pes[^u]*|\\s*uyu\\s*|\\s*858\\s*)$", "iso3": "UYU", "isoN": "858", "name_en": "Peso Uruguayo", "name_fr": "Peso uruguayen", "name_cs": "Uruguaysk\u00e9 peso", "name_ru": "\u0423\u0440\u0443\u0433\u0432\u0430\u0439\u0441\u043a\u043e\u0435 \u043f\u0435\u0441\u043e", "minor_units": "2"}, {"regex": "^(.*phi.*\\s+pe.*|\\s*php\\s*|\\s*608\\s*)$", "iso3": "PHP", "isoN": "608", "name_en": "Philippine Peso", "name_fr": "Peso philippin", "name_cs": "Filip\u00ednsk\u00e9 peso", "name_ru": "\u0424\u0438\u043b\u0438\u043f\u043f\u0438\u043d\u0441\u043a\u043e\u0435 \u043f\u0435\u0441\u043e", "minor_units": "2"}, {"regex": "^(.*platinum.*|\\s*xpt\\s*|\\s*962\\s*)$", "iso3": "XPT", "isoN": "962", "name_en": "Platinum", "name_fr": "Platine", "name_cs": "Platina", "name_ru": "\u041f\u043b\u0430\u0442\u0438\u043d\u0430", "minor_units": ""}, {"regex": "^(.*por.*\\s+es.*|\\s*PTE\\s*|\\s*620\\s*)$", "iso3": "PTE", "isoN": "620", "name_en": "Portuguese escudo", "name_fr": "Escudo portugais", "name_cs": "Portugalsk\u00e9 escudo", "name_ru": "\u041f\u043e\u0440\u0442\u0443\u0433\u0430\u043b\u044c\u0441\u043a\u0438\u0439 \u044d\u0441\u043a\u0443\u0434\u043e", "minor_units": "0"}, {"regex": "^(.*pou.*\\s+st.*|\\s*gbp\\s*|\\s*826\\s*)$", "iso3": "GBP", "isoN": "826", "name_en": "Pound Sterling", "name_fr": "Livre sterling", "name_cs": "Britsk\u00e1 libra", "name_ru": "\u0410\u043d\u0433\u043b\u0438\u0439\u0441\u043a\u0438\u0439 \u0444\u0443\u043d\u0442 \u0441\u0442\u0435\u0440\u043b\u0438\u043d\u0433\u043e\u0432", "minor_units": "2"}, {"regex": "^(.*pul.*|\\s*bwp\\s*|\\s*072\\s*)$", "iso3": "BWP", "isoN": "72", "name_en": "Pula", "name_fr": "Pula botswanais", "name_cs": "Botswansk\u00e1 pula", "name_ru": "\u0411\u043e\u0442\u0441\u0432\u0430\u043d\u0441\u043a\u0430\u044f \u043f\u0443\u043b\u0430", "minor_units": "2"}, {"regex": "^(.*qat.*\\s+ri.*|\\s*qar\\s*|\\s*634\\s*)$", "iso3": "QAR", "isoN": "634", "name_en": "Qatari Rial", "name_fr": "Rial qatari", "name_cs": "Katarsk\u00fd rij\u00e1l", "name_ru": "\u041a\u0430\u0442\u0430\u0440\u0441\u043a\u0438\u0439 \u0440\u0438\u0430\u043b", "minor_units": "2"}, {"regex": "^(.*que.*|\\s*gtq\\s*|\\s*320\\s*)$", "iso3": "GTQ", "isoN": "320", "name_en": "Quetzal", "name_fr": "Quetzal guat\u00e9malt\u00e8que", "name_cs": "Guatemalsk\u00fd quetzal", "name_ru": "\u0413\u0432\u0430\u0442\u0435\u043c\u0430\u043b\u044c\u0441\u043a\u0438\u0439 \u043a\u0435\u0442\u0441\u0430\u043b\u044c", "minor_units": "2"}, {"regex": "^(.*ran[^c]*|\\s*zar\\s*|\\s*710\\s*)$", "iso3": "ZAR", "isoN": "710", "name_en": "Rand", "name_fr": "Rand sud-africain", "name_cs": "Jihoafrick\u00fd rand", "name_ru": "\u042e\u0436\u043d\u043e\u0430\u0444\u0440\u0438\u043a\u0430\u043d\u0441\u043a\u0438\u0439 \u0440\u044d\u043d\u0434", "minor_units": "2"}, {"regex": "^(.*ria.*\\s+om.*|\\s*omr\\s*|\\s*512\\s*)$", "iso3": "OMR", "isoN": "512", "name_en": "Rial Omani", "name_fr": "Rial omanais", "name_cs": "Om\u00e1nsk\u00fd rij\u00e1l", "name_ru": "\u041e\u043c\u0430\u043d\u0441\u043a\u0438\u0439 \u0440\u0438\u0430\u043b", "minor_units": "3"}, {"regex": "^(.*rie.*|\\s*khr\\s*|\\s*116\\s*)$", "iso3": "KHR", "isoN": "116", "name_en": "Riel", "name_fr": "Riel cambodgien", "name_cs": "Kambod\u017esk\u00fd riel", "name_ru": "\u041a\u0430\u043c\u0431\u043e\u0434\u0436\u0438\u0439\u0441\u043a\u0438\u0439 \u0440\u0438\u0435\u043b\u044c", "minor_units": "2"}, {"regex": "^(.*rom.*\\s+leu.*|\\s*ron\\s*|\\s*946\\s*)$", "iso3": "RON", "isoN": "946", "name_en": "Romanian Leu", "name_fr": "Leu roumain", "name_cs": "Rumunsk\u00e9 leu", "name_ru": "\u0420\u0443\u043c\u044b\u043d\u0441\u043a\u0438\u0439 \u043b\u0435\u0439", "minor_units": "2"}, {"regex": "^(.*ruf.*|\\s*mvr\\s*|\\s*462\\s*)$", "iso3": "MVR", "isoN": "462", "name_en": "Rufiyaa", "name_fr": "Rufiyaa maldivien", "name_cs": "Maledivsk\u00e1 rupie", "name_ru": "\u041c\u0430\u043b\u044c\u0434\u0438\u0432\u0441\u043a\u0430\u044f \u0440\u0443\u0444\u0438\u044f", "minor_units": "2"}, {"regex": "^(.*rus.*\\s+ru.*|\\s*rub\\s*|\\s*643\\s*)$", "iso3": "RUB", "isoN": "643", "name_en": "Russian Ruble", "name_fr": "Rouble russe", "name_cs": "Rusk\u00fd rubl", "name_ru": "\u0420\u043e\u0441\u0441\u0438\u0439\u0441\u043a\u0438\u0439 \u0440\u0443\u0431\u043b\u044c", "minor_units": "2"}, {"regex": "^(.*rwa.*\\s+fr.*|\\s*rwf\\s*|\\s*646\\s*)$", "iso3": "RWF", "isoN": "646", "name_en": "Rwanda Franc", "name_fr": "Franc rwandais", "name_cs": "Rwandsk\u00fd frank", "name_ru": "\u0424\u0440\u0430\u043d\u043a \u0420\u0443\u0430\u043d\u0434\u044b", "minor_units": "0"}, {"regex": "^(.*sai.*\\s+hel.*\\s+po.*|\\s*shp\\s*|\\s*654\\s*)$", "iso3": "SHP", "isoN": "654", "name_en": "Saint Helena Pound", "name_fr": "Livre de Sainte-H\u00e9l\u00e8ne", "name_cs": "Svatohelensk\u00e1 libra", "name_ru": "\u0424\u0443\u043d\u0442 \u043e\u0441\u0442\u0440\u043e\u0432\u0430 \u0421\u0432\u044f\u0442\u043e\u0439 \u0415\u043b\u0435\u043d\u044b", "minor_units": "2"}, {"regex": "^(.*sau.*\\s+ri.*|\\s*sar\\s*|\\s*682\\s*)$", "iso3": "SAR", "isoN": "682", "name_en": "Saudi Riyal", "name_fr": "Rial saoudien", "name_cs": "Sa\u00fadsk\u00fd rij\u00e1l", "name_ru": "\u0421\u0430\u0443\u0434\u043e\u0432\u0441\u043a\u0438\u0439 \u0440\u0438\u0430\u043b", "minor_units": "2"}, {"regex": "^(.*ser.*\\s+di.*|\\s*rsd\\s*|\\s*941\\s*)$", "iso3": "RSD", "isoN": "941", "name_en": "Serbian Dinar", "name_fr": "Dinar serbe", "name_cs": "Srbsk\u00fd din\u00e1r", "name_ru": "\u0421\u0435\u0440\u0431\u0441\u043a\u0438\u0439 \u0434\u0438\u043d\u0430\u0440", "minor_units": "2"}, {"regex": "^(.*sey.*\\s+ru.*|\\s*scr\\s*|\\s*690\\s*)$", "iso3": "SCR", "isoN": "690", "name_en": "Seychelles Rupee", "name_fr": "Roupie des Seychelles", "name_cs": "Seychelsk\u00e1 rupie", "name_ru": "\u0421\u0435\u0439\u0448\u0435\u043b\u044c\u0441\u043a\u0430\u044f \u0440\u0443\u043f\u0438\u044f", "minor_units": "2"}, {"regex": "^(.*she.*|\\s*ils\\s*|\\s*376\\s*)$", "iso3": "ILS", "isoN": "376", "name_en": "New Israeli Sheqel", "name_fr": "Nouveau shekel isra\u00e9lien", "name_cs": "Izraelsk\u00fd nov\u00fd \u0161ekel", "name_ru": "\u041d\u043e\u0432\u044b\u0439 \u0438\u0437\u0440\u0430\u0438\u043b\u044c\u0441\u043a\u0438\u0439 \u0448\u0435\u043a\u0435\u043b\u044c", "minor_units": "2"}, {"regex": "^(.*silver.*|\\s*xag\\s*|\\s*961\\s*)$", "iso3": "XAG", "isoN": "961", "name_en": "Silver", "name_fr": "Argent", "name_cs": "St\u0159\u00edbro", "name_ru": "\u0421\u0435\u0440\u0435\u0431\u0440\u043e", "minor_units": ""}, {"regex": "^(.*sin.*\\s+do.*|\\s*sgd\\s*|\\s*702\\s*)$", "iso3": "SGD", "isoN": "702", "name_en": "Singapore Dollar", "name_fr": "Dollar de Singapour", "name_cs": "Singapursk\u00fd dolar", "name_ru": "\u0421\u0438\u043d\u0433\u0430\u043f\u0443\u0440\u0441\u043a\u0438\u0439 \u0434\u043e\u043b\u043b\u0430\u0440", "minor_units": "2"}, {"regex": "^(.*slo.*\\s+ko.*|\\s*SKK\\s*|\\s*703\\s*)$", "iso3": "SKK", "isoN": "703", "name_en": "Slovak koruna", "name_fr": "Couronne slovaque", "name_cs": "Slovensk\u00e1 koruna", "name_ru": "\u0421\u043b\u043e\u0432\u0430\u0446\u043a\u0430\u044f \u043a\u0440\u043e\u043d\u0430", "minor_units": "2"}, {"regex": "^(.*slo.*\\s+to.*|.*tola.+|\\s*SIT\\s*|\\s*705\\s*)$", "iso3": "SIT", "isoN": "705", "name_en": "Slovenian tolar", "name_fr": "Tolar slov\u00e8ne", "name_cs": "Slovinsk\u00fd tolar", "name_ru": "\u0421\u043b\u043e\u0432\u0435\u043d\u0441\u043a\u0438\u0439 \u0442\u043e\u043b\u0430\u0440", "minor_units": "2"}, {"regex": "^(.*sol.*\\s+isl.*\\s+do.*|\\s*sbd\\s*|\\s*090\\s*)$", "iso3": "SBD", "isoN": "90", "name_en": "Solomon Islands Dollar", "name_fr": "Dollar des \u00eeles Salomon", "name_cs": "\u0160alamounsk\u00fd dolar", "name_ru": "\u0414\u043e\u043b\u043b\u0430\u0440 \u0421\u043e\u043b\u043e\u043c\u043e\u043d\u043e\u0432\u044b\u0445 \u043e\u0441\u0442\u0440\u043e\u0432\u043e\u0432", "minor_units": "2"}, {"regex": "^(.*sol.*|\\s*pen\\s*|\\s*604\\s*)$", "iso3": "PEN", "isoN": "604", "name_en": "Sol", "name_fr": "Nouveau sol p\u00e9ruvien", "name_cs": "Peru\u00e1nsk\u00fd nov\u00fd sol", "name_ru": "\u041f\u0435\u0440\u0443\u0430\u043d\u0441\u043a\u0438\u0439 \u043d\u043e\u0432\u044b\u0439 \u0441\u043e\u043b\u044c", "minor_units": "2"}, {"regex": "^(.*som.*\\s+sh.*|\\s*sos\\s*|\\s*706\\s*)$", "iso3": "SOS", "isoN": "706", "name_en": "Somali Shilling", "name_fr": "Shilling somalien", "name_cs": "Som\u00e1lsk\u00fd \u0161ilink", "name_ru": "\u0421\u043e\u043c\u0430\u043b\u0438\u0439\u0441\u043a\u0438\u0439 \u0448\u0438\u043b\u043b\u0438\u043d\u0433", "minor_units": "2"}, {"regex": "^(.*som\\W*|\\s*kgs\\s*|\\s*417\\s*)$", "iso3": "KGS", "isoN": "417", "name_en": "Som", "name_fr": "Som kirghize", "name_cs": "Kyrgyzsk\u00fd som", "name_ru": "\u041a\u0438\u0440\u0433\u0438\u0437\u0441\u043a\u0438\u0439 \u0441\u043e\u043c", "minor_units": "2"}, {"regex": "^(.*sou.*\\s+sud.*\\s+po.*|\\s*ssp\\s*|\\s*728\\s*)$", "iso3": "SSP", "isoN": "728", "name_en": "South Sudanese Pound", "name_fr": "Livre sud-soudanaise", "name_cs": "Jihos\u00fad\u00e1nsk\u00e1 libra", "name_ru": "\u042e\u0436\u043d\u043e\u0441\u0443\u0434\u0430\u043d\u0441\u043a\u0438\u0439 \u0444\u0443\u043d\u0442", "minor_units": "2"}, {"regex": "^(.*spa.*\\s+pe.*|.*pese.+|\\s*ESP\\s*|\\s*724\\s*)$", "iso3": "ESP", "isoN": "724", "name_en": "Spanish peseta", "name_fr": "Peseta espagnole", "name_cs": "\u0160pan\u011blsk\u00e1 peseta", "name_ru": "\u0418\u0441\u043f\u0430\u043d\u0441\u043a\u0430\u044f \u043f\u0435\u0441\u0435\u0442\u0430", "minor_units": "0"}, {"regex": "^(.*spe.*\\s+dra.*\\s+ri.*|\\s*xdr\\s*|\\s*960\\s*)$", "iso3": "XDR", "isoN": "960", "name_en": "SDR (Special Drawing Right)", "name_fr": "Droit de tirage sp\u00e9cial", "name_cs": "SDR", "name_ru": "\u0421\u0414\u0420 (\u0441\u043f\u0435\u0446\u0438\u0430\u043b\u044c\u043d\u044b\u0435 \u043f\u0440\u0430\u0432\u0430 \u0437\u0430\u0438\u043c\u0441\u0442\u0432\u043e\u0432\u0430\u043d\u0438\u044f)", "minor_units": ""}, {"regex": "^(.*sri.*\\s+lan.*\\s+ru.*|\\s*lkr\\s*|\\s*144\\s*)$", "iso3": "LKR", "isoN": "144", "name_en": "Sri Lanka Rupee", "name_fr": "Roupie srilankaise", "name_cs": "Sr\u00edlansk\u00e1 rupie", "name_ru": "\u0428\u0440\u0438-\u041b\u0430\u043d\u043a\u0438\u0439\u0441\u043a\u0430\u044f \u0440\u0443\u043f\u0438\u044f", "minor_units": "2"}, {"regex": "^(.*suc.*|\\s*xsu\\s*|\\s*994\\s*)$", "iso3": "XSU", "isoN": "994", "name_en": "Sucre", "name_fr": "Sucre", "name_cs": "Sucre", "name_ru": "\u0421\u0443\u043a\u0440\u0435", "minor_units": ""}, {"regex": "^(.*sud.*\\s+po.*|\\s*sdg\\s*|\\s*938\\s*)$", "iso3": "SDG", "isoN": "938", "name_en": "Sudanese Pound", "name_fr": "Livre soudanaise", "name_cs": "S\u00fad\u00e1nsk\u00e1 libra", "name_ru": "\u0421\u0443\u0434\u0430\u043d\u0441\u043a\u0438\u0439 \u0444\u0443\u043d\u0442", "minor_units": "2"}, {"regex": "^(.*sur.*\\s+do.*|\\s*srd\\s*|\\s*968\\s*)$", "iso3": "SRD", "isoN": "968", "name_en": "Surinam Dollar", "name_fr": "Dollar surinamais", "name_cs": "Surinamsk\u00fd dolar", "name_ru": "\u0421\u0443\u0440\u0438\u043d\u0430\u043c\u0441\u043a\u0438\u0439 \u0434\u043e\u043b\u043b\u0430\u0440", "minor_units": "2"}, {"regex": "^(.*swe.*\\s+kr.*|\\s*sek\\s*|\\s*752\\s*)$", "iso3": "SEK", "isoN": "752", "name_en": "Swedish Krona", "name_fr": "Couronne su\u00e9doise", "name_cs": "\u0160v\u00e9dsk\u00e1 koruna", "name_ru": "\u0428\u0432\u0435\u0434\u0441\u043a\u0430\u044f \u043a\u0440\u043e\u043d\u0430", "minor_units": "2"}, {"regex": "^(.*swi.*\\s+fr.*|\\s*chf\\s*|\\s*756\\s*)$", "iso3": "CHF", "isoN": "756", "name_en": "Swiss Franc", "name_fr": "Franc suisse", "name_cs": "\u0160v\u00fdcarsk\u00fd frank", "name_ru": "\u0428\u0432\u0435\u0439\u0446\u0430\u0440\u0441\u043a\u0438\u0439 \u0444\u0440\u0430\u043d\u043a", "minor_units": "2"}, {"regex": "^(.*syr.*\\s+po.*|\\s*syp\\s*|\\s*760\\s*)$", "iso3": "SYP", "isoN": "760", "name_en": "Syrian Pound", "name_fr": "Livre syrienne", "name_cs": "Syrsk\u00e1 libra", "name_ru": "\u0421\u0438\u0440\u0438\u0439\u0441\u043a\u0438\u0439 \u0444\u0443\u043d\u0442", "minor_units": "2"}, {"regex": "^(.*t[ou]g.*|\\s*mnt\\s*|\\s*496\\s*)$", "iso3": "MNT", "isoN": "496", "name_en": "Tugrik", "name_fr": "Tugrik mongol", "name_cs": "Mongolsk\u00fd tugrik", "name_ru": "\u041c\u043e\u043d\u0433\u043e\u043b\u044c\u0441\u043a\u0438\u0439 \u0442\u0443\u0433\u0440\u0438\u043a", "minor_units": "2"}, {"regex": "^(.*tai.*\\s+do.*|\\s*twd\\s*|\\s*901\\s*)$", "iso3": "TWD", "isoN": "901", "name_en": "New Taiwan Dollar", "name_fr": "Nouveau dollar ta\u00efwanais", "name_cs": "Tchajwansk\u00fd nov\u00fd dolar", "name_ru": "\u041d\u043e\u0432\u044b\u0439 \u0442\u0430\u0439\u0432\u0430\u043d\u044c\u0441\u043a\u0438\u0439 \u0434\u043e\u043b\u043b\u0430\u0440", "minor_units": "2"}, {"regex": "^(.*tak.*|\\s*bdt\\s*|\\s*050\\s*)$", "iso3": "BDT", "isoN": "50", "name_en": "Taka", "name_fr": "Taka bangladeshi", "name_cs": "Banglad\u00e9\u0161sk\u00e1 taka", "name_ru": "\u0411\u0430\u043d\u0433\u043b\u0430\u0434\u0435\u0448\u0441\u043a\u0430\u044f \u0442\u0430\u043a\u0430", "minor_units": "2"}, {"regex": "^(.*tal.*|\\s*wst\\s*|\\s*882\\s*)$", "iso3": "WST", "isoN": "882", "name_en": "Tala", "name_fr": "Tala samoan", "name_cs": "Samojsk\u00e1 tala", "name_ru": "\u0422\u0430\u043b\u0430 \u0421\u0430\u043c\u043e\u0430", "minor_units": "2"}, {"regex": "^(.*tan.*\\s+sh.*|\\s*tzs\\s*|\\s*834\\s*)$", "iso3": "TZS", "isoN": "834", "name_en": "Tanzanian Shilling", "name_fr": "Shilling tanzanien", "name_cs": "Tanzansk\u00fd \u0161ilink", "name_ru": "\u0422\u0430\u043d\u0437\u0430\u043d\u0438\u0439\u0441\u043a\u0438\u0439 \u0448\u0438\u043b\u043b\u0438\u043d\u0433", "minor_units": "2"}, {"regex": "^(.*ten.*|\\s*kzt\\s*|\\s*398\\s*)$", "iso3": "KZT", "isoN": "398", "name_en": "Tenge", "name_fr": "Tenge kazakh", "name_cs": "Kaza\u0161sk\u00e9 tenge", "name_ru": "\u041a\u0430\u0437\u0430\u0445\u0441\u043a\u0438\u0439 \u0442\u0435\u043d\u0433\u0435", "minor_units": "2"}, {"regex": "^(.*test.*|\\s*xts\\s*|\\s*963\\s*)$", "iso3": "XTS", "isoN": "963", "name_en": "Codes specifically reserved for testing purposes", "name_fr": "(devise de test)", "name_cs": "K\u00f3d zvl\u00e1\u0161\u0165 vyhrazen\u00fd pro testovac\u00ed \u00fa\u010dely", "name_ru": "\u0442\u0435\u0441\u0442\u043e\u0432\u044b\u0439 \u0432\u0430\u043b\u044e\u0442\u043d\u044b\u0439 \u043a\u043e\u0434", "minor_units": ""}, {"regex": "^(.*tran.*|\\s*xxx\\s*|\\s*999\\s*)$", "iso3": "XXX", "isoN": "999", "name_en": "The codes assigned for transactions where no currency is involved", "name_fr": "Devise inconnue ou non valide", "name_cs": "Nezn\u00e1m\u00e1 m\u011bna", "name_ru": "\u041d\u0435\u0438\u0437\u0432\u0435\u0441\u0442\u043d\u0430\u044f \u0438\u043b\u0438 \u043d\u0435\u0434\u0435\u0439\u0441\u0442\u0432\u0438\u0442\u0435\u043b\u044c\u043d\u0430\u044f \u0432\u0430\u043b\u044e\u0442\u0430", "minor_units": ""}, {"regex": "^(.*tri.*\\s+and\\s+tob.*\\s+do.*|\\s*ttd\\s*|\\s*780\\s*)$", "iso3": "TTD", "isoN": "780", "name_en": "Trinidad and Tobago Dollar", "name_fr": "Dollar de Trinit\u00e9-et-Tobago", "name_cs": "Trinidadsk\u00fd dolar", "name_ru": "\u0414\u043e\u043b\u043b\u0430\u0440 \u0422\u0440\u0438\u043d\u0438\u0434\u0430\u0434\u0430 \u0438 \u0422\u043e\u0431\u0430\u0433\u043e", "minor_units": "2"}, {"regex": "^(.*tun.*\\s+di.*|\\s*tnd\\s*|\\s*788\\s*)$", "iso3": "TND", "isoN": "788", "name_en": "Tunisian Dinar", "name_fr": "Dinar tunisien", "name_cs": "Tunisk\u00fd din\u00e1r", "name_ru": "\u0422\u0443\u043d\u0438\u0441\u0441\u043a\u0438\u0439 \u0434\u0438\u043d\u0430\u0440", "minor_units": "3"}, {"regex": "^(.*tur.*\\s+li.*|\\s*try\\s*|\\s*949\\s*)$", "iso3": "TRY", "isoN": "949", "name_en": "Turkish Lira", "name_fr": "Livre turque", "name_cs": "Tureck\u00e1 lira", "name_ru": "\u0422\u0443\u0440\u0435\u0446\u043a\u0430\u044f \u043b\u0438\u0440\u0430", "minor_units": "2"}, {"regex": "^(.*tur.*\\s+ma.*|\\s*tmt\\s*|\\s*934\\s*)$", "iso3": "TMT", "isoN": "934", "name_en": "Turkmenistan New Manat", "name_fr": "Nouveau manat turkm\u00e8ne", "name_cs": "Turkmensk\u00fd manat", "name_ru": "\u0422\u0443\u0440\u043a\u043c\u0435\u043d\u0441\u043a\u0438\u0439 \u043d\u043e\u0432\u044b\u0439 \u043c\u0430\u043d\u0430\u0442", "minor_units": "2"}, {"regex": "^(.*u[an].*\\s+di.*|\\s*aed\\s*|\\s*784\\s*)$", "iso3": "AED", "isoN": "784", "name_en": "UAE Dirham", "name_fr": "Dirham des \u00c9mirats arabes unis", "name_cs": "SAE dirham", "name_ru": "\u0414\u0438\u0440\u0445\u0430\u043c (\u041e\u0410\u042d)", "minor_units": "2"}, {"regex": "^(.*u[ns].*\\s+do.*\\s+.*n.*\\s+d.*|.*n.*\\s+d.*\\s+u[ns].*\\s+do.*|\\s*usn\\s*|\\s*997\\s*)$", "iso3": "USN", "isoN": "997", "name_en": "US Dollar (Next day)", "name_fr": "Dollar des Etats-Unis (jour suivant)", "name_cs": "Americk\u00fd dolar (p\u0159\u00ed\u0161t\u00ed den)", "name_ru": "\u0414\u043e\u043b\u043b\u0430\u0440 \u0421\u0428\u0410 \u0441\u043b\u0435\u0434\u0443\u044e\u0449\u0435\u0433\u043e \u0434\u043d\u044f", "minor_units": "2"}, {"regex": "^(.*u[ns].*\\s+do.*|\\s*usd\\s*|\\s*840\\s*)$", "iso3": "USD", "isoN": "840", "name_en": "US Dollar", "name_fr": "Dollar des \u00c9tats-Unis", "name_cs": "Americk\u00fd dolar", "name_ru": "\u0414\u043e\u043b\u043b\u0430\u0440 \u0421\u0428\u0410", "minor_units": "2"}, {"regex": "^(.*uga.*\\s+sh.*|\\s*ugx\\s*|\\s*800\\s*)$", "iso3": "UGX", "isoN": "800", "name_en": "Uganda Shilling", "name_fr": "Shilling ougandais", "name_cs": "Ugandsk\u00fd \u0161ilink", "name_ru": "\u0423\u0433\u0430\u043d\u0434\u0438\u0439\u0441\u043a\u0438\u0439 \u0448\u0438\u043b\u043b\u0438\u043d\u0433", "minor_units": "0"}, {"regex": "^(.*uni.*\\s+de\\s+fom.*|\\s*clf\\s*|\\s*990\\s*)$", "iso3": "CLF", "isoN": "990", "name_en": "Unidad de Fomento", "name_fr": "Unit\u00e9 d\u2019investissement chilienne", "name_cs": "Unidad de Fomento", "name_ru": "\u0423\u0441\u043b\u043e\u0432\u043d\u0430\u044f \u0440\u0430\u0441\u0447\u0435\u0442\u043d\u0430\u044f \u0435\u0434\u0438\u043d\u0438\u0446\u0430 \u0427\u0438\u043b\u0438", "minor_units": "4"}, {"regex": "^(.*uni.*\\s+de\\s+val.*\\s+re.*|\\s*cou\\s*|\\s*970\\s*)$", "iso3": "COU", "isoN": "970", "name_en": "Unidad de Valor Real", "name_fr": "Unit\u00e9 de valeur r\u00e9elle colombienne", "name_cs": "Unidad de Valor Real", "name_ru": "\u0415\u0434\u0438\u043d\u0438\u0446\u0430 \u0440\u0435\u0430\u043b\u044c\u043d\u043e\u0439 \u0441\u0442\u043e\u0438\u043c\u043e\u0441\u0442\u0438 \u041a\u043e\u043b\u0443\u043c\u0431\u0438\u0438", "minor_units": "2"}, {"regex": "^(.*uni.*\\s+pr.*|\\s*uyw\\s*|\\s*927\\s*)$", "iso3": "UYW", "isoN": "927", "name_en": "Unidad Previsional", "name_fr": "Unit\u00e9 pr\u00e9visionnelle", "name_cs": "Unidad Previsional", "name_ru": "\u0415\u0434\u0438\u043d\u0438\u0446\u0430 \u0441\u043e\u0446\u0438\u0430\u043b\u044c\u043d\u043e\u0433\u043e \u043e\u0431\u0435\u0441\u043f\u0435\u0447\u0435\u043d\u0438\u044f", "minor_units": "4"}, {"regex": "^(.*uru.*\\s+pe.*\\s+en\\s+uni.*\\s+ind.*|\\s*uyi\\s*|\\s*940\\s*)$", "iso3": "UYI", "isoN": "940", "name_en": "Uruguay Peso en Unidades Indexadas (UI)", "name_fr": "Peso uruguayen (unit\u00e9s index\u00e9es)", "name_cs": "Uruguay Peso en Unidades Indexadas (UI)", "name_ru": "\u0423\u0440\u0443\u0433\u0432\u0430\u0439\u0441\u043a\u0438\u0439 \u043f\u0435\u0441\u043e (\u0438\u043d\u0434\u0435\u043a\u0441 \u0438\u043d\u0444\u043b\u044f\u0446\u0438\u0438)", "minor_units": "0"}, {"regex": "^(.*uzb.*\\s+sum.*|\\s*uzs\\s*|\\s*860\\s*)$", "iso3": "UZS", "isoN": "860", "name_en": "Uzbekistan Sum", "name_fr": "Sum ouzbek", "name_cs": "Uzbeck\u00fd sum", "name_ru": "\u0423\u0437\u0431\u0435\u043a\u0441\u043a\u0438\u0439 \u0441\u0443\u043c", "minor_units": "2"}, {"regex": "^(.*vat.*|\\s*vuv\\s*|\\s*548\\s*)$", "iso3": "VUV", "isoN": "548", "name_en": "Vatu", "name_fr": "Vatu vanuatuan", "name_cs": "Vanuatsk\u00fd vatu", "name_ru": "\u0412\u0430\u0442\u0443", "minor_units": "0"}, {"regex": "^(.*wir.*\\s+eu.*|\\s*che\\s*|\\s*947\\s*)$", "iso3": "CHE", "isoN": "947", "name_en": "WIR Euro", "name_fr": "Euro WIR", "name_cs": "WIR euro", "name_ru": "WIR \u0435\u0432\u0440\u043e", "minor_units": "2"}, {"regex": "^(.*wir.*\\s+fr.*|\\s*chw\\s*|\\s*948\\s*)$", "iso3": "CHW", "isoN": "948", "name_en": "WIR Franc", "name_fr": "Franc WIR", "name_cs": "WIR frank", "name_ru": "WIR \u0444\u0440\u0430\u043d\u043a", "minor_units": "2"}, {"regex": "^(.*won.*|\\s*krw\\s*|\\s*410\\s*)$", "iso3": "KRW", "isoN": "410", "name_en": "Won", "name_fr": "Won sud-cor\u00e9en", "name_cs": "Jihokorejsk\u00fd won", "name_ru": "\u0412\u043e\u043d\u0430 \u0420\u0435\u0441\u043f\u0443\u0431\u043b\u0438\u043a\u0438 \u041a\u043e\u0440\u0435\u0438", "minor_units": "0"}, {"regex": "^(.*yem.*\\s+ri.*|\\s*yer\\s*|\\s*886\\s*)$", "iso3": "YER", "isoN": "886", "name_en": "Yemeni Rial", "name_fr": "Rial y\u00e9m\u00e9nite", "name_cs": "Jemensk\u00fd rij\u00e1l", "name_ru": "\u0419\u0435\u043c\u0435\u043d\u0441\u043a\u0438\u0439 \u0440\u0438\u0430\u043b", "minor_units": "2"}, {"regex": "^(.*yen.*|\\s*jpy\\s*|\\s*392\\s*)$", "iso3": "JPY", "isoN": "392", "name_en": "Yen", "name_fr": "Yen japonais", "name_cs": "Japonsk\u00fd jen", "name_ru": "\u042f\u043f\u043e\u043d\u0441\u043a\u0430\u044f \u0438\u0435\u043d\u0430", "minor_units": "0"}, {"regex": "^(.*yua.*|.*ren.*|\\s*cny\\s*|\\s*156\\s*)$", "iso3": "CNY", "isoN": "156", "name_en": "Yuan Renminbi", "name_fr": "Yuan renminbi chinois", "name_cs": "\u010c\u00ednsk\u00fd j\u00fcan", "name_ru": "\u042e\u0430\u043d\u044c \u0420\u0435\u043d\u043c\u0438\u043d\u0431\u0438", "minor_units": "2"}, {"regex": "^(.*zam.*\\s+kw.*|\\s*zmw\\s*|\\s*967\\s*)$", "iso3": "ZMW", "isoN": "967", "name_en": "Zambian Kwacha", "name_fr": "Kwacha zambien", "name_cs": "Zambijsk\u00e1 kwacha", "name_ru": "\u041a\u0432\u0430\u0447\u0430 (\u0437\u0430\u043c\u0431\u0438\u0439\u0441\u043a\u0430\u044f)", "minor_units": "2"}, {"regex": "^(.*zim.*\\s+do.*|\\s*zwl\\s*|\\s*932\\s*)$", "iso3": "ZWL", "isoN": "932", "name_en": "Zimbabwe Dollar", "name_fr": "Dollar zimbabw\u00e9en", "name_cs": "Zimbabwsk\u00fd dolar", "name_ru": "\u0414\u043e\u043b\u043b\u0430\u0440 \u0417\u0438\u043c\u0431\u0430\u0431\u0432\u0435", "minor_units": "2"}, {"regex": "^(.*zlo.*|\\s*pln\\s*|\\s*985\\s*)$", "iso3": "PLN", "isoN": "985", "name_en": "Zloty", "name_fr": "Zloty polonais", "name_cs": "Polsk\u00fd zlot\u00fd", "name_ru": "\u041f\u043e\u043b\u044c\u0441\u043a\u0438\u0439 \u0437\u043b\u043e\u0442\u044b\u0439", "minor_units": "2"}, {"regex": "^([^c]*[ao]mo.*|\\s*tjs\\s*|\\s*972\\s*)$", "iso3": "TJS", "isoN": "972", "name_en": "Somoni", "name_fr": "Somoni tadjik", "name_cs": "T\u00e1d\u017eick\u00e9 somoni", "name_ru": "\u0422\u0430\u0434\u0436\u0438\u043a\u0441\u043a\u0438\u0439 \u0441\u043e\u043c\u043e\u043d\u0438", "minor_units": "2"}, {"regex": "^([^d]*lar\\S*|\\s*gel\\s*|\\s*981\\s*)$", "iso3": "GEL", "isoN": "981", "name_en": "Lari", "name_fr": "Lari g\u00e9orgien", "name_cs": "Gruz\u00ednsk\u00e9 lari", "name_ru": "\u0413\u0440\u0443\u0437\u0438\u043d\u0441\u043a\u0438\u0439 \u043b\u0430\u0440\u0438", "minor_units": "2"}, {"regex": "^([^j]*can.*\\s+do.*|\\s*cad\\s*|\\s*124\\s*)$", "iso3": "CAD", "isoN": "124", "name_en": "Canadian Dollar", "name_fr": "Dollar canadien", "name_cs": "Kanadsk\u00fd dolar", "name_ru": "\u041a\u0430\u043d\u0430\u0434\u0441\u043a\u0438\u0439 \u0434\u043e\u043b\u043b\u0430\u0440", "minor_units": "2"}, {"regex": "^([^s]*nam.*\\s+do.*|\\s*nad\\s*|\\s*516\\s*)$", "iso3": "NAD", "isoN": "516", "name_en": "Namibia Dollar", "name_fr": "Dollar namibien", "name_cs": "Namibijsk\u00fd dolar", "name_ru": "\u0414\u043e\u043b\u043b\u0430\u0440 \u041d\u0430\u043c\u0438\u0431\u0438\u0438", "minor_units": "2"}, {"regex": "^([^w]*eur.*|\\s*eur\\s*|\\s*978\\s*)$", "iso3": "EUR", "isoN": "978", "name_en": "Euro", "name_fr": "Euro", "name_cs": "Euro", "name_ru": "\u0415\u0432\u0440\u043e", "minor_units": "2"}, {"regex": "^(\\s*rup.*|\\s*idr\\s*|\\s*360\\s*)$", "iso3": "IDR", "isoN": "360", "name_en": "Rupiah", "name_fr": "Roupie indon\u00e9sienne", "name_cs": "Indon\u00e9sk\u00e1 rupie", "name_ru": "\u0418\u043d\u0434\u043e\u043d\u0435\u0437\u0438\u0439\u0441\u043a\u0430\u044f \u0440\u0443\u043f\u0438\u044f", "minor_units": "2"}, {"metadata": {"isoN": "ISO 3166-1 numeric (numeric-3) code", "minor_units": "Number of minor units", "name_cs": "\u010cesk\u00fd n\u00e1zev", "name_en": "English name", "name_fr": "Nom fran\u00e7ais", "name_ru": "\u041d\u0430\u0437\u0432\u0430\u043d\u0438\u0435 \u043d\u0430 \u0440\u0443\u0441\u0441\u043a\u043e\u043c \u044f\u0437\u044b\u043a\u0435"}}, {"sources": ["[https://cs.wikipedia.org/](Wikipedie)", "[https://fr.wikipedia.org/](Wikip\u00e9dia)", "[https://ru.wikipedia.org/](\u0412\u0438\u043a\u0438\u043f\u0435\u0434\u0438\u044f)", "[https://www.unicode.org/cldr/cldr-aux/charts/23.1/summary/cs.html?hide](Unicode - Locale Data Summary for cs [Czech])", "[https://www.unicode.org/cldr/cldr-aux/charts/23.1/summary/fr.html?hide](Unicode - Locale Data Summary for fr [French])", "[https://www.unicode.org/cldr/cldr-aux/charts/23.1/summary/ru.html?hide](Unicode - Locale Data Summary for ru [Russian])", "[https://www.wikipedia.org/](Wikipedia)"]}]