[{"regex": "^(.*afgh.*|\\s*AFG\\s*|\\s*AF\\s*|\\s*4\\s*)$", "name_en": "Afghanistan", "name_fr": "Afghanistan (l')", "iso3": "AFG", "iso2": "AF", "isoN": "4"}, {"regex": "^(.*alban.*|.*shq.*|\\s*ALB\\s*|\\s*AL\\s*|\\s*8\\s*)$", "name_en": "Albania", "name_fr": "Albanie (l')", "iso3": "ALB", "iso2": "AL", "isoN": "8"}, {"regex": "^(.*alg.*|.*jaz.*|\\s*DZA\\s*|\\s*DZ\\s*|\\s*12\\s*)$", "name_en": "Algeria", "name_fr": "Alg\u00e9rie (l')", "iso3": "DZA", "iso2": "DZ", "isoN": "12"}, {"regex": "^(.*a.+s.moa*|.*s.moa.+a.*|\\s*ASM\\s*|\\s*AS\\s*|\\s*16\\s*)$", "name_en": "American Samoa", "name_fr": "Samoa am\u00e9ricaines (les)", "iso3": "ASM", "iso2": "AS", "isoN": "16"}, {"regex": "^(.*ando.*|\\s*AND\\s*|\\s*AD\\s*|\\s*20\\s*)$", "name_en": "Andorra", "name_fr": "Andorre (l')", "iso3": "AND", "iso2": "AD", "isoN": "20"}, {"regex": "^(.*ango.*|\\s*AGO\\s*|\\s*AO\\s*|\\s*24\\s*)$", "name_en": "Angola", "name_fr": "Angola (l')", "iso3": "AGO", "iso2": "AO", "isoN": "24"}, {"regex": "^(.*angu.*|\\s*AIA\\s*|\\s*AI\\s*|\\s*660\\s*)$", "name_en": "Anguilla", "name_fr": "Anguilla", "iso3": "AIA", "iso2": "AI", "isoN": "660"}, {"regex": "^(.*anta.*|\\s*ATA\\s*|\\s*AQ\\s*|\\s*10\\s*)$", "name_en": "Antarctica", "name_fr": "Antarctique (l')", "iso3": "ATA", "iso2": "AQ", "isoN": "10"}, {"regex": "^(.*anti.*|\\s*ATG\\s*|\\s*AG\\s*|\\s*28\\s*)$", "name_en": "Antigua and Barbuda", "name_fr": "Antigua-et-Barbuda", "iso3": "ATG", "iso2": "AG", "isoN": "28"}, {"regex": "^(.*arg.*|\\s*ARG\\s*|\\s*AR\\s*|\\s*32\\s*)$", "name_en": "Argentina", "name_fr": "Argentine (l')", "iso3": "ARG", "iso2": "AR", "isoN": "32"}, {"regex": "^(.*arm.*|.*hay.*|\\s*ARM\\s*|\\s*AM\\s*|\\s*51\\s*)$", "name_en": "Armenia", "name_fr": "Arm\u00e9nie (l')", "iso3": "ARM", "iso2": "AM", "isoN": "51"}, {"regex": "^(.*arub.*|\\s*ABW\\s*|\\s*AW\\s*|\\s*533\\s*)$", "name_en": "Aruba", "name_fr": "Aruba", "iso3": "ABW", "iso2": "AW", "isoN": "533"}, {"regex": "^(.*au.+li.*|\\s*AUS\\s*|\\s*AU\\s*|\\s*36\\s*)$", "name_en": "Australia", "name_fr": "Australie (l')", "iso3": "AUS", "iso2": "AU", "isoN": "36"}, {"regex": "^(.*au.?tri.*|.*sterr.*|\\s*AUT\\s*|\\s*AT\\s*|\\s*40\\s*)$", "name_en": "Austria", "name_fr": "Autriche (l')", "iso3": "AUT", "iso2": "AT", "isoN": "40"}, {"regex": "^(.*aze.*|\\s*AZE\\s*|\\s*AZ\\s*|\\s*31\\s*)$", "name_en": "Azerbaijan", "name_fr": "Azerba\u00efdjan (l')", "iso3": "AZE", "iso2": "AZ", "isoN": "31"}, {"regex": "^(.*baha.*|\\s*BHS\\s*|\\s*BS\\s*|\\s*44\\s*)$", "name_en": "Bahamas (the)", "name_fr": "Bahamas (les)", "iso3": "BHS", "iso2": "BS", "isoN": "44"}, {"regex": "^(.*bahr.*|\\s*BHR\\s*|\\s*BH\\s*|\\s*48\\s*)$", "name_en": "Bahrain", "name_fr": "Bahre\u00efn", "iso3": "BHR", "iso2": "BH", "isoN": "48"}, {"regex": "^(.*bang.*|\\s*BGD\\s*|\\s*BD\\s*|\\s*50\\s*)$", "name_en": "Bangladesh", "name_fr": "Bangladesh (le)", "iso3": "BGD", "iso2": "BD", "isoN": "50"}, {"regex": "^(.*barba.*|\\s*BRB\\s*|\\s*BB\\s*|\\s*52\\s*)$", "name_en": "Barbados", "name_fr": "Barbade (la)", "iso3": "BRB", "iso2": "BB", "isoN": "52"}, {"regex": "^(.*b.la.*|.*w.+ru.*|\\s*BLR\\s*|\\s*BY\\s*|\\s*112\\s*)$", "name_en": "Belarus", "name_fr": "B\u00e9larus (le)", "iso3": "BLR", "iso2": "BY", "isoN": "112"}, {"regex": "^(.*belg.*|\\s*BEL\\s*|\\s*BE\\s*|\\s*56\\s*)$", "name_en": "Belgium", "name_fr": "Belgique (la)", "iso3": "BEL", "iso2": "BE", "isoN": "56"}, {"regex": "^(.*beli.*|\\s*BLZ\\s*|\\s*BZ\\s*|\\s*84\\s*)$", "name_en": "Belize", "name_fr": "Belize (le)", "iso3": "BLZ", "iso2": "BZ", "isoN": "84"}, {"regex": "^(.*b.nin.*|\\s*BEN\\s*|\\s*BJ\\s*|\\s*204\\s*)$", "name_en": "Benin", "name_fr": "B\u00e9nin (le)", "iso3": "BEN", "iso2": "BJ", "isoN": "204"}, {"regex": "^(.*berm.*|\\s*BMU\\s*|\\s*BM\\s*|\\s*60\\s*)$", "name_en": "Bermuda", "name_fr": "Bermudes (les)", "iso3": "BMU", "iso2": "BM", "isoN": "60"}, {"regex": "^(.*bho?u.*|.*dru.*|\\s*BTN\\s*|\\s*BT\\s*|\\s*64\\s*)$", "name_en": "Bhutan", "name_fr": "Bhoutan (le)", "iso3": "BTN", "iso2": "BT", "isoN": "64"}, {"regex": "^(.*b.+ivi.*|\\s*BOL\\s*|\\s*BO\\s*|\\s*68\\s*)$", "name_en": "Bolivia (Plurinational State of)", "name_fr": "Bolivie (\u00c9tat plurinational de)", "iso3": "BOL", "iso2": "BO", "isoN": "68"}, {"regex": "^(.*bona.*|\\s*BES\\s*|\\s*BQ\\s*|\\s*535\\s*)$", "name_en": "Bonaire, Sint Eustatius and Saba", "name_fr": "Bonaire, Saint-Eustache et Saba", "iso3": "BES", "iso2": "BQ", "isoN": "535"}, {"regex": "^(.*bos.*|\\s*BIH\\s*|\\s*BA\\s*|\\s*70\\s*)$", "name_en": "Bosnia and Herzegovina", "name_fr": "Bosnie-Herz\u00e9govine (la)", "iso3": "BIH", "iso2": "BA", "isoN": "70"}, {"regex": "^(.*bot.*|\\s*BWA\\s*|\\s*BW\\s*|\\s*72\\s*)$", "name_en": "Botswana", "name_fr": "Botswana (le)", "iso3": "BWA", "iso2": "BW", "isoN": "72"}, {"regex": "^(.*bouv.*|\\s*BVT\\s*|\\s*BV\\s*|\\s*74\\s*)$", "name_en": "Bouvet Island", "name_fr": "Bouvet (l'\u00cele)", "iso3": "BVT", "iso2": "BV", "isoN": "74"}, {"regex": "^(.*br.+il.*|\\s*BRA\\s*|\\s*BR\\s*|\\s*76\\s*)$", "name_en": "Brazil", "name_fr": "Br\u00e9sil (le)", "iso3": "BRA", "iso2": "BR", "isoN": "76"}, {"regex": "^(.*ind.+o.*|\\s*IOT\\s*|\\s*IO\\s*|\\s*86\\s*)$", "name_en": "British Indian Ocean Territory (the)", "name_fr": "Indien (le\u00a0Territoire britannique de l'oc\u00e9an)", "iso3": "IOT", "iso2": "IO", "isoN": "86"}, {"regex": "^(.*bru.*|\\s*BRN\\s*|\\s*BN\\s*|\\s*96\\s*)$", "name_en": "Brunei Darussalam", "name_fr": "Brun\u00e9i Darussalam (le)", "iso3": "BRN", "iso2": "BN", "isoN": "96"}, {"regex": "^(.*b.lga.*|\\s*BGR\\s*|\\s*BG\\s*|\\s*100\\s*)$", "name_en": "Bulgaria", "name_fr": "Bulgarie (la)", "iso3": "BGR", "iso2": "BG", "isoN": "100"}, {"regex": "^(.*burk.*|\\s*BFA\\s*|\\s*BF\\s*|\\s*854\\s*)$", "name_en": "Burkina Faso", "name_fr": "Burkina Faso (le)", "iso3": "BFA", "iso2": "BF", "isoN": "854"}, {"regex": "^(.*buru.*|\\s*BDI\\s*|\\s*BI\\s*|\\s*108\\s*)$", "name_en": "Burundi", "name_fr": "Burundi (le)", "iso3": "BDI", "iso2": "BI", "isoN": "108"}, {"regex": "^(.*ca[bp].*|\\s*CPV\\s*|\\s*CV\\s*|\\s*132\\s*)$", "name_en": "Cabo Verde", "name_fr": "Cabo Verde", "iso3": "CPV", "iso2": "CV", "isoN": "132"}, {"regex": "^(.*camb.*|.*kam.*|\\s*KHM\\s*|\\s*KH\\s*|\\s*116\\s*)$", "name_en": "Cambodia", "name_fr": "Cambodge (le)", "iso3": "KHM", "iso2": "KH", "isoN": "116"}, {"regex": "^(.*came.*|\\s*CMR\\s*|\\s*CM\\s*|\\s*120\\s*)$", "name_en": "Cameroon", "name_fr": "Cameroun (le)", "iso3": "CMR", "iso2": "CM", "isoN": "120"}, {"regex": "^(.*cana.*|\\s*CAN\\s*|\\s*CA\\s*|\\s*124\\s*)$", "name_en": "Canada", "name_fr": "Canada (le)", "iso3": "CAN", "iso2": "CA", "isoN": "124"}, {"regex": "^(.*ca.m.*|\\s*CYM\\s*|\\s*KY\\s*|\\s*136\\s*)$", "name_en": "Cayman Islands (the)", "name_fr": "Ca\u00efmans (les\u00a0\u00celes)", "iso3": "CYM", "iso2": "KY", "isoN": "136"}, {"regex": "^(.*ce.+af.*|.*af.+ce.*|\\s*[.acr]{3,}\\s*|\\s*CAF\\s*|\\s*CF\\s*|\\s*140\\s*)$", "name_en": "Central African Republic (the)", "name_fr": "R\u00e9publique centrafricaine (la)", "iso3": "CAF", "iso2": "CF", "isoN": "140"}, {"regex": "^(.*t?a?[cs]h\\Sd.*|\\s*TCD\\s*|\\s*TD\\s*|\\s*148\\s*)$", "name_en": "Chad", "name_fr": "Tchad (le)", "iso3": "TCD", "iso2": "TD", "isoN": "148"}, {"regex": "^(.*chil.*|\\s*CHL\\s*|\\s*CL\\s*|\\s*152\\s*)$", "name_en": "Chile", "name_fr": "Chili (le)", "iso3": "CHL", "iso2": "CL", "isoN": "152"}, {"regex": "^(.*p[eo].+ch.*|\\s*[.cpr]{3,}\\s*|[^t]*chin[^t]*|\\s*CHN\\s*|\\s*CN\\s*|\\s*156\\s*)$", "name_en": "China", "name_fr": "Chine (la)", "iso3": "CHN", "iso2": "CN", "isoN": "156"}, {"regex": "^(.*chr.*|\\s*CXR\\s*|\\s*CX\\s*|\\s*162\\s*)$", "name_en": "Christmas Island", "name_fr": "Christmas (l'\u00cele)", "iso3": "CXR", "iso2": "CX", "isoN": "162"}, {"regex": "^(.*coc.*|\\s*CCK\\s*|\\s*CC\\s*|\\s*166\\s*)$", "name_en": "Cocos (Keeling) Islands (the)", "name_fr": "Cocos (les\u00a0\u00celes)/ Keeling (les\u00a0\u00celes)", "iso3": "CCK", "iso2": "CC", "isoN": "166"}, {"regex": "^(.*col.*|\\s*COL\\s*|\\s*CO\\s*|\\s*170\\s*)$", "name_en": "Colombia", "name_fr": "Colombie (la)", "iso3": "COL", "iso2": "CO", "isoN": "170"}, {"regex": "^(.*[ckq][ou]m.*|\\s*COM\\s*|\\s*KM\\s*|\\s*174\\s*)$", "name_en": "Comoros (the)", "name_fr": "Comores (les)", "iso3": "COM", "iso2": "KM", "isoN": "174"}, {"regex": "^(.*d.+con.*|.*con.+d.*|\\s*[.cdr]{3,}\\s*|.*kins.*|.*zai.*|\\s*COD\\s*|\\s*CD\\s*|\\s*180\\s*)$", "name_en": "Congo (the Democratic Republic of the)", "name_fr": "Congo (la R\u00e9publique d\u00e9mocratique du)", "iso3": "COD", "iso2": "CD", "isoN": "180"}, {"regex": "^([^d]*con[^d]*|.*brazz.*|\\s*COG\\s*|\\s*CG\\s*|\\s*178\\s*)$", "name_en": "Congo (the)", "name_fr": "Congo (le)", "iso3": "COG", "iso2": "CG", "isoN": "178"}, {"regex": "^(.*coo.*|\\s*COK\\s*|\\s*CK\\s*|\\s*184\\s*)$", "name_en": "Cook Islands (the)", "name_fr": "Cook (les \u00celes)", "iso3": "COK", "iso2": "CK", "isoN": "184"}, {"regex": "^(.*cost.*|\\s*CRI\\s*|\\s*CR\\s*|\\s*188\\s*)$", "name_en": "Costa Rica", "name_fr": "Costa Rica (le)", "iso3": "CRI", "iso2": "CR", "isoN": "188"}, {"regex": "^(.*croa.*|.*hrv.*|\\s*HRV\\s*|\\s*HR\\s*|\\s*191\\s*)$", "name_en": "Croatia", "name_fr": "Croatie (la)", "iso3": "HRV", "iso2": "HR", "isoN": "191"}, {"regex": "^(.*cub.*|\\s*CUB\\s*|\\s*CU\\s*|\\s*192\\s*)$", "name_en": "Cuba", "name_fr": "Cuba", "iso3": "CUB", "iso2": "CU", "isoN": "192"}, {"regex": "^(.*cur.*|\\s*CUW\\s*|\\s*CW\\s*|\\s*531\\s*)$", "name_en": "Cura\u00e7ao", "name_fr": "Cura\u00e7ao", "iso3": "CUW", "iso2": "CW", "isoN": "531"}, {"regex": "^(.*ch?yp.*|\\s*CYP\\s*|\\s*CY\\s*|\\s*196\\s*)$", "name_en": "Cyprus", "name_fr": "Chypre", "iso3": "CYP", "iso2": "CY", "isoN": "196"}, {"regex": "^(.*cze.*|.*tch.q.*|\\s*CZE\\s*|\\s*CZ\\s*|\\s*203\\s*)$", "name_en": "Czechia", "name_fr": "Tch\u00e9quie (la)", "iso3": "CZE", "iso2": "CZ", "isoN": "203"}, {"regex": "^(.*ivo.*|\\s*CIV\\s*|\\s*CI\\s*|\\s*384\\s*)$", "name_en": "C\u00f4te d'Ivoire", "name_fr": "C\u00f4te d'Ivoire (la)", "iso3": "CIV", "iso2": "CI", "isoN": "384"}, {"regex": "^(.*d[ae]ne?m.*|\\s*DNK\\s*|\\s*DK\\s*|\\s*208\\s*)$", "name_en": "Denmark", "name_fr": "Danemark (le)", "iso3": "DNK", "iso2": "DK", "isoN": "208"}, {"regex": "^(.*d?[jy].b.*|\\s*DJI\\s*|\\s*DJ\\s*|\\s*262\\s*)$", "name_en": "Djibouti", "name_fr": "Djibouti", "iso3": "DJI", "iso2": "DJ", "isoN": "262"}, {"regex": "^([^r]*domi[^r]*|\\s*DMA\\s*|\\s*DM\\s*|\\s*212\\s*)$", "name_en": "Dominica", "name_fr": "Dominique (la)", "iso3": "DMA", "iso2": "DM", "isoN": "212"}, {"regex": "^(.*domi.+r.p.*|.*r.p.+domi.*|\\s*DOM\\s*|\\s*DO\\s*|\\s*214\\s*)$", "name_en": "Dominican Republic (the)", "name_fr": "dominicaine (la\u00a0R\u00e9publique)", "iso3": "DOM", "iso2": "DO", "isoN": "214"}, {"regex": "^(.*ecu.*|.*q.+te.*|\\s*ECU\\s*|\\s*EC\\s*|\\s*218\\s*)$", "name_en": "Ecuador", "name_fr": "\u00c9quateur (l')", "iso3": "ECU", "iso2": "EC", "isoN": "218"}, {"regex": "^(.*gyp.*|[^s]*m..r[^ai]*|\\s*EGY\\s*|\\s*EG\\s*|\\s*818\\s*)$", "name_en": "Egypt", "name_fr": "\u00c9gypte (l')", "iso3": "EGY", "iso2": "EG", "isoN": "818"}, {"regex": "^(.*el.+sa.*|\\s*SLV\\s*|\\s*SV\\s*|\\s*222\\s*)$", "name_en": "El Salvador", "name_fr": "El Salvador", "iso3": "SLV", "iso2": "SV", "isoN": "222"}, {"regex": "^(.*q.+gu.*|.*gu.+q.*|\\s*GNQ\\s*|\\s*GQ\\s*|\\s*226\\s*)$", "name_en": "Equatorial Guinea", "name_fr": "Guin\u00e9e \u00e9quatoriale (la)", "iso3": "GNQ", "iso2": "GQ", "isoN": "226"}, {"regex": "^(.*r.th?r.*|\\s*ERI\\s*|\\s*ER\\s*|\\s*232\\s*)$", "name_en": "Eritrea", "name_fr": "\u00c9rythr\u00e9e (l')", "iso3": "ERI", "iso2": "ER", "isoN": "232"}, {"regex": "^(.*esto.*|.*ees.*|\\s*EST\\s*|\\s*EE\\s*|\\s*233\\s*)$", "name_en": "Estonia", "name_fr": "Estonie (l')", "iso3": "EST", "iso2": "EE", "isoN": "233"}, {"regex": "^(.*e?swa[tz].*|\\s*SWZ\\s*|\\s*SZ\\s*|\\s*748\\s*)$", "name_en": "Eswatini", "name_fr": "Eswatini (l')", "iso3": "SWZ", "iso2": "SZ", "isoN": "748"}, {"regex": "^(.*thi.*|\\s*ETH\\s*|\\s*ET\\s*|\\s*231\\s*)$", "name_en": "Ethiopia", "name_fr": "\u00c9thiopie (l')", "iso3": "ETH", "iso2": "ET", "isoN": "231"}, {"regex": "^(.*fal.*|.*mal[ov].*|\\s*FLK\\s*|\\s*FK\\s*|\\s*238\\s*)$", "name_en": "Falkland Islands (the) [Malvinas]", "name_fr": "Falkland (les \u00celes)/Malouines (les \u00celes)", "iso3": "FLK", "iso2": "FK", "isoN": "238"}, {"regex": "^(.*f.r.*|\\s*FRO\\s*|\\s*FO\\s*|\\s*234\\s*)$", "name_en": "Faroe Islands (the)", "name_fr": "F\u00e9ro\u00e9 (les \u00celes)", "iso3": "FRO", "iso2": "FO", "isoN": "234"}, {"regex": "^(.*fid?j.*|\\s*FJI\\s*|\\s*FJ\\s*|\\s*242\\s*)$", "name_en": "Fiji", "name_fr": "Fidji (les)", "iso3": "FJI", "iso2": "FJ", "isoN": "242"}, {"regex": "^(.*fin.*|.*suo.*|\\s*FIN\\s*|\\s*FI\\s*|\\s*246\\s*)$", "name_en": "Finland", "name_fr": "Finlande (la)", "iso3": "FIN", "iso2": "FI", "isoN": "246"}, {"regex": "^(.*france.*|\\s*FRA\\s*|\\s*FR\\s*|\\s*250\\s*)$", "name_en": "France", "name_fr": "France (la)", "iso3": "FRA", "iso2": "FR", "isoN": "250"}, {"regex": "^(.*f.+gu.*|.*gu.+f.*|\\s*GUF\\s*|\\s*GF\\s*|\\s*254\\s*)$", "name_en": "French Guiana", "name_fr": "Guyane fran\u00e7aise (la\u00a0)", "iso3": "GUF", "iso2": "GF", "isoN": "254"}, {"regex": "^(.*f.+pol.*|.*pol.+f.*|\\s*PYF\\s*|\\s*PF\\s*|\\s*258\\s*)$", "name_en": "French Polynesia", "name_fr": "Polyn\u00e9sie fran\u00e7aise (la)", "iso3": "PYF", "iso2": "PF", "isoN": "258"}, {"regex": "^(.*fr.+te.*|.*te.+fr.*|\\s*ATF\\s*|\\s*TF\\s*|\\s*260\\s*)$", "name_en": "French Southern Territories (the)", "name_fr": "Terres australes fran\u00e7aises (les)", "iso3": "ATF", "iso2": "TF", "isoN": "260"}, {"regex": "^(.*gab.*|\\s*GAB\\s*|\\s*GA\\s*|\\s*266\\s*)$", "name_en": "Gabon", "name_fr": "Gabon (le)", "iso3": "GAB", "iso2": "GA", "isoN": "266"}, {"regex": "^(.*gam.*|\\s*GMB\\s*|\\s*GM\\s*|\\s*270\\s*)$", "name_en": "Gambia (the)", "name_fr": "Gambie (la)", "iso3": "GMB", "iso2": "GM", "isoN": "270"}, {"regex": "^([^s]*g.or[^s]*|.*sak.*|\\s*GEO\\s*|\\s*GE\\s*|\\s*268\\s*)$", "name_en": "Georgia", "name_fr": "G\u00e9orgie (la)", "iso3": "GEO", "iso2": "GE", "isoN": "268"}, {"regex": "^(.*germ.*|.*alle.*|.*deu.*|\\s*b[.dr]{2,}\\s*|\\s*DEU\\s*|\\s*DE\\s*|\\s*276\\s*)$", "name_en": "Germany", "name_fr": "Allemagne (l')", "iso3": "DEU", "iso2": "DE", "isoN": "276"}, {"regex": "^([^ak]*gh.*|\\s*GHA\\s*|\\s*GH\\s*|\\s*288\\s*)$", "name_en": "Ghana", "name_fr": "Ghana (le)", "iso3": "GHA", "iso2": "GH", "isoN": "288"}, {"regex": "^(.*gib.*|\\s*GIB\\s*|\\s*GI\\s*|\\s*292\\s*)$", "name_en": "Gibraltar", "name_fr": "Gibraltar", "iso3": "GIB", "iso2": "GI", "isoN": "292"}, {"regex": "^(.*gr.e?c.*|[^s]*hell.*|\\s*GRC\\s*|\\s*GR\\s*|\\s*300\\s*)$", "name_en": "Greece", "name_fr": "Gr\u00e8ce (la)", "iso3": "GRC", "iso2": "GR", "isoN": "300"}, {"regex": "^(.*gr.en.*|\\s*GRL\\s*|\\s*GL\\s*|\\s*304\\s*)$", "name_en": "Greenland", "name_fr": "Groenland (le)", "iso3": "GRL", "iso2": "GL", "isoN": "304"}, {"regex": "^([^v]*gren.*|\\s*GRD\\s*|\\s*GD\\s*|\\s*308\\s*)$", "name_en": "Grenada", "name_fr": "Grenade (la)", "iso3": "GRD", "iso2": "GD", "isoN": "308"}, {"regex": "^(.*guad.*|\\s*GLP\\s*|\\s*GP\\s*|\\s*312\\s*)$", "name_en": "Guadeloupe", "name_fr": "Guadeloupe (la)", "iso3": "GLP", "iso2": "GP", "isoN": "312"}, {"regex": "^(.*guam.*|\\s*GUM\\s*|\\s*GU\\s*|\\s*316\\s*)$", "name_en": "Guam", "name_fr": "Guam", "iso3": "GUM", "iso2": "GU", "isoN": "316"}, {"regex": "^(.*guat.*|\\s*GTM\\s*|\\s*GT\\s*|\\s*320\\s*)$", "name_en": "Guatemala", "name_fr": "Guatemala (le)", "iso3": "GTM", "iso2": "GT", "isoN": "320"}, {"regex": "^(.*gue.*|\\s*GGY\\s*|\\s*GG\\s*|\\s*831\\s*)$", "name_en": "Guernsey", "name_fr": "Guernesey", "iso3": "GGY", "iso2": "GG", "isoN": "831"}, {"regex": "^([^af]*gui[^bq]*|\\s*GIN\\s*|\\s*GN\\s*|\\s*324\\s*)$", "name_en": "Guinea", "name_fr": "Guin\u00e9e (la)", "iso3": "GIN", "iso2": "GN", "isoN": "324"}, {"regex": "^(.*gui.+b.*|\\s*GNB\\s*|\\s*GW\\s*|\\s*624\\s*)$", "name_en": "Guinea-Bissau", "name_fr": "Guin\u00e9e-Bissau (la)", "iso3": "GNB", "iso2": "GW", "isoN": "624"}, {"regex": "^([^f]*guy[^f]*|\\s*GUY\\s*|\\s*GY\\s*|\\s*328\\s*)$", "name_en": "Guyana", "name_fr": "Guyana (le)", "iso3": "GUY", "iso2": "GY", "isoN": "328"}, {"regex": "^(.*ha.t.*|\\s*HTI\\s*|\\s*HT\\s*|\\s*332\\s*)$", "name_en": "Haiti", "name_fr": "Ha\u00efti", "iso3": "HTI", "iso2": "HT", "isoN": "332"}, {"regex": "^(.*hea.*|\\s*HMD\\s*|\\s*HM\\s*|\\s*334\\s*)$", "name_en": "Heard Island and McDonald Islands", "name_fr": "Heard-et-\u00celes MacDonald (l'\u00cele)", "iso3": "HMD", "iso2": "HM", "isoN": "334"}, {"regex": "^(.*holy.*|.*si.ge.*|\\s*VAT\\s*|\\s*VA\\s*|\\s*336\\s*)$", "name_en": "Holy See (the)", "name_fr": "Saint-Si\u00e8ge (le)", "iso3": "VAT", "iso2": "VA", "isoN": "336"}, {"regex": "^(.*hond.*|\\s*HND\\s*|\\s*HN\\s*|\\s*340\\s*)$", "name_en": "Honduras", "name_fr": "Honduras (le)", "iso3": "HND", "iso2": "HN", "isoN": "340"}, {"regex": "^(.*ho.+k.*|\\s*HKG\\s*|\\s*HK\\s*|\\s*344\\s*)$", "name_en": "Hong Kong", "name_fr": "Hong Kong", "iso3": "HKG", "iso2": "HK", "isoN": "344"}, {"regex": "^(.*h.+nga?r.*|.*magy.*|\\s*HUN\\s*|\\s*HU\\s*|\\s*348\\s*)$", "name_en": "Hungary", "name_fr": "Hongrie (la)", "iso3": "HUN", "iso2": "HU", "isoN": "348"}, {"regex": "^(.*icel.*|.*s.+nde.*|.*\\Wsla.*|\\s*ISL\\s*|\\s*IS\\s*|\\s*352\\s*)$", "name_en": "Iceland", "name_fr": "Islande (l')", "iso3": "ISL", "iso2": "IS", "isoN": "352"}, {"regex": "^([^b]*ind[^o]*|.*bh.r.*|\\s*IND\\s*|\\s*IN\\s*|\\s*356\\s*)$", "name_en": "India", "name_fr": "Inde (l')", "iso3": "IND", "iso2": "IN", "isoN": "356"}, {"regex": "^(.*indo.*|\\s*IDN\\s*|\\s*ID\\s*|\\s*360\\s*)$", "name_en": "Indonesia", "name_fr": "Indon\u00e9sie (l')", "iso3": "IDN", "iso2": "ID", "isoN": "360"}, {"regex": "^(.*iran.*|\\s*[.ir]{3,}\\s*|.*pers.*|\\s*IRN\\s*|\\s*IR\\s*|\\s*364\\s*)$", "name_en": "Iran (Islamic Republic of)", "name_fr": "Iran (R\u00e9publique Islamique d')", "iso3": "IRN", "iso2": "IR", "isoN": "364"}, {"regex": "^([^u]*r[^i]q.*|\\s*IRQ\\s*|\\s*IQ\\s*|\\s*368\\s*)$", "name_en": "Iraq", "name_fr": "Iraq (l')", "iso3": "IRQ", "iso2": "IQ", "isoN": "368"}, {"regex": "^([^u]*ire?l.*|[^u]*\\Wire[^l]*|\\s*IRL\\s*|\\s*IE\\s*|\\s*372\\s*)$", "name_en": "Ireland", "name_fr": "Irlande (l')", "iso3": "IRL", "iso2": "IE", "isoN": "372"}, {"regex": "^(.*l.+man.*|\\s*IMN\\s*|\\s*IM\\s*|\\s*833\\s*)$", "name_en": "Isle of Man", "name_fr": "\u00cele de Man", "iso3": "IMN", "iso2": "IM", "isoN": "833"}, {"regex": "^(.*y?isra.*|\\s*ISR\\s*|\\s*IL\\s*|\\s*376\\s*)$", "name_en": "Israel", "name_fr": "Isra\u00ebl", "iso3": "ISR", "iso2": "IL", "isoN": "376"}, {"regex": "^(.*ital.*|\\s*ITA\\s*|\\s*IT\\s*|\\s*380\\s*)$", "name_en": "Italy", "name_fr": "Italie (l')", "iso3": "ITA", "iso2": "IT", "isoN": "380"}, {"regex": "^(.*jam.*|\\s*JAM\\s*|\\s*JM\\s*|\\s*388\\s*)$", "name_en": "Jamaica", "name_fr": "Jama\u00efque (la)", "iso3": "JAM", "iso2": "JM", "isoN": "388"}, {"regex": "^(.*jap.*|.*ni[hp].*|\\s*JPN\\s*|\\s*JP\\s*|\\s*392\\s*)$", "name_en": "Japan", "name_fr": "Japon (le)", "iso3": "JPN", "iso2": "JP", "isoN": "392"}, {"regex": "^(.*jer.*|\\s*JEY\\s*|\\s*JE\\s*|\\s*832\\s*)$", "name_en": "Jersey", "name_fr": "Jersey", "iso3": "JEY", "iso2": "JE", "isoN": "832"}, {"regex": "^(.*jor.*|\\s*JOR\\s*|\\s*JO\\s*|\\s*400\\s*)$", "name_en": "Jordan", "name_fr": "Jordanie (la)", "iso3": "JOR", "iso2": "JO", "isoN": "400"}, {"regex": "^(.*[kq]az.*|\\s*KAZ\\s*|\\s*KZ\\s*|\\s*398\\s*)$", "name_en": "Kazakhstan", "name_fr": "Kazakhstan (le)", "iso3": "KAZ", "iso2": "KZ", "isoN": "398"}, {"regex": "^(.*ken.*|\\s*KEN\\s*|\\s*KE\\s*|\\s*404\\s*)$", "name_en": "Kenya", "name_fr": "Kenya (le)", "iso3": "KEN", "iso2": "KE", "isoN": "404"}, {"regex": "^(.*kiri.*|\\s*KIR\\s*|\\s*KI\\s*|\\s*296\\s*)$", "name_en": "Kiribati", "name_fr": "Kiribati", "iso3": "KIR", "iso2": "KI", "isoN": "296"}, {"regex": "^(.*[mn].+[ck]or.*|.*[ck]or.+[mn].*|\\s*[dr].?p.?[dr].?.+\\s*|.*cho.*|\\s*PRK\\s*|\\s*KP\\s*|\\s*408\\s*)$", "name_en": "Korea (the Democratic People's Republic of)", "name_fr": "Cor\u00e9e (la\u00a0R\u00e9publique populaire d\u00e9mocratique de)", "iso3": "PRK", "iso2": "KP", "isoN": "408"}, {"regex": "^([^mn]*[ck]or[^mn]*|\\s*[.kor]{3,}\\s*|.*guk.*|\\s*KOR\\s*|\\s*KR\\s*|\\s*410\\s*)$", "name_en": "Korea (the Republic of)", "name_fr": "Cor\u00e9e (la R\u00e9publique de)", "iso3": "KOR", "iso2": "KR", "isoN": "410"}, {"regex": "^(.*k[ou]w.*|\\s*KWT\\s*|\\s*KW\\s*|\\s*414\\s*)$", "name_en": "Kuwait", "name_fr": "Kowe\u00eft (le)", "iso3": "KWT", "iso2": "KW", "isoN": "414"}, {"regex": "^(.*k.rg.*|\\s*KGZ\\s*|\\s*KG\\s*|\\s*417\\s*)$", "name_en": "Kyrgyzstan", "name_fr": "Kirghizistan (le)", "iso3": "KGZ", "iso2": "KG", "isoN": "417"}, {"regex": "^(.*[.deopr]{2,}.+lao.*|.*lao.+[.deopr]{2,}.*|\\s*laos?\\s*|\\s*LAO\\s*|\\s*LA\\s*|\\s*418\\s*)$", "name_en": "Lao People's Democratic Republic (the)", "name_fr": "Lao (la R\u00e9publique d\u00e9mocratique populaire)", "iso3": "LAO", "iso2": "LA", "isoN": "418"}, {"regex": "^(.*l[ae]t.*|\\s*LVA\\s*|\\s*LV\\s*|\\s*428\\s*)$", "name_en": "Latvia", "name_fr": "Lettonie (la)", "iso3": "LVA", "iso2": "LV", "isoN": "428"}, {"regex": "^(.*l[eiu]ba?n.*|\\s*LBN\\s*|\\s*LB\\s*|\\s*422\\s*)$", "name_en": "Lebanon", "name_fr": "Liban (le)", "iso3": "LBN", "iso2": "LB", "isoN": "422"}, {"regex": "^(.*leso.*|\\s*LSO\\s*|\\s*LS\\s*|\\s*426\\s*)$", "name_en": "Lesotho", "name_fr": "Lesotho (le)", "iso3": "LSO", "iso2": "LS", "isoN": "426"}, {"regex": "^(.*lib.r.*|\\s*LBR\\s*|\\s*LR\\s*|\\s*430\\s*)$", "name_en": "Liberia", "name_fr": "Lib\u00e9ria (le)", "iso3": "LBR", "iso2": "LR", "isoN": "430"}, {"regex": "^(.*liby.*|\\s*LBY\\s*|\\s*LY\\s*|\\s*434\\s*)$", "name_en": "Libya", "name_fr": "Libye (la)", "iso3": "LBY", "iso2": "LY", "isoN": "434"}, {"regex": "^(.*liec.*|\\s*LIE\\s*|\\s*LI\\s*|\\s*438\\s*)$", "name_en": "Liechtenstein", "name_fr": "Liechtenstein (le)", "iso3": "LIE", "iso2": "LI", "isoN": "438"}, {"regex": "^(.*lie?t.*|\\s*LTU\\s*|\\s*LT\\s*|\\s*440\\s*)$", "name_en": "Lithuania", "name_fr": "Lituanie (la)", "iso3": "LTU", "iso2": "LT", "isoN": "440"}, {"regex": "^(.*lux.*|.*l.tz.*|\\s*LUX\\s*|\\s*LU\\s*|\\s*442\\s*)$", "name_en": "Luxembourg", "name_fr": "Luxembourg (le)", "iso3": "LUX", "iso2": "LU", "isoN": "442"}, {"regex": "^(.*maca.*|\\s*MAC\\s*|\\s*MO\\s*|\\s*446\\s*)$", "name_en": "Macao", "name_fr": "Macao", "iso3": "MAC", "iso2": "MO", "isoN": "446"}, {"regex": "^(.*mad.*|\\s*MDG\\s*|\\s*MG\\s*|\\s*450\\s*)$", "name_en": "Madagascar", "name_fr": "Madagascar", "iso3": "MDG", "iso2": "MG", "isoN": "450"}, {"regex": "^(.*mala.i.*|\\s*MWI\\s*|\\s*MW\\s*|\\s*454\\s*)$", "name_en": "Malawi", "name_fr": "Malawi (le)", "iso3": "MWI", "iso2": "MW", "isoN": "454"}, {"regex": "^(.*ma.+si.*|.*m.lay.*|\\s*MYS\\s*|\\s*MY\\s*|\\s*458\\s*)$", "name_en": "Malaysia", "name_fr": "Malaisie (la)", "iso3": "MYS", "iso2": "MY", "isoN": "458"}, {"regex": "^(.*mald.*|.*dhi.*|\\s*MDV\\s*|\\s*MV\\s*|\\s*462\\s*)$", "name_en": "Maldives", "name_fr": "Maldives (les)", "iso3": "MDV", "iso2": "MV", "isoN": "462"}, {"regex": "^([^s]*mali.*|\\s*MLI\\s*|\\s*ML\\s*|\\s*466\\s*)$", "name_en": "Mali", "name_fr": "Mali (le)", "iso3": "MLI", "iso2": "ML", "isoN": "466"}, {"regex": "^(.*malt.*|\\s*MLT\\s*|\\s*MT\\s*|\\s*470\\s*)$", "name_en": "Malta", "name_fr": "Malte", "iso3": "MLT", "iso2": "MT", "isoN": "470"}, {"regex": "^(.*mars.*|\\s*MHL\\s*|\\s*MH\\s*|\\s*584\\s*)$", "name_en": "Marshall Islands (the)", "name_fr": "Marshall (les \u00celes)", "iso3": "MHL", "iso2": "MH", "isoN": "584"}, {"regex": "^(.*mar.+q.*|\\s*MTQ\\s*|\\s*MQ\\s*|\\s*474\\s*)$", "name_en": "Martinique", "name_fr": "Martinique (la)", "iso3": "MTQ", "iso2": "MQ", "isoN": "474"}, {"regex": "^(.*mau.+n.*|.*m.r.t.n.*|\\s*MRT\\s*|\\s*MR\\s*|\\s*478\\s*)$", "name_en": "Mauritania", "name_fr": "Mauritanie (la)", "iso3": "MRT", "iso2": "MR", "isoN": "478"}, {"regex": "^(.*mau.+[cs].*|\\s*MUS\\s*|\\s*MU\\s*|\\s*480\\s*)$", "name_en": "Mauritius", "name_fr": "Maurice", "iso3": "MUS", "iso2": "MU", "isoN": "480"}, {"regex": "^(.*mayo.*|\\s*MYT\\s*|\\s*YT\\s*|\\s*175\\s*)$", "name_en": "Mayotte", "name_fr": "Mayotte", "iso3": "MYT", "iso2": "YT", "isoN": "175"}, {"regex": "^(.*m.[jx].*|\\s*[.emu]{3,}\\s*|\\s*MEX\\s*|\\s*MX\\s*|\\s*484\\s*)$", "name_en": "Mexico", "name_fr": "Mexique (le)", "iso3": "MEX", "iso2": "MX", "isoN": "484"}, {"regex": "^(.*micr.*|\\s*FSM\\s*|\\s*FM\\s*|\\s*583\\s*)$", "name_en": "Micronesia (Federated States of)", "name_fr": "Micron\u00e9sie (\u00c9tats f\u00e9d\u00e9r\u00e9s de)", "iso3": "FSM", "iso2": "FM", "isoN": "583"}, {"regex": "^(.*mol.*|\\s*MDA\\s*|\\s*MD\\s*|\\s*498\\s*)$", "name_en": "Moldova (the Republic of)", "name_fr": "Moldova (la R\u00e9publique de)", "iso3": "MDA", "iso2": "MD", "isoN": "498"}, {"regex": "^(.*mona.*|\\s*MCO\\s*|\\s*MC\\s*|\\s*492\\s*)$", "name_en": "Monaco", "name_fr": "Monaco", "iso3": "MCO", "iso2": "MC", "isoN": "492"}, {"regex": "^(.*mong.*|\\s*MNG\\s*|\\s*MN\\s*|\\s*496\\s*)$", "name_en": "Mongolia", "name_fr": "Mongolie (la)", "iso3": "MNG", "iso2": "MN", "isoN": "496"}, {"regex": "^(.*mo.+gr.*|.*crn.*|\\s*MNE\\s*|\\s*ME\\s*|\\s*499\\s*)$", "name_en": "Montenegro", "name_fr": "Mont\u00e9n\u00e9gro (le)", "iso3": "MNE", "iso2": "ME", "isoN": "499"}, {"regex": "^(.*mo.+se.*|\\s*MSR\\s*|\\s*MS\\s*|\\s*500\\s*)$", "name_en": "Montserrat", "name_fr": "Montserrat", "iso3": "MSR", "iso2": "MS", "isoN": "500"}, {"regex": "^(.*m[ao]roc.*|.*ma.h.*|\\s*MAR\\s*|\\s*MA\\s*|\\s*504\\s*)$", "name_en": "Morocco", "name_fr": "Maroc (le)", "iso3": "MAR", "iso2": "MA", "isoN": "504"}, {"regex": "^(.*moz.*|\\s*MOZ\\s*|\\s*MZ\\s*|\\s*508\\s*)$", "name_en": "Mozambique", "name_fr": "Mozambique (le)", "iso3": "MOZ", "iso2": "MZ", "isoN": "508"}, {"regex": "^(.*my.n?m.*|.*burm.*|\\s*MMR\\s*|\\s*MM\\s*|\\s*104\\s*)$", "name_en": "Myanmar", "name_fr": "Myanmar (le)", "iso3": "MMR", "iso2": "MM", "isoN": "104"}, {"regex": "^(.*nami.*|\\s*NAM\\s*|\\s*NA\\s*|\\s*516\\s*)$", "name_en": "Namibia", "name_fr": "Namibie (la)", "iso3": "NAM", "iso2": "NA", "isoN": "516"}, {"regex": "^(.*nau.*|\\s*NRU\\s*|\\s*NR\\s*|\\s*520\\s*)$", "name_en": "Nauru", "name_fr": "Nauru", "iso3": "NRU", "iso2": "NR", "isoN": "520"}, {"regex": "^(.*n.p.l.*|\\s*NPL\\s*|\\s*NP\\s*|\\s*524\\s*)$", "name_en": "Nepal", "name_fr": "N\u00e9pal (le)", "iso3": "NPL", "iso2": "NP", "isoN": "524"}, {"regex": "^(.*ne[dt].*|.*holl.*|.*pay.*|\\s*NLD\\s*|\\s*NL\\s*|\\s*528\\s*)$", "name_en": "Netherlands (the)", "name_fr": "Pays-Bas (les)", "iso3": "NLD", "iso2": "NL", "isoN": "528"}, {"regex": "^(.*n.+cal.*|\\s*NCL\\s*|\\s*NC\\s*|\\s*540\\s*)$", "name_en": "New Caledonia", "name_fr": "Nouvelle-Cal\u00e9donie (la)", "iso3": "NCL", "iso2": "NC", "isoN": "540"}, {"regex": "^(.*n.+z.a?l.*|.*aot.*|\\s*NZL\\s*|\\s*NZ\\s*|\\s*554\\s*)$", "name_en": "New Zealand", "name_fr": "Nouvelle-Z\u00e9lande (la)", "iso3": "NZL", "iso2": "NZ", "isoN": "554"}, {"regex": "^(.*n.+car.*|\\s*NIC\\s*|\\s*NI\\s*|\\s*558\\s*)$", "name_en": "Nicaragua", "name_fr": "Nicaragua (le)", "iso3": "NIC", "iso2": "NI", "isoN": "558"}, {"regex": "^(.*nig[^a]*|\\s*NER\\s*|\\s*NE\\s*|\\s*562\\s*)$", "name_en": "Niger (the)", "name_fr": "Niger (le)", "iso3": "NER", "iso2": "NE", "isoN": "562"}, {"regex": "^(.*nig.+a.*|\\s*NGA\\s*|\\s*NG\\s*|\\s*566\\s*)$", "name_en": "Nigeria", "name_fr": "Nig\u00e9ria (le)", "iso3": "NGA", "iso2": "NG", "isoN": "566"}, {"regex": "^(.*niu.*|\\s*NIU\\s*|\\s*NU\\s*|\\s*570\\s*)$", "name_en": "Niue", "name_fr": "Niue", "iso3": "NIU", "iso2": "NU", "isoN": "570"}, {"regex": "^(.*norf.*|\\s*NFK\\s*|\\s*NF\\s*|\\s*574\\s*)$", "name_en": "Norfolk Island", "name_fr": "Norfolk (l'\u00cele)", "iso3": "NFK", "iso2": "NF", "isoN": "574"}, {"regex": "^(.*n*.*ma[cq].d.*|\\s*[af][.mory]{3,}\\s*|\\s*MKD\\s*|\\s*MK\\s*|\\s*807\\s*)$", "name_en": "North Macedonia", "name_fr": "Mac\u00e9doine du Nord (la)", "iso3": "MKD", "iso2": "MK", "isoN": "807"}, {"regex": "^(.*n.+maria.*|.*maria.+n.*|\\s*MNP\\s*|\\s*MP\\s*|\\s*580\\s*)$", "name_en": "Northern Mariana Islands (the)", "name_fr": "Mariannes du Nord (les \u00celes)", "iso3": "MNP", "iso2": "MP", "isoN": "580"}, {"regex": "^(.*n..?re?[gjvw].*|.*vuo.*|\\s*NOR\\s*|\\s*NO\\s*|\\s*578\\s*)$", "name_en": "Norway", "name_fr": "Norv\u00e8ge (la)", "iso3": "NOR", "iso2": "NO", "isoN": "578"}, {"regex": "^([^r]*[ou]ma?\\W?n.*|\\s*OMN\\s*|\\s*OM\\s*|\\s*512\\s*)$", "name_en": "Oman", "name_fr": "Oman", "iso3": "OMN", "iso2": "OM", "isoN": "512"}, {"regex": "^(.*p.ki.*|\\s*PAK\\s*|\\s*PK\\s*|\\s*586\\s*)$", "name_en": "Pakistan", "name_fr": "Pakistan (le)", "iso3": "PAK", "iso2": "PK", "isoN": "586"}, {"regex": "^(.*pala.*|.*belu.*|\\s*PLW\\s*|\\s*PW\\s*|\\s*585\\s*)$", "name_en": "Palau", "name_fr": "Palaos (les)", "iso3": "PLW", "iso2": "PW", "isoN": "585"}, {"regex": "^(.*pale.*|.*fil.*|\\s*PSE\\s*|\\s*PS\\s*|\\s*275\\s*)$", "name_en": "Palestine, State of", "name_fr": "Palestine, \u00c9tat de", "iso3": "PSE", "iso2": "PS", "isoN": "275"}, {"regex": "^(.*pana.*|\\s*PAN\\s*|\\s*PA\\s*|\\s*591\\s*)$", "name_en": "Panama", "name_fr": "Panama (le)", "iso3": "PAN", "iso2": "PA", "isoN": "591"}, {"regex": "^(.*pap.*|\\s*PNG\\s*|\\s*PG\\s*|\\s*598\\s*)$", "name_en": "Papua New Guinea", "name_fr": "Papouasie-Nouvelle-Guin\u00e9e (la)", "iso3": "PNG", "iso2": "PG", "isoN": "598"}, {"regex": "^(.*para.*|\\s*PRY\\s*|\\s*PY\\s*|\\s*600\\s*)$", "name_en": "Paraguay", "name_fr": "Paraguay (le)", "iso3": "PRY", "iso2": "PY", "isoN": "600"}, {"regex": "^(.*p.r[ou].*|.*p.r\\W.*|\\s*PER\\s*|\\s*PE\\s*|\\s*604\\s*)$", "name_en": "Peru", "name_fr": "P\u00e9rou (le)", "iso3": "PER", "iso2": "PE", "isoN": "604"}, {"regex": "^(.*ph?il.*|\\s*PHL\\s*|\\s*PH\\s*|\\s*608\\s*)$", "name_en": "Philippines (the)", "name_fr": "Philippines (les)", "iso3": "PHL", "iso2": "PH", "isoN": "608"}, {"regex": "^(.*pit.*|\\s*PCN\\s*|\\s*PN\\s*|\\s*612\\s*)$", "name_en": "Pitcairn", "name_fr": "Pitcairn", "iso3": "PCN", "iso2": "PN", "isoN": "612"}, {"regex": "^([^f]*pol[^f]*|\\s*POL\\s*|\\s*PL\\s*|\\s*616\\s*)$", "name_en": "Poland", "name_fr": "Pologne (la)", "iso3": "POL", "iso2": "PL", "isoN": "616"}, {"regex": "^(.*p.+ug.*|\\s*PRT\\s*|\\s*PT\\s*|\\s*620\\s*)$", "name_en": "Portugal", "name_fr": "Portugal (le)", "iso3": "PRT", "iso2": "PT", "isoN": "620"}, {"regex": "^(.*p.+ico.*|\\s*PRI\\s*|\\s*PR\\s*|\\s*630\\s*)$", "name_en": "Puerto Rico", "name_fr": "Porto Rico", "iso3": "PRI", "iso2": "PR", "isoN": "630"}, {"regex": "^(.*qat.*|\\s*QAT\\s*|\\s*QA\\s*|\\s*634\\s*)$", "name_en": "Qatar", "name_fr": "Qatar (le)", "iso3": "QAT", "iso2": "QA", "isoN": "634"}, {"regex": "^(.*rou?m.*|\\s*ROU\\s*|\\s*RO\\s*|\\s*642\\s*)$", "name_en": "Romania", "name_fr": "Roumanie (la)", "iso3": "ROU", "iso2": "RO", "isoN": "642"}, {"regex": "^([^bd]*r[ou]ss.*|\\s*[.rf]{2,}\\s*|\\s*RUS\\s*|\\s*RU\\s*|\\s*643\\s*)$", "name_en": "Russian Federation (the)", "name_fr": "Russie (la F\u00e9d\u00e9ration de)", "iso3": "RUS", "iso2": "RU", "isoN": "643"}, {"regex": "^(.*r[uw]an.*|\\s*RWA\\s*|\\s*RW\\s*|\\s*646\\s*)$", "name_en": "Rwanda", "name_fr": "Rwanda (le)", "iso3": "RWA", "iso2": "RW", "isoN": "646"}, {"regex": "^(.*r.uni.*|\\s*REU\\s*|\\s*RE\\s*|\\s*638\\s*)$", "name_en": "R\u00e9union", "name_fr": "R\u00e9union (La)", "iso3": "REU", "iso2": "RE", "isoN": "638"}, {"regex": "^(.*s.+bart.*|\\s*BLM\\s*|\\s*BL\\s*|\\s*652\\s*)$", "name_en": "Saint Barth\u00e9lemy", "name_fr": "Saint-Barth\u00e9lemy", "iso3": "BLM", "iso2": "BL", "isoN": "652"}, {"regex": "^(.*s.+h.l.n.*|\\s*SHN\\s*|\\s*SH\\s*|\\s*654\\s*)$", "name_en": "Saint Helena, Ascension and Tristan da Cunha", "name_fr": "Sainte-H\u00e9l\u00e8ne, Ascension et Tristan da Cunha", "iso3": "SHN", "iso2": "SH", "isoN": "654"}, {"regex": "^(.*s.+kit.*|.*s.+chr.*|\\s*KNA\\s*|\\s*KN\\s*|\\s*659\\s*)$", "name_en": "Saint Kitts and Nevis", "name_fr": "Saint-Kitts-et-Nevis", "iso3": "KNA", "iso2": "KN", "isoN": "659"}, {"regex": "^(.*s.+luc.*|\\s*LCA\\s*|\\s*LC\\s*|\\s*662\\s*)$", "name_en": "Saint Lucia", "name_fr": "Sainte-Lucie", "iso3": "LCA", "iso2": "LC", "isoN": "662"}, {"regex": "^(.*s.+mart[^dq]*|\\s*MAF\\s*|\\s*MF\\s*|\\s*663\\s*)$", "name_en": "Saint Martin (French part)", "name_fr": "Saint-Martin (partie fran\u00e7aise)", "iso3": "MAF", "iso2": "MF", "isoN": "663"}, {"regex": "^(.*s.+pie.*|\\s*SPM\\s*|\\s*PM\\s*|\\s*666\\s*)$", "name_en": "Saint Pierre and Miquelon", "name_fr": "Saint-Pierre-et-Miquelon", "iso3": "SPM", "iso2": "PM", "isoN": "666"}, {"regex": "^(.*s.+vi.+t.*|.*hair.*|\\s*VCT\\s*|\\s*VC\\s*|\\s*670\\s*)$", "name_en": "Saint Vincent and the Grenadines", "name_fr": "Saint-Vincent-et-les Grenadines", "iso3": "VCT", "iso2": "VC", "isoN": "670"}, {"regex": "^([^a]*s.moa[^a]*|\\s*WSM\\s*|\\s*WS\\s*|\\s*882\\s*)$", "name_en": "Samoa", "name_fr": "Samoa (le)", "iso3": "WSM", "iso2": "WS", "isoN": "882"}, {"regex": "^(.*s.+marin.*|\\s*SMR\\s*|\\s*SM\\s*|\\s*674\\s*)$", "name_en": "San Marino", "name_fr": "Saint-Marin", "iso3": "SMR", "iso2": "SM", "isoN": "674"}, {"regex": "^(.*s.+tom.*|\\s*STP\\s*|\\s*ST\\s*|\\s*678\\s*)$", "name_en": "Sao Tome and Principe", "name_fr": "Sao Tom\u00e9-et-Principe", "iso3": "STP", "iso2": "ST", "isoN": "678"}, {"regex": "^(.*sao?ud.*|.*sa..d.*|\\s*SAU\\s*|\\s*SA\\s*|\\s*682\\s*)$", "name_en": "Saudi Arabia", "name_fr": "Arabie saoudite (l')", "iso3": "SAU", "iso2": "SA", "isoN": "682"}, {"regex": "^(.*s.n.g.*|\\s*SEN\\s*|\\s*SN\\s*|\\s*686\\s*)$", "name_en": "Senegal", "name_fr": "S\u00e9n\u00e9gal (le)", "iso3": "SEN", "iso2": "SN", "isoN": "686"}, {"regex": "^(.*se?rb.*|\\s*SRB\\s*|\\s*RS\\s*|\\s*688\\s*)$", "name_en": "Serbia", "name_fr": "Serbie (la)", "iso3": "SRB", "iso2": "RS", "isoN": "688"}, {"regex": "^(.*seyc.*|\\s*SYC\\s*|\\s*SC\\s*|\\s*690\\s*)$", "name_en": "Seychelles", "name_fr": "Seychelles (les)", "iso3": "SYC", "iso2": "SC", "isoN": "690"}, {"regex": "^(.*sier.*|\\s*SLE\\s*|\\s*SL\\s*|\\s*694\\s*)$", "name_en": "Sierra Leone", "name_fr": "Sierra Leone (la)", "iso3": "SLE", "iso2": "SL", "isoN": "694"}, {"regex": "^(.*sin[gh].*|\\s*SGP\\s*|\\s*SG\\s*|\\s*702\\s*)$", "name_en": "Singapore", "name_fr": "Singapour", "iso3": "SGP", "iso2": "SG", "isoN": "702"}, {"regex": "^(.*s.*maa?rt[^fq]*|\\s*SXM\\s*|\\s*SX\\s*|\\s*534\\s*)$", "name_en": "Sint Maarten (Dutch part)", "name_fr": "Saint-Martin (partie n\u00e9erlandaise)", "iso3": "SXM", "iso2": "SX", "isoN": "534"}, {"regex": "^(.*slo.+[kq].*|\\s*SVK\\s*|\\s*SK\\s*|\\s*703\\s*)$", "name_en": "Slovakia", "name_fr": "Slovaquie (la)", "iso3": "SVK", "iso2": "SK", "isoN": "703"}, {"regex": "^(.*slo.+ni.*|\\s*SVN\\s*|\\s*SI\\s*|\\s*705\\s*)$", "name_en": "Slovenia", "name_fr": "Slov\u00e9nie (la)", "iso3": "SVN", "iso2": "SI", "isoN": "705"}, {"regex": "^(.*s.lo.+l.*|.*l.+s.lo.*|\\s*SLB\\s*|\\s*SB\\s*|\\s*90\\s*)$", "name_en": "Solomon Islands", "name_fr": "Salomon (les \u00celes)", "iso3": "SLB", "iso2": "SB", "isoN": "90"}, {"regex": "^(.*som.*|\\s*SOM\\s*|\\s*SO\\s*|\\s*706\\s*)$", "name_en": "Somalia", "name_fr": "Somalie (la)", "iso3": "SOM", "iso2": "SO", "isoN": "706"}, {"regex": "^(.*s[ou].+af.*|.*af.+s[ou].*|\\s*[.ars]{3,}\\s*|\\s*ZAF\\s*|\\s*ZA\\s*|\\s*710\\s*)$", "name_en": "South Africa", "name_fr": "Afrique du Sud (l')", "iso3": "ZAF", "iso2": "ZA", "isoN": "710"}, {"regex": "^(.*s.+g.o.*|.*g.o.+s.*|\\s*SGS\\s*|\\s*GS\\s*|\\s*239\\s*)$", "name_en": "South Georgia and the South Sandwich Islands", "name_fr": "G\u00e9orgie du Sud-et-les \u00celes Sandwich du Sud (la)", "iso3": "SGS", "iso2": "GS", "isoN": "239"}, {"regex": "^(.*s.+so?uda.*|.*so?uda.+s.*|\\s*SSD\\s*|\\s*SS\\s*|\\s*728\\s*)$", "name_en": "South Sudan", "name_fr": "Soudan du Sud (le)", "iso3": "SSD", "iso2": "SS", "isoN": "728"}, {"regex": "^(.*e?spa.*|\\s*ESP\\s*|\\s*ES\\s*|\\s*724\\s*)$", "name_en": "Spain", "name_fr": "Espagne (l')", "iso3": "ESP", "iso2": "ES", "isoN": "724"}, {"regex": "^(.*sr.+la.*|.*cey.*|.*ila.k.*|\\s*LKA\\s*|\\s*LK\\s*|\\s*144\\s*)$", "name_en": "Sri Lanka", "name_fr": "Sri Lanka", "iso3": "LKA", "iso2": "LK", "isoN": "144"}, {"regex": "^([^ou]*so?.d.n[^ou]*|\\s*SDN\\s*|\\s*SD\\s*|\\s*729\\s*)$", "name_en": "Sudan (the)", "name_fr": "Soudan (le)", "iso3": "SDN", "iso2": "SD", "isoN": "729"}, {"regex": "^(.*sur.*|\\s*SUR\\s*|\\s*SR\\s*|\\s*740\\s*)$", "name_en": "Suriname", "name_fr": "Suriname (le)", "iso3": "SUR", "iso2": "SR", "isoN": "740"}, {"regex": "^(.*sva.*|\\s*SJM\\s*|\\s*SJ\\s*|\\s*744\\s*)$", "name_en": "Svalbard and Jan Mayen", "name_fr": "Svalbard et l'\u00cele Jan Mayen (le)", "iso3": "SJM", "iso2": "SJ", "isoN": "744"}, {"regex": "^(.*s[uw].d.*|.*sve.*|\\s*SWE\\s*|\\s*SE\\s*|\\s*752\\s*)$", "name_en": "Sweden", "name_fr": "Su\u00e8de (la)", "iso3": "SWE", "iso2": "SE", "isoN": "752"}, {"regex": "^(.*sc?h?[uvw]e?i.*|.*helv.*|\\s*CHE\\s*|\\s*CH\\s*|\\s*756\\s*)$", "name_en": "Switzerland", "name_fr": "Suisse (la)", "iso3": "CHE", "iso2": "CH", "isoN": "756"}, {"regex": "^(.*syr.*|\\s*SYR\\s*|\\s*SY\\s*|\\s*760\\s*)$", "name_en": "Syrian Arab Republic (the)", "name_fr": "R\u00e9publique arabe syrienne (la)", "iso3": "SYR", "iso2": "SY", "isoN": "760"}, {"regex": "^(.*ta.[pw].*|.*r.p.+chin.*|\\s*[.cor]{3,}\\s*|\\s*TWN\\s*|\\s*TW\\s*|\\s*158\\s*)$", "name_en": "Taiwan (Province of China)", "name_fr": "Ta\u00efwan (Province de Chine)", "iso3": "TWN", "iso2": "TW", "isoN": "158"}, {"regex": "^(.*tad?j.*|\\s*TJK\\s*|\\s*TJ\\s*|\\s*762\\s*)$", "name_en": "Tajikistan", "name_fr": "Tadjikistan (le)", "iso3": "TJK", "iso2": "TJ", "isoN": "762"}, {"regex": "^(.*tanz.*|\\s*[ur][.rtu]{2,}\\s*|\\s*TZA\\s*|\\s*TZ\\s*|\\s*834\\s*)$", "name_en": "Tanzania, the United Republic of", "name_fr": "Tanzanie (la R\u00e9publique-Unie de)", "iso3": "TZA", "iso2": "TZ", "isoN": "834"}, {"regex": "^(.*tha.*|.*siam.*|\\s*THA\\s*|\\s*TH\\s*|\\s*764\\s*)$", "name_en": "Thailand", "name_fr": "Tha\u00eflande (la)", "iso3": "THA", "iso2": "TH", "isoN": "764"}, {"regex": "^(.*tim.*|\\s*TLS\\s*|\\s*TL\\s*|\\s*626\\s*)$", "name_en": "Timor-Leste", "name_fr": "Timor-Leste (le)", "iso3": "TLS", "iso2": "TL", "isoN": "626"}, {"regex": "^(.*tog.*|\\s*TGO\\s*|\\s*TG\\s*|\\s*768\\s*)$", "name_en": "Togo", "name_fr": "Togo (le)", "iso3": "TGO", "iso2": "TG", "isoN": "768"}, {"regex": "^(.*tok.*|\\s*TKL\\s*|\\s*TK\\s*|\\s*772\\s*)$", "name_en": "Tokelau", "name_fr": "Tokelau (les)", "iso3": "TKL", "iso2": "TK", "isoN": "772"}, {"regex": "^(.*tong.*|\\s*TON\\s*|\\s*TO\\s*|\\s*776\\s*)$", "name_en": "Tonga", "name_fr": "Tonga (les)", "iso3": "TON", "iso2": "TO", "isoN": "776"}, {"regex": "^(.*trin.*|\\s*TTO\\s*|\\s*TT\\s*|\\s*780\\s*)$", "name_en": "Trinidad and Tobago", "name_fr": "Trinit\u00e9-et-Tobago (la)", "iso3": "TTO", "iso2": "TT", "isoN": "780"}, {"regex": "^(.*tu?\\W?ni.*|\\s*TUN\\s*|\\s*TN\\s*|\\s*788\\s*)$", "name_en": "Tunisia", "name_fr": "Tunisie (la)", "iso3": "TUN", "iso2": "TN", "isoN": "788"}, {"regex": "^(.*tu?\\W?r[kq][^s]*|\\s*TUR\\s*|\\s*TR\\s*|\\s*792\\s*)$", "name_en": "Turkey", "name_fr": "Turquie (la)", "iso3": "TUR", "iso2": "TR", "isoN": "792"}, {"regex": "^(.*turkm.*|\\s*TKM\\s*|\\s*TM\\s*|\\s*795\\s*)$", "name_en": "Turkmenistan", "name_fr": "Turkm\u00e9nistan (le)", "iso3": "TKM", "iso2": "TM", "isoN": "795"}, {"regex": "^(.*turks.*|\\s*TCA\\s*|\\s*TC\\s*|\\s*796\\s*)$", "name_en": "Turks and Caicos Islands (the)", "name_fr": "Turks-et-Ca\u00efcos (les \u00celes)", "iso3": "TCA", "iso2": "TC", "isoN": "796"}, {"regex": "^(.*tuv.*|\\s*TUV\\s*|\\s*TV\\s*|\\s*798\\s*)$", "name_en": "Tuvalu", "name_fr": "Tuvalu (les)", "iso3": "TUV", "iso2": "TV", "isoN": "798"}, {"regex": "^(.*o?ugan.*|\\s*UGA\\s*|\\s*UG\\s*|\\s*800\\s*)$", "name_en": "Uganda", "name_fr": "Ouganda (l')", "iso3": "UGA", "iso2": "UG", "isoN": "800"}, {"regex": "^(.*ukr.*|\\s*UKR\\s*|\\s*UA\\s*|\\s*804\\s*)$", "name_en": "Ukraine", "name_fr": "Ukraine (l')", "iso3": "UKR", "iso2": "UA", "isoN": "804"}, {"regex": "^(.*u.+mir.*|.*mir.+u.*|\\s*[au][.aeu]{2,}\\s*|.*im.+mu.*|\\s*ARE\\s*|\\s*AE\\s*|\\s*784\\s*)$", "name_en": "United Arab Emirates (the)", "name_fr": "\u00c9mirats arabes unis (les)", "iso3": "ARE", "iso2": "AE", "isoN": "784"}, {"regex": "^(.*u.+king.*|.*roy.+u.*|\\s*[.bgku]{2,}\\s*|.*gr.+b.*|[^b]*[ea]ngl.*|\\s*GBR\\s*|\\s*GB\\s*|\\s*826\\s*)$", "name_en": "United Kingdom of Great Britain and Northern Ireland (the)", "name_fr": "Royaume-Uni de Grande-Bretagne et d'Irlande du Nord (le)", "iso3": "GBR", "iso2": "GB", "isoN": "826"}, {"regex": "^(.*u.+st.+mi.*|.*l.+mi.+un.*|\\s*UMI\\s*|\\s*UM\\s*|\\s*581\\s*)$", "name_en": "United States Minor Outlying Islands (the)", "name_fr": "\u00celes mineures \u00e9loign\u00e9es des \u00c9tats-Unis (les)", "iso3": "UMI", "iso2": "UM", "isoN": "581"}, {"regex": "^(.*u.+st.+am.*|.*t.+u.+am.*|.+es\\s*$|\\s*u[.as]{1,}\\s*|\\s*am.+ca\\s*|\\s*USA\\s*|\\s*US\\s*|\\s*840\\s*)$", "name_en": "United States of America (the)", "name_fr": "\u00c9tats-Unis d'Am\u00e9rique (les)", "iso3": "USA", "iso2": "US", "isoN": "840"}, {"regex": "^(.*urug.*|\\s*URY\\s*|\\s*UY\\s*|\\s*858\\s*)$", "name_en": "Uruguay", "name_fr": "Uruguay (l')", "iso3": "URY", "iso2": "UY", "isoN": "858"}, {"regex": "^(.*o?uzb.*|\\s*UZB\\s*|\\s*UZ\\s*|\\s*860\\s*)$", "name_en": "Uzbekistan", "name_fr": "Ouzb\u00e9kistan (l')", "iso3": "UZB", "iso2": "UZ", "isoN": "860"}, {"regex": "^(.*van.*|\\s*VUT\\s*|\\s*VU\\s*|\\s*548\\s*)$", "name_en": "Vanuatu", "name_fr": "Vanuatu (le)", "iso3": "VUT", "iso2": "VU", "isoN": "548"}, {"regex": "^(.*vene.*|\\s*VEN\\s*|\\s*VE\\s*|\\s*862\\s*)$", "name_en": "Venezuela (Bolivarian Republic of)", "name_fr": "Venezuela (R\u00e9publique bolivarienne du)", "iso3": "VEN", "iso2": "VE", "isoN": "862"}, {"regex": "^(.*vi.t.*|\\s*VNM\\s*|\\s*VN\\s*|\\s*704\\s*)$", "name_en": "Viet Nam", "name_fr": "Viet Nam (le)", "iso3": "VNM", "iso2": "VN", "isoN": "704"}, {"regex": "^([^u]*vie?r[^u]+|[^d]*vie?r[^d]+|\\s*VGB\\s*|\\s*VG\\s*|\\s*92\\s*)$", "name_en": "Virgin Islands (British)", "name_fr": "Vierges britanniques (les\u00a0\u00celes)", "iso3": "VGB", "iso2": "VG", "isoN": "92"}, {"regex": "^([^b]*vie?r[^b]*|[^b]*vie?r[^b]*|\\s*VIR\\s*|\\s*VI\\s*|\\s*850\\s*)$", "name_en": "Virgin Islands (U.S.)", "name_fr": "Vierges des \u00c9tats-Unis (les \u00celes)", "iso3": "VIR", "iso2": "VI", "isoN": "850"}, {"regex": "^(.*wal.*|\\s*WLF\\s*|\\s*WF\\s*|\\s*876\\s*)$", "name_en": "Wallis and Futuna", "name_fr": "Wallis-et-Futuna\u00a0", "iso3": "WLF", "iso2": "WF", "isoN": "876"}, {"regex": "^(.*[ow].+sah.*|.*sah.+[ow].*|\\s*ESH\\s*|\\s*EH\\s*|\\s*732\\s*)$", "name_en": "Western Sahara*", "name_fr": "Sahara occidental (le)*", "iso3": "ESH", "iso2": "EH", "isoN": "732"}, {"regex": "^(.*y.m.*|\\s*YEM\\s*|\\s*YE\\s*|\\s*887\\s*)$", "name_en": "Yemen", "name_fr": "Y\u00e9men (le)", "iso3": "YEM", "iso2": "YE", "isoN": "887"}, {"regex": "^(.*zam[^q]*|\\s*ZMB\\s*|\\s*ZM\\s*|\\s*894\\s*)$", "name_en": "Zambia", "name_fr": "Zambie (la)", "iso3": "ZMB", "iso2": "ZM", "isoN": "894"}, {"regex": "^(.*zim.*|\\s*ZWE\\s*|\\s*ZW\\s*|\\s*716\\s*)$", "name_en": "Zimbabwe", "name_fr": "Zimbabwe (le)", "iso3": "ZWE", "iso2": "ZW", "isoN": "716"}, {"regex": "^([^tv]*[^a-z]land.*|\\s*ALA\\s*|\\s*AX\\s*|\\s*248\\s*)$", "name_en": "\u00c5land Islands", "name_fr": "\u00c5land(les \u00celes)", "iso3": "ALA", "iso2": "AX", "isoN": "248"}, {"metadata": {"name_en": "English short name", "name_fr": "French short name", "iso3": "alpha-3 code", "iso2": "alpha-2 code", "isoN": "numeric"}}, {"sources": ["[https://www.iso.org/iso-3166-country-codes.html](ISO 3166 COUNTRY CODES)", "[https://en.wikipedia.org/wiki/List_of_alternative_country_names](ALTERNATIVE NAMES)"]}]